data_id,period,event_type_code,event_type,actor1,assoc_actor_1,actor2,assoc_actor_2,inter2,interaction,region,country,admin1,admin2,admin3,location,latitude,longitude,geo_precision,source,source_scale,notes,fatalities
CON1990437,2018 January,7,Riots/Protests,Protesters (Afghanistan),Labour Group (Afghanistan),0,0,0,60,Southern Asia,Afghanistan,Herat,Hirat,0,Herat,34.3482,62.1997,3,Pajhwok Afghan News,National,"After masked gunmen torched 3 vehicles belonging to owners of marble mines in the Rabat Akhunzada area of Herat Province on January 1, 2018, the miners protested the insecurity of the roadways by bringing the vehicles to the provincial governor's house.",0
CON1365662,2018 January,7,Riots/Protests,Rioters (Afghanistan),0,0,0,0,50,Southern Asia,Afghanistan,Urozgan,Tarinkot,0,Tarinkot,32.6268,65.8733,1,Pajhwok Afghan News,National,"Dozens of residents of Tarinkot City carrying guns held a gathering in support of the government on January 2, 2018. They claimed no affiliation with any political party. They also criticized ousted Balkh governor Atta Mohammad Noor for refusing to leave his post.",0
CON1990440,2018 January,7,Riots/Protests,Protesters (Afghanistan),0,0,0,0,60,Southern Asia,Afghanistan,Badakhshan,Fayzabad,0,Fayzabad,37.1166,70.58,3,BBC Monitoring; Noor TV,Subnational-national,"Hundreds of people in Badakshan Province protested in support of ousted Balkh governor, Atta Mohammad Noor, as reported on January 3, 2018.",0
CON1990441,2018 January,7,Riots/Protests,Protesters (Afghanistan),Teachers (Afghanistan),0,0,0,60,Southern Asia,Afghanistan,Helmand,Nahri Saraj,0,Girishk,31.8209,64.57,2,Pajhwok Afghan News,National,"Hundreds of schoolteachers went on strike and gathered in protest on January 3, 2018, in Nahri Saraj District, Helmand Province, to boycott classes until months of unpaid salary was provided. They blamed administrative corruption for the issues.",0
CON1990442,2018 January,7,Riots/Protests,Protesters (Afghanistan),Students (Afghanistan); Teachers (Afghanistan),0,0,0,60,Southern Asia,Afghanistan,Kabul,Kabul,0,Kabul,34.5167,69.1833,1,Pajhwok Afghan News,National,"Up to 300 students and officials from private universities protested a delay in the distribution of degrees by symbolically closing and blocking the gate to the Ministry of Higher Education in Kabul City on January 3, 2018.",0
CON1365253,2018 January,7,Riots/Protests,Rioters (Afghanistan),Labour Group (Afghanistan),Police Forces of Afghanistan (2004-),0,1,15,Southern Asia,Afghanistan,Kabul,Kabul,0,Kabul,34.5167,69.1833,1,BBC Monitoring; Shamshad TV; Agence France Presse,Subnational-international,"Shopkeepers angrily protested a police crackdown on a number of shops accused of bootlegging alcohol and drugs on January 4, 2018. The protests resulted in clashes in which 1 rioter was shot by police. The demonstrations, which grew after the civilian fatality, was later targeted by a suicide bomber (coded as a separate event).",1
CON1990471,2018 January,7,Riots/Protests,Protesters (Afghanistan),0,0,0,0,60,Southern Asia,Afghanistan,Herat,Hirat,0,Herat,34.3482,62.1997,3,BBC Monitoring; Herat TV,Subnational-national,"Hundreds of people protested in support of government forces and against the armed opponents of the government in Herat Province, as reported on January 20, 2018.",0
CON1990479,2018 January,7,Riots/Protests,Protesters (Afghanistan),0,0,0,0,60,Southern Asia,Afghanistan,Faryab,Shirin Tagab,0,Shirin Tagab,36.2553,64.8138,2,Pajhwok Afghan News,National,"Residents of Shirin Tagab District, Faryab Province, gathered on the Maymana-Mazar-e Sharif highway on January 23, 2018, to protest insecurity in the district, resulting in the closing of the highway.",0
CON1360882,2018 January,7,Riots/Protests,Police Forces of Afghanistan (2004-),0,Rioters (Afghanistan),0,5,15,Southern Asia,Afghanistan,Farah,Farah,0,Farah,32.3745,62.1164,1,BBC Monitoring; Afghan Islamic Press; Radio Bost; Afghan Channel One (1TV); Pajhwok Afghan News,Subnational-national,"Police opened fire on rioters who tried to enter the governor's office by force in Farah City on January 24, 2018. The riots began peacefully when hundreds or thousands of residents took to the streets to protest the insecurity in the province as well as the killing of a student by police forces (coded as a separate event). 2-7 civilians were injured when policemen reportedly shot into the air after rioters began to throw stones and smash mirrors on police cars. The governor of Farah stepped down after this incident.",0
CON1990483,2018 January,7,Riots/Protests,Protesters (Afghanistan),0,0,0,0,60,Southern Asia,Afghanistan,Baghlan,Pul-e Khumri,0,Pul-e Khumri,35.9446,68.7151,1,Pajhwok Afghan News,National,"Reports on February 3, 2018, that dozens of residents of different villages around Puli Khumri District had gathered in front of the Baghlan Provincial Council building in the capital city for 2 weeks to protest government negligence and ask for support in rebuilding their homes after they were destroyed in airstrikes by the government.",0
CON1990490,2018 January,7,Riots/Protests,Protesters (Afghanistan),0,0,0,0,60,Southern Asia,Afghanistan,Helmand,Lashkargah,0,Lashkargah,31.5938,64.3716,3,BBC Monitoring; Helmand Local Radio,Subnational-national,"Hundreds of local residents and elders gathered in Helmand Province in support of national security forces and recent security developments, as reported on January 28, 2018.",0
CON1990495,2018 February,7,Riots/Protests,Protesters (Afghanistan),0,0,0,0,60,Southern Asia,Afghanistan,Kabul,Kabul,0,Kabul,34.5167,69.1833,1,Pajhwok Afghan News,National,"Dozens of Afghan civilians gathered in front of the Pakistani Embassy in Kabul City on February 1, 2018, in order to call on the international community to designate Pakistan as a ""terrorist country."" This comes after claims by Afghan government bodies that Pakistan had aided in training and/or equipping some of the militants responsible for several recent high-profile attacks in the capital.",0
CON1990504,2018 February,7,Riots/Protests,Protesters (Afghanistan),0,0,0,0,60,Southern Asia,Afghanistan,Logar,Pul i Alam,0,Puli Alam,33.9953,69.0227,1,BBC Monitoring; National Afghanistan TV,National,"On February 5th, thousands of residents from northern Baghlan province staged a protest demonstration in Puli Alam city against militancy and in support of government's programs.",0
CON1990506,2018 February,7,Riots/Protests,Protesters (Afghanistan),0,0,0,0,60,Southern Asia,Afghanistan,Paktia,Dand Wa Patan,0,Dand Wa Patan,33.7917,69.9094,2,Pajhwok Afghan News English,National,"On February 6th, hundreds of residents staged protests in Dand Wa Patan district against movements by Pakistani forces along the Durand Line.",0
CON1990509,2018 February,7,Riots/Protests,Protesters (Afghanistan),0,0,0,0,60,Southern Asia,Afghanistan,Baghlan,Pul-e Khumri,0,Pul-e Khumri,35.9446,68.7151,1,Pajhwok Afghan News English,National,"On February 8th, civil society activists from northern Baghlan province staged a protest demonstration in Pul-e Khumri city to demand that the government stop illegal land grabbing, and return lands to their rightful owners.",0
CON1990510,2018 February,7,Riots/Protests,Protesters (Afghanistan),0,0,0,0,60,Southern Asia,Afghanistan,Kabul,Kabul,0,Kabul,34.5167,69.1833,1,Pajhwok Afghan News English,National,"On February 9th, dozens of youths staged a protest demonstration in Kabul in support of the Pashtun justice protests taking place in Islamabad, Pakistan.",0
CON1990512,2018 February,7,Riots/Protests,Protesters (Afghanistan),0,0,0,0,60,Southern Asia,Afghanistan,Faryab,Shirin Tagab,0,Shirin Tagab,36.2553,64.8138,2,Pajhwok Afghan News English,National,"On February 11th, the family members of pro-government militia men who were killed by members of another militia in Gerezwan Qashlaq village a day before staged a protest demonstration in Shirin Tagab district to demand justice.",0
CON1990513,2018 February,7,Riots/Protests,Protesters (Afghanistan),0,0,0,0,60,Southern Asia,Afghanistan,Balkh,Mazar-e Sharif,0,Mazar-e Sharif,36.709,67.1109,1,Pajhwok Afghan News English,National,"On February 11th, hundreds of people staged a protest demonstration in Mazar-e Sharif city, Balkh province, against Pakistan and in support of the Pashtun protest in Islamabad.",0
CON1990518,2018 February,7,Riots/Protests,Protesters (Afghanistan),0,0,0,0,60,Southern Asia,Afghanistan,Kandahar,Kandahar,0,Kandahar,31.6133,65.7101,3,BBC Monitoring; Shamshad TV,National,"On February 11th, locals staged a protest demonstration in Kandahar province against Pakistan and in support of the Pashtun protest in Islamabad.",0
CON1990521,2018 February,7,Riots/Protests,Protesters (Afghanistan),0,0,0,0,60,Southern Asia,Afghanistan,Nangarhar,Jalalabad,0,Jalalabad,34.4265,70.4515,1,BBC Monitoring; Sharq TV,National,"On February 11th, hundreds of people staged a protest demonstration in Jalalabad city, Nangarhar province, against Pakistan and in support of the Pashtun protest in Islamabad.",0
CON1990520,2018 February,7,Riots/Protests,Protesters (Afghanistan),0,0,0,0,60,Southern Asia,Afghanistan,Urozgan,Tarinkot,0,Tarinkot,32.6268,65.8733,1,BBC Monitoring; Shamshad TV,National,"As reported on February 13th, locals staged a large protest demonstration in Tarinkot city, Urozgan province, to demand the government launch the distribution of electronic identity cards.",0
CON1990523,2018 February,7,Riots/Protests,Protesters (Afghanistan),0,0,0,0,60,Southern Asia,Afghanistan,Logar,Pul i Alam,0,Puli Alam,33.9953,69.0227,1,Pajhwok Afghan News English,National,"On February 17th, around 400 locals staged a protest demonstration in Puli Alam city against Pakistan and called for a ban on local transactions in Pakistani rupees across the country.",0
CON1990527,2018 February,7,Riots/Protests,Protesters (Afghanistan),0,0,0,0,60,Southern Asia,Afghanistan,Samangan,Aybak,0,Samangan,36.2647,68.0155,1,Pajhwok Afghan News English,National,"On February 20th, around 400 supporters of Samangan Provincial Council member Sifatullah Samangani staged a protest in the provincial capital against the appointment of Zaiuddin Zia to the position of Deputy Governor.",0
CON1990529,2018 February,7,Riots/Protests,Protesters (Afghanistan),0,0,0,0,60,Southern Asia,Afghanistan,Kunar,Asadabad,0,Asadabad,34.8731,71.147,3,BBC Monitoring; Shamshad TV,National,"As reported on February 21st, a large number of residents staged a protest demonstration in Kunar province to demand the distribution of electronic identity cards throughout the country.",0
CON1990528,2018 February,7,Riots/Protests,Protesters (Afghanistan),0,0,0,0,60,Southern Asia,Afghanistan,Ghazni,Qarabagh,0,Qarabagh,33.198,68.108,1,Pajhwok Afghan News English,National,"On February 22nd, residents of Qarabagh staged a protest demonstration in the town against the actions of local police and Taliban militants following the death of a child in a battle the day before.",0
CON1990534,2018 February,7,Riots/Protests,Protesters (Afghanistan),0,0,0,0,60,Southern Asia,Afghanistan,Baghlan,Pul-e Khumri,0,Pul-e Khumri,35.9446,68.7151,1,Pajhwok Afghan News English,National,"On February 28th, dozens of civil society activists, influential figures and elders staged a protest demonstration in Pul-e Khumri, against Pakistan's alleged involvement in sponsoring terrorism.",0
CON1990543,2018 March,7,Riots/Protests,Protesters (Afghanistan),0,0,0,0,60,Southern Asia,Afghanistan,Ghazni,Ghazni,0,Ghazni,33.5508,68.4225,1,Pajhwok Afghan News English,National,"On March 3rd, a large number of people blocked the Kabul-Kandahar road and held demonstrations in Ghazni city following the killing of civilians in the Sherabad area of Qarabagh district by unidentified armed men in Army uniforms on March 2nd.",0
CON1990539,2018 March,7,Riots/Protests,Protesters (Afghanistan),0,0,0,0,60,Southern Asia,Afghanistan,Ghazni,Qarabagh,0,Qarabagh,33.198,68.108,2,Pajhwok Afghan News English,National,"On March 3rd, hundreds of people blocked the Kabul-Kandahar road and held demonstrations throughout Qarabagh district following the killing of 2 civilians, and the kidnapping of 2 more, in the Sherabad area of the district by unidentified armed men in Army uniforms on March 2nd.",0
CON1990544,2018 March,7,Riots/Protests,Protesters (Afghanistan),0,0,0,0,60,Southern Asia,Afghanistan,Ghazni,Ghazni,0,Ghazni,33.5508,68.4225,1,Pajhwok Afghan News English,National,"On March 4th, a large number of people continued to block the Kabul-Kandahar road and hold demonstrations in Ghazni city following the killing of civilians in the Sherabad area of Qarabagh district by unidentified armed men in Army uniforms on March 2nd.",0
CON1990541,2018 March,7,Riots/Protests,Protesters (Afghanistan),0,0,0,0,60,Southern Asia,Afghanistan,Khost,Nadir Shah Kot,0,Nadir Shah Kot,33.3066,69.6938,2,Pajhwok Afghan News English,National,"On March 4th, the inhabitants of Zaryai village of Nadir Shah Kot district, Khost, staged a protest demonstration following the killing of 4 civilians in an operation by Afghan Special Forces the night before.",0
CON1990542,2018 March,7,Riots/Protests,Protesters (Afghanistan),0,0,0,0,60,Southern Asia,Afghanistan,Ghazni,Qarabagh,0,Qarabagh,33.198,68.108,2,Pajhwok Afghan News English,National,"On March 4th, hundreds of people continued to block the Kabul-Kandahar road and hold demonstrations throughout Qarabagh district following the killing of civilians in the Sherabad area of the district by unidentified armed men in Army uniforms on March 2nd.",0
CON1990545,2018 March,7,Riots/Protests,Protesters (Afghanistan),0,0,0,0,60,Southern Asia,Afghanistan,Ghazni,Qarabagh,0,Qarabagh,33.198,68.108,2,Pajhwok Afghan News English,National,"On March 5th, hundreds of people continued to block the Kabul-Kandahar road and hold demonstrations throughout Qarabagh district following the killing of civilians in the Sherabad area of the district by unidentified armed men in Army uniforms on March 2nd.",0
CON1990546,2018 March,7,Riots/Protests,Protesters (Afghanistan),0,0,0,0,60,Southern Asia,Afghanistan,Ghazni,Ghazni,0,Ghazni,33.5508,68.4225,1,Pajhwok Afghan News English,National,"On March 5th, a large number of people continued to block the Kabul-Kandahar road and hold demonstrations in Ghazni city following the killing of civilians in the Sherabad area of Qarabagh district by unidentified armed men in Army uniforms on March 2nd.",0
CON1990550,2018 March,7,Riots/Protests,Protesters (Afghanistan),0,0,0,0,60,Southern Asia,Afghanistan,Ghazni,Qarabagh,0,Qarabagh,33.198,68.108,2,Pajhwok Afghan News English,National,"On March 6th, hundreds of people continued to block the Kabul-Kandahar road and hold demonstrations throughout Qarabagh district following the killing of civilians in the Sherabad area of the district by unidentified armed men in Army uniforms on March 2nd.",0
CON1990557,2018 March,7,Riots/Protests,Protesters (Afghanistan),0,0,0,0,60,Southern Asia,Afghanistan,Urozgan,Tarinkot,0,Tarinkot,32.6268,65.8733,1,BBC Monitoring; Paiwastoon Ghag,National,"As reported on March 6th, dozens of residents staged a protest demonstration in Tarinkot city, Urozgan, against the local education director, Ihsanullah Nasher, alleging corruption and embezzlement.",0
CON1990554,2018 March,7,Riots/Protests,Protesters (Afghanistan),0,0,0,0,60,Southern Asia,Afghanistan,Kabul,Kabul,0,Kabul,34.5167,69.1833,1,Pajhwok Afghan News English,National,"On March 7th, dozens of people staged a protest demonstration in Kabul, accusing a lawmaker's bodyguards of harassing people.",0
CON1990559,2018 March,7,Riots/Protests,Protesters (Afghanistan),0,0,0,0,60,Southern Asia,Afghanistan,Kunar,Asadabad,0,Asadabad,34.8731,71.147,3,BBC Monitoring; Shamshad TV,Subnational,"On March 7th, a large number of women staged a protest demonstration in Kunar province on International Women's Day to demand that the government distribute electronic identity cards within the province.",0
CON1990558,2018 March,7,Riots/Protests,Protesters (Afghanistan),0,0,0,0,60,Southern Asia,Afghanistan,Helmand,Lashkargah,0,Lashkargah,31.5938,64.3716,3,BBC Monitoring; Shamshad TV,Subnational,"As reported on March 8th, people staged a protest demonstration in Helmand province against the killing of two individuals as a result of clashes between Hazara and Pashtun groups in Qarabagh district of Ghazni Province on March 3rd.",0
CON1990561,2018 March,7,Riots/Protests,Protesters (Afghanistan),0,0,0,0,60,Southern Asia,Afghanistan,Paktika,Sharana,0,Sharan,33.1757,68.7304,1,BBC Monitoring; National Afghanistan TV,National,"As reported on March 12th, residents of Sharan city, Paktika, staged a protest demonstration to demand better security on the main roads.",0
CON1990567,2018 March,7,Riots/Protests,Protesters (Afghanistan),0,0,0,0,60,Southern Asia,Afghanistan,Paktia,Gardez,0,Gardez,33.5974,69.2259,3,BBC Monitoring; Shamshad TV,National,"As reported on March 20th, local tribal elders led a recent protest demonstration in Paktia province to demand that women be allowed to attend their province's schools.",0
CON1990568,2018 March,7,Riots/Protests,Protesters (Afghanistan),0,0,0,0,60,Southern Asia,Afghanistan,Baghlan,Pul-e Khumri,0,Pul-e Khumri,35.9446,68.7151,3,Pajhwok Afghan News English,National,"On March 20th, residents of Baghlan province staged a protest demonstration of the Taliban occupation of the Sar-e Howz area of Pashtun Kot, Faryab, which trapped some 100 Afghan commandos and 200 uprising forces.",0
CON1990573,2018 March,7,Riots/Protests,Protesters (Afghanistan),Pashtun Ethnic Group (Afghanistan),0,0,0,60,Southern Asia,Afghanistan,Urozgan,Tarinkot,0,Tarinkot,32.6268,65.8733,3,BBC Monitoring; National Afghanistan TV,National,"As reported on March 23rd, a group of Pashtun activists staged a protest demonstration in Nangarhar province in solidarity with Pashtun agitations in Pakistan.",0
CON1990574,2018 March,7,Riots/Protests,Protesters (Afghanistan),Pashtun Ethnic Group (Afghanistan),0,0,0,60,Southern Asia,Afghanistan,Kabul,Kabul,0,Kabul,34.5167,69.1833,1,Pajhwok Afghan News English,National,"On March 24th, a group of people staged a sit-in protest in Kabul against the treatment of Pashtuns in Pakistan.",0
CON1990577,2018 March,7,Riots/Protests,Protesters (Afghanistan),0,0,0,0,60,Southern Asia,Afghanistan,Helmand,Lashkargah,0,Lashkargah,31.5938,64.3716,1,BBC Monitoring; Radio Bost; Pajhwok Afghan News English,Subnational-National,"On March 24th, a large number of people, mostly youths and women, began sit-in protests in Lashkargah city against militant violence following an Islamic State suicide bombing in the city a day before.",0
CON1990581,2018 March,7,Riots/Protests,Protesters (Afghanistan),0,0,0,0,60,Southern Asia,Afghanistan,Urozgan,Tarinkot,0,Tarinkot,32.6268,65.8733,1,BBC Monitoring; Paiwastoon Ghag,National,"As reported on March 29th, dozens of people from different groups recently staged a protest demonstration in Tarinkot against militancy in the country and in support of security forces.",0
CON1990580,2018 March,7,Riots/Protests,Protesters (Afghanistan),0,0,0,0,60,Southern Asia,Afghanistan,Helmand,Lashkargah,0,Lashkargah,31.5938,64.3716,1,Khaama Press,Subnational,"On March 29th, at least 15 of the hundreds of protesters who had been holding a sit-in protest against militant violence since March 24th began a hunger strike in the camp in Lashkargah city.",0
CON1990587,2018 March,7,Riots/Protests,Protesters (Afghanistan),0,0,0,0,60,Southern Asia,Afghanistan,Nimruz,Zaranj,0,Zaranj,30.9667,61.8833,1,Pajhwok Afghan News English,National,"On March 31st, thousands of people staged a protest demonstration outside the Agriculture, Irrigation and Livestock Department building in Zaranj, Nimruz province, seeking their water share from the Helmand River.",0
CON1990583,2018 March,7,Riots/Protests,Protesters (Afghanistan),Teachers (Afghanistan),0,0,0,60,Southern Asia,Afghanistan,Kunduz,Kunduz,0,Kunduz,36.729,68.857,1,Pajhwok Afghan News English,National,"On March 31st, teachers from across the province staged a protest demonstration in Kunduz city to demand their salaries after Taliban militants closed over 300 schools in areas they control.",0
CON1990582,2018 March,7,Riots/Protests,Protesters (Afghanistan),0,0,0,0,60,Southern Asia,Afghanistan,Helmand,Lashkargah,0,Lashkargah,31.5938,64.3716,1,dpa-AFX International ProFeed,International,"Between March 30th and March 31st, 11 of the protesters who were on a hunger strike as part of the Lashkargah sit-in against militant violence were hospitalized. Hundreds of protesters remained at the camp, mostly women and youths.",0
CON1990588,2018 April,7,Riots/Protests,Protesters (Afghanistan),0,0,0,0,60,Southern Asia,Afghanistan,Urozgan,Tarinkot,0,Tarinkot,32.6268,65.8733,1,Pajhwok Afghan News English,National,"On April 1st, dozens of locals gathered in Tarinkot city to protest against the ongoing violence in the country.",0
CON1990596,2018 April,7,Riots/Protests,Protesters (Afghanistan),0,0,0,0,60,Southern Asia,Afghanistan,Herat,Hirat,0,Herat,34.3482,62.1997,1,BBC Monitoring; Shamshad TV,Subnational,"As reported on Arpil 1st, hundreds of people staged a protest demonstration in Herat city against the provincial education director for discrimination against a number of people.",0
CON1990597,2018 April,7,Riots/Protests,Protesters (Afghanistan),Labour Group (Afghanistan),0,0,0,60,Southern Asia,Afghanistan,Kabul,Kabul,0,Kabul,34.5167,69.1833,1,BBC Monitoring; National Afghanistan TV,National,"As reported on April 1st, a group of local shopkeepers staged a protest demonstration in Kabul, asking the municipality to repair their shops after a fire destroyed them almost two years prior.",0
CON1990595,2018 April,7,Riots/Protests,Protesters (Afghanistan),0,0,0,0,60,Southern Asia,Afghanistan,Helmand,Nawa-e Barakzayi,0,Nawa-e Barakzayi,31.3918,64.319,2,BBC Monitoring; Radio Bost,Subnational,"As reported on April 2nd, a sit-in protest was held in Nawa-e Barakzayi district, Helmand province, by activists to demand the Taliban join the peace process.",0
CON1990584,2018 April,7,Riots/Protests,Protesters (Afghanistan),0,0,0,0,60,Southern Asia,Afghanistan,Kunduz,Archi,0,Archi,37.0704,69.2984,2,BBC Monitoring; Negah TV,Subnational,"As reported on April 6th, residents of Archi district, Kunduz province, staged a protest demonstration in the district against a recent airstrike that allegedly killed civilians.",0
CON1990585,2018 April,7,Riots/Protests,Protesters (Afghanistan),0,0,0,0,60,Southern Asia,Afghanistan,Urozgan,Tarinkot,0,Tarinkot,32.6268,65.8733,1,Pajhwok Afghan News English,National,"On April 6th, peace activists staged a protest demonstration in Tarinkot city to demand an end to violence in the country.",0
CON1990589,2018 April,7,Riots/Protests,Protesters (Afghanistan),0,0,0,0,60,Southern Asia,Afghanistan,Herat,Hirat,0,Herat,34.3482,62.1997,1,BBC Monitoring; Herat TV,Subnational,"As reported on April 6th, residents of Herat province began a sit-in protest in Herat city in support of the Helmand sit-in to demand peace in the country.",0
CON1990591,2018 April,7,Riots/Protests,Protesters (Afghanistan),0,0,0,0,60,Southern Asia,Afghanistan,Herat,Kohsan,0,Kohsan,34.6539,61.1978,2,BBC Monitoring; Herat TV,Subnational,"As reported on April 6th, hundreds of people staged a protest demonstration on the Herat-Eslam Qala highway in Kohsan district, Herat province, against the district's poor education system.",0
CON1990603,2018 April,7,Riots/Protests,Protesters (Afghanistan),0,0,0,0,60,Southern Asia,Afghanistan,Farah,Farah,0,Farah,32.3745,62.1164,1,BBC Monitoring; National Afghanistan TV,National,"As reported on April 7th, locals staged a sit-in protest in Farah city to demand peace in the country.",0
CON1990604,2018 April,7,Riots/Protests,Protesters (Afghanistan),0,0,0,0,60,Southern Asia,Afghanistan,Kandahar,Kandahar,0,Kandahar,31.6133,65.7101,1,BBC Monitoring; National Afghanistan TV,National,"As reported on April 7th, locals staged a sit-in protest in Kandahar city to demand peace in the country.",0
CON1990605,2018 April,7,Riots/Protests,Protesters (Afghanistan),0,0,0,0,60,Southern Asia,Afghanistan,Nimruz,Zaranj,0,Zaranj,30.9667,61.8833,1,BBC Monitoring; National Afghanistan TV,National,"As reported on April 7th, locals staged a sit-in protest in Zaranj city to demand peace in the country.",0
CON1990608,2018 April,7,Riots/Protests,Protesters (Afghanistan),0,0,0,0,60,Southern Asia,Afghanistan,Kandahar,Maywand,0,Maywand,31.7333,65.1333,2,BBC Monitoring; Helmand Local Radio,Local,"As reported on April 8th, locals staged a sit-in protest in Maywand district, Kandarhar, to demand peace in the country.",0
CON1990609,2018 April,7,Riots/Protests,Protesters (Afghanistan),Labour Group (Afghanistan),0,0,0,60,Southern Asia,Afghanistan,Kabul,Kabul,0,Kabul,34.5167,69.1833,1,Pajhwok Afghan News English,National,"On April 9th, a large number of private contractors erected a tent and staged a sit-in protest in front the Parliament building in Kabul to demand their unpaid dues from the Ministry of the Interior.",0
CON1990610,2018 April,7,Riots/Protests,Protesters (Afghanistan),0,0,0,0,60,Southern Asia,Afghanistan,Parwan,Bagram,0,Bagram,34.9669,69.265,2,BBC Monitoring; TOLO News,Subnational,"As reported on April 9th, hundreds of residents of Bagram district, Parwan province, held protest demonstrations in the district against foreign forces, alleging that they blocked the supply of irrigation water to their areas.",0
CON1990615,2018 April,7,Riots/Protests,Protesters (Afghanistan),0,0,0,0,60,Southern Asia,Afghanistan,Kunduz,Kunduz,0,Kunduz,36.729,68.857,1,BBC Monitoring; Afghan Islamic Press news agency,National,"On April 11th, residents of Kunduz city began a protest sit-in for peace as part of the country-wide agitation.",0
CON1990625,2018 April,7,Riots/Protests,Protesters (Afghanistan),0,0,0,0,60,Southern Asia,Afghanistan,Sar-e Pol,Sar-e Pol,0,Sar-e Pol,36.2154,65.9325,1,Pajhwok Afghan News English,National,"On April 17th, around 200 residents staged a protest demonstration in Sar-e Pol city against the provincial police chief, accusing him of mismanagement.",0
CON1990635,2018 April,7,Riots/Protests,Protesters (Afghanistan),0,0,0,0,60,Southern Asia,Afghanistan,Jowzjan,Shibirghan,0,Shibirghan,36.6676,65.7529,1,BBC Monitoring; Paiwastoon Ghag,National,"As reported on April 19th, dozens of civil activists staged a protest demonstration in Shibirghan city against the IS beheading of a 12yo boy in Darzab district the week before.",0
CON1990628,2018 April,7,Riots/Protests,Protesters (Afghanistan),0,0,0,0,60,Southern Asia,Afghanistan,Wardak,Maidan Shar,0,Maidan Shar,34.3956,68.8662,1,Pajhwok Afghan News English,National,"As reported on April 19th, a protest tent was erected and a sit-in protest begun in Maidan Shar city in solidarity with the other peace agitations across the country which started initially in Helmand.",0
CON1990632,2018 April,7,Riots/Protests,Protesters (Afghanistan),0,0,0,0,60,Southern Asia,Afghanistan,Ghazni,Ghazni,0,Ghazni,33.5508,68.4225,1,Pajhwok Afghan News English,National,"As reported on April 20th, residents and local politicians staged a protest demonstration in Ghazni city against the deteriorating security situation in the area.",0
CON1990633,2018 April,7,Riots/Protests,Protesters (Afghanistan),0,0,0,0,60,Southern Asia,Afghanistan,Kabul,Kabul,0,Kabul,34.5167,69.1833,1,BBC Monitoring; Shamshad TV,National,"As reported on April 20th, a group of people staged a protest demonstration in Kabul against the Afghan Cricket Board's decision to dismiss the Kunduz provincial Cricket board director.",0
CON1990634,2018 April,7,Riots/Protests,Protesters (Afghanistan),0,0,0,0,60,Southern Asia,Afghanistan,Baghlan,Pul-e Khumri,0,Pul-e Khumri,35.9446,68.7151,1,Pajhwok Afghan News English,National,"On April 21st, a protest tent was erected and a sit-in protest begun in Pul-e Khumri city in solidarity with the other peace agitations across the country which started initially in Helmand.",0
CON1990636,2018 April,7,Riots/Protests,Protesters (Afghanistan),0,0,0,0,60,Southern Asia,Afghanistan,Farah,Farah,0,Farah,32.3745,62.1164,3,BBC Monitoring; Afghan Channel One; dpa-AFX International ProFeed,National,"As reported on April 21st, some residents staged a protest demonstration on a highway in Farah province to protest the death of a driver, allegedly at the hands of security forces.",0
CON1990637,2018 April,7,Riots/Protests,Protesters (Afghanistan),0,0,0,0,60,Southern Asia,Afghanistan,Ghazni,Ghazni,0,Ghazni,33.5508,68.4225,1,BBC Monitoring; Afghan Channel One,National,"As reported on April 21st, some residents staged a protest demonstration in Ghazni city against the electoral commission's performance.",0
CON1990639,2018 April,7,Riots/Protests,Protesters (Afghanistan),Students (Afghanistan),Police Forces of Afghanistan (2004-),0,1,16,Southern Asia,Afghanistan,Kabul,Kabul,0,Kabul,34.5167,69.1833,1,dpa-AFX International ProFeed; Pajhwok Afghan News English,National-International,"On April 22nd, dozens of locals and students staged a protest demonstration and blocked the road in the Bibi Mehro area of Kabul city after a NATO convoy accidentally hit and killed a young boy. Police fired into the air to disperse the crowd.",0
CON1598419,2018 April,7,Riots/Protests,Rioters (Afghanistan),Refugees/IDPs (Pakistan),Taliban,0,2,25,Southern Asia,Afghanistan,Paktika,Barmal,0,Barmal,32.7076,69.2784,2,Pajhwok Afghan News English,National,"On April 23rd, 6 people were injured when Taliban militants clashed with displaced Pakistani tribesmen in the Laman area of Barmal district, Paktika province. The unarmed clash occurred after the tribesmen attempted to erect a peace tent and hold a rally in support of the Pashtun protection movement in Pakistan, but were stopped by Taliban militants. 4 of the tribesmen and 2 Taliban were injured, although not seriously.",0
CON1990645,2018 April,7,Riots/Protests,Protesters (Afghanistan),National Solidarity Party of Afghanistan,0,0,0,60,Southern Asia,Afghanistan,Kabul,Kabul,0,Kabul,34.5167,69.1833,1,Pajhwok Afghan News English,National,"On April 26th, members of the National Solidarity Party of Afghanistan led a protest demonstration in Kabul against the 1978 coup and the subsequent Soviet occupation of the country, terming April 27th and 28th as ""shameful days"".",0
CON1990650,2018 April,7,Riots/Protests,Protesters (Afghanistan),0,0,0,0,60,Southern Asia,Afghanistan,Ghazni,Ghazni,0,Ghazni,33.5508,68.4225,3,TOLO News,Subnational,"On April 26th, residents of Ghazni started a sit-in protest in the province against the Independent Election Commission.",0
CON1990648,2018 April,7,Riots/Protests,Protesters (Afghanistan),0,0,0,0,60,Southern Asia,Afghanistan,Urozgan,Tarinkot,0,Tarinkot,32.6268,65.8733,1,Pajhwok Afghan News English,National,"On April 27th, hundreds of locals blocked the highway in Tarinkot city to demand better road security after 5 civilians were killed by Taliban militants on the 25th while driving on the highway in Urozgan.",0
CON1990649,2018 April,7,Riots/Protests,Protesters (Afghanistan),0,0,0,0,60,Southern Asia,Afghanistan,Urozgan,Tarinkot,0,Tarinkot,32.6268,65.8733,1,Pajhwok Afghan News English,National,"On April 28th, residents of Urozgan province closed town the capital city Tarinkot and staged demonstrations to demand better security on the highway after 5 civilians were kidnapped and killed on April 25th.",0
CON1990660,2018 May,7,Riots/Protests,Protesters (Afghanistan),0,0,0,0,60,Southern Asia,Afghanistan,Kunduz,Kunduz,0,Kunduz,36.729,68.857,1,Pajhwok Afghan News English,National,"On May 4th, protesters blocked the Kunduz-Kandarhar highway at the Seh Darak area of Kunduz City, alleging that government officials had taken their land.",0
CON1990665,2018 May,7,Riots/Protests,Protesters (Afghanistan),Labour Group (Afghanistan),0,0,0,60,Southern Asia,Afghanistan,Herat,Hirat,0,Herat,34.3482,62.1997,3,BBC Monitoring; Herat TV,Subnational,"As reported on May 5th, a group of retired civil servants staged a protest demonstration in Herat province against delays in the payment of their entitlements.",0
CON1990681,2018 May,7,Riots/Protests,Protesters (Afghanistan),0,0,0,0,60,Southern Asia,Afghanistan,Kunar,Khas Kunar,0,Khas Kunar,34.6479,70.8975,2,BBC Monitoring; Shamshad TV,National,"As reported on May 11th, residents staged a protest recently in Khas Kunar district of Kunar province against NATO forces after they allegedly killed a civilian during recent operations.",0
CON1989595,2018 May,7,Riots/Protests,Protesters (Afghanistan),0,0,0,0,60,Southern Asia,Afghanistan,Helmand,Lashkargah,0,Lashkargah,31.5938,64.3716,1,Pajhwok Afghan News,National,"Some protesters began a march from Lashkargah City in Helmand Province to Kabul on (or near) May 12 against incidents of violence against civilians, particularly a March 24 suicide attack in Lashkargah. Nearly 70 people were participating in the march at some point. They held sit-ins and rallies in some provinces.",0
CON1989548,2018 May,7,Riots/Protests,Protesters (Afghanistan),Unidentified Tribal Group (Afghanistan),0,0,0,60,Southern Asia,Afghanistan,Paktika,Sharana,0,Sharan,33.1757,68.7304,1,Pajhwok Afghan News English,National,"On May 14th, tribal elders, public representatives, and local youths began a sit-in protest outside the Governor's office in Sharan, Paktika, against security threats and the rising cost of food.",0
CON1989556,2018 May,7,Riots/Protests,Protesters (Afghanistan),0,0,0,0,60,Southern Asia,Afghanistan,Urozgan,Tarinkot,0,Tarinkot,32.6268,65.8733,1,BBC Monitoring; Paiwastoon Ghag,National,"As reported on May 18th, dozens of residents staged a protest demonstration in Tarinkot city to demand better security in their province.",0
CON1989572,2018 May,7,Riots/Protests,Protesters (Afghanistan),Refugees/IDPs (Afghanistan),0,0,0,60,Southern Asia,Afghanistan,Herat,Hirat,0,Herat,34.3482,62.1997,1,BBC Monitoring; Herat TV,Subnational,"As reported on May 28th, a group of internally displaced people staged a recent protest in Herat criticizing the government for its lack of support.",0
CON1989573,2018 May,7,Riots/Protests,Protesters (Afghanistan),0,0,0,0,60,Southern Asia,Afghanistan,Kabul,Kabul,0,Kabul,34.5167,69.1833,1,BBC Monitoring; Shamshad TV,Subnational,"As reported on May 28th, a coalition of Afghan political parties staged a recent protest in Kabul to stress the need for the government to hold the parliamentary elections in its due time.",0
CON1989575,2018 May,7,Riots/Protests,Protesters (Afghanistan),0,0,0,0,60,Southern Asia,Afghanistan,Kabul,Kabul,0,Kabul,34.5167,69.1833,1,BBC Monitoring; Radio Khost,Subnational-International,People staged a protest in front of the UN office in Kabul City on May 27 against the decision of Pakistan's Parliament to merge FATA with Khyber Pakhtunkhwa Province.,0
CON1989596,2018 June,7,Riots/Protests,Protesters (Afghanistan),0,0,0,0,60,Southern Asia,Afghanistan,Bamyan,Bamyan,0,Bamyan,34.8216,67.8273,3,BBC Monitoring; Ghaznawian TV,Subnational-International,"Hundreds of people staged a protest in Bamyan Province, as reported on June 1, in criticism of remarks by the first lady, Rula Ghani, in saying that the Sahdat is not a tribe.",0
CON1989597,2018 June,7,Riots/Protests,Protesters (Afghanistan),0,0,0,0,60,Southern Asia,Afghanistan,Khost,Khost,0,Khost,33.3395,69.9204,1,BBC Monitoring; Radio Khost,National-International,A group of women staged a protest in front of the provincial directorate of women's affairs in Khost City against the involvement of employees of the population registration office in corruption.,0
CON1989602,2018 June,7,Riots/Protests,Protesters (Afghanistan),0,0,0,0,60,Southern Asia,Afghanistan,Helmand,Lashkargah,0,Lashkargah,31.5938,64.3716,3,BBC Monitoring; Shamshad TV,National-International,"Civil activists and residents of Helmand Province staged a protest and demanded the warring sides (Afghan government and Taliban) extend the temporary ceasefire, as reported on June 10.",0
CON1989603,2018 June,7,Riots/Protests,Protesters (Afghanistan),0,0,0,0,60,Southern Asia,Afghanistan,Kabul,Kabul,0,Kabul,34.5167,69.1833,1,BBC Monitoring; Shamshad TV,National-International,"Dozens of young people marched in the streets of Kabul City in support of extending the ceasefire between the government and Taliban, as reported on June 10.",0
CON1989605,2018 June,7,Riots/Protests,Protesters (Afghanistan),0,0,0,0,60,Southern Asia,Afghanistan,Paktia,Gardez,0,Gardez,33.5974,69.2259,3,BBC Monitoring; Shamshad TV,National-International,"Scores of activists and tribal elders gathered in the streets in Paktia Province to show support for the ceasefire between the Taliban and Afghan government, as reported on June 10.",0
CON1989621,2018 June,7,Riots/Protests,Protesters (Afghanistan),0,0,0,0,60,Southern Asia,Afghanistan,Urozgan,Tarinkot,0,Tarinkot,32.6268,65.8733,3,BBC Monitoring; Radio Khost,Subnational-International,"Hundreds of disabled residents of Urozgan Province gathered in protest to voice support for the announced Eid ceasefires and urge both sides to extend the agreements, as reported on June 11.",0
CON1989613,2018 June,7,Riots/Protests,Protesters (Afghanistan),0,0,0,0,60,Southern Asia,Afghanistan,Nangarhar,Jalalabad,0,Jalalabad,34.4265,70.4515,1,Pajhwok Afghan News; TOLONews,National,Tens of women staged a protest in Jalalabad City on June 13 (others reported June 14) to demand an extension of the temporary ceasefire between the central government and Taliban.,0
CON1989618,2018 June,7,Riots/Protests,Protesters (Afghanistan),Unidentified Communal Group (Afghanistan); Muslim Group (Afghanistan),0,0,0,60,Southern Asia,Afghanistan,Khost,Khost,0,Khost,33.3395,69.9204,1,BBC Monitoring; Radio Khost,Subnational-International,"Tribal elders, religious scholars, and citizens staged a protest gathering in Khost City to voice support for the ceasefire extension by the government and call on the Taliban to do the same, as reported on June 17.",0
CON1989622,2018 June,7,Riots/Protests,Protesters (Afghanistan),0,0,0,0,60,Southern Asia,Afghanistan,Paktia,Gardez,0,Gardez,33.5974,69.2259,3,BBC Monitoring; National Afghanistan TV,National-International,"Residents of Paktia Province held a gathering to support the government's ceasefire extension and request the Taliban also extend their ceasefire, as reported on June 17.",0
CON1989624,2018 June,7,Riots/Protests,Protesters (Afghanistan),0,0,0,0,60,Southern Asia,Afghanistan,Kabul,Kabul,0,Kabul,34.5167,69.1833,1,Agence France Presse,International,"Dozens of protesters as part of the ""peace caravan,"" who walked for 38 days from Helmand to Kabul, arrived in the capital on June 18. They marched through the city shouting slogans to demand peace and an end to the war.",0
CON1989620,2018 June,7,Riots/Protests,Protesters (Afghanistan),Unidentified Communal Group (Afghanistan); Muslim Group (Afghanistan),0,0,0,60,Southern Asia,Afghanistan,Paktia,Gardez,0,Gardez,33.5974,69.2259,3,BBC Monitoring; Paiwastoon Ghag,Subnational-International,"Dozens of tribal leaders, religious scholars, and civil activists staged a protest in Paktia Province to call on the Taliban to extend the ceasefire and negotiate with the government, as reported on June 19.",0
CON1989625,2018 June,7,Riots/Protests,Protesters (Afghanistan),0,0,0,0,60,Southern Asia,Afghanistan,Zabul,Qalat,0,Qalat,32.1058,66.9083,3,BBC Monitoring; Afghanistan Television,National-International,"Hundreds of people staged a protest in Syuri District, Zabul Province to demand peace and stability from the government and Taliban, as reported on June 19.",0
CON1989626,2018 June,7,Riots/Protests,Protesters (Afghanistan),0,0,0,0,60,Southern Asia,Afghanistan,Kandahar,Kandahar,0,Kandahar,31.6133,65.7101,3,BBC Monitoring; National Afghanistan TV,National-International,"Residents of Kandahar Province gathered together to show support for the government's ceasefire extension, as reported on June 20.",0
CON1989628,2018 June,7,Riots/Protests,Protesters (Afghanistan),0,0,0,0,60,Southern Asia,Afghanistan,Herat,Hirat,0,Herat,34.3482,62.1997,3,BBC Monitoring; National Afghanistan TV,National-International,"A huge gathering was held in Herat Province to voice support for the ceasefire and demand peace in the country, as reported on June 21.",0
CON1989630,2018 June,7,Riots/Protests,Protesters (Afghanistan),0,0,0,0,60,Southern Asia,Afghanistan,Nangarhar,Jalalabad,0,Jalalabad,34.4265,70.4515,1,BBC Monitoring; Shamshad TV,National-International,"Afghan activists began a protest march from Jalalabad City to Kabul, as reported on June 22. They were demanding peace in the country.",0
CON1989634,2018 June,7,Riots/Protests,Protesters (Afghanistan),Unidentified Tribal Group (Afghanistan),0,0,0,60,Southern Asia,Afghanistan,Helmand,Lashkargah,0,Lashkargah,31.5938,64.3716,1,BBC Monitoring; Helmand Local Radio,Subnational-International,"Residents and elders of Helmand Province staged a protest in Lashkargah City to demand the armed Taliban end fighting and accept the government's call for peace, as reported on June 21.",0
CON1989635,2018 June,7,Riots/Protests,Protesters (Afghanistan),0,0,0,0,60,Southern Asia,Afghanistan,Ghazni,Ghazni,0,Ghazni,33.5508,68.4225,1,BBC Monitoring; Ghaznawian TV,Subnational-International,"A group of protesters staged a sit-in in front of the provincial independent election commission (IEC) office in Ghazni City to demand holding parliamentary and district council elections, as reported on June 21.",0
CON1989636,2018 June,7,Riots/Protests,Protesters (Afghanistan),0,0,0,0,60,Southern Asia,Afghanistan,Khost,Khost,0,Khost,33.3395,69.9204,3,BBC Monitoring; Sharq TV,National-International,"Dozens of youth and civil activists staged a protest in Khost Province to demand from both the Taliban and government a political understanding and an end to the bloodshed, as reported on June 21.",0
CON1989617,2018 June,7,Riots/Protests,Protesters (Afghanistan),Farmers (Afghanistan),0,0,0,60,Southern Asia,Afghanistan,Herat,Hirat,0,Herat,34.3482,62.1997,3,BBC Monitoring; Afghan Herat TV,Subnational-International,Hundreds of farmers from different districts of Herat Province held a gathering to protest low levels of irrigation water and demand the government address water shortage problems.,0
CON1989631,2018 June,7,Riots/Protests,Protesters (Afghanistan),0,0,0,0,60,Southern Asia,Afghanistan,Kabul,Kabul,0,Kabul,34.5167,69.1833,1,BBC Monitoring; Shamshad TV,National-International,"Scores of youth gathered in protest in Kabul City to urge the Taliban to end violence and extend its ceasefire with the government, as reported on June 22.",0
CON1989632,2018 June,7,Riots/Protests,Protesters (Afghanistan),0,0,0,0,60,Southern Asia,Afghanistan,Urozgan,Tarinkot,0,Tarinkot,32.6268,65.8733,3,BBC Monitoring; National Afghanistan TV,National-International,"Residents of Urozgan Province gathered to demand the government and Taliban end the war and violence and seek peace in the country, as reported on June 22.",0
CON1989633,2018 June,7,Riots/Protests,Protesters (Afghanistan),0,0,0,0,60,Southern Asia,Afghanistan,Herat,Hirat,0,Herat,34.3482,62.1997,1,BBC Monitoring; Afghan Herat TV,Subnational-International,Hundreds of people staged a protest on June 23 in Herat City against the assassination of a well-known religious scholar earlier that day.,0
CON1989637,2018 June,7,Riots/Protests,Protesters (Afghanistan),0,0,0,0,60,Southern Asia,Afghanistan,Helmand,Lashkargah,0,Lashkargah,31.5938,64.3716,1,BBC Monitoring; National Afghanistan TV; Radio Bost,National-International,"Hundreds of residents of Helmand Province staged a protest in Lashkargah City to demand the Taliban end warfare and join the peace process, as reported on June 23.",0
CON1989639,2018 June,7,Riots/Protests,Protesters (Afghanistan),Unidentified Tribal Group (Afghanistan); Muslim Group (Afghanistan),0,0,0,60,Southern Asia,Afghanistan,Helmand,Lashkargah,0,Lashkargah,31.5938,64.3716,3,Pajhwok Afghan News English,National,"Hundreds of tribal elders, religious scholars, and youth staged a protest on June 24 in Helmand Province to demand negotiations between the Taliban and government.",0
CON1989640,2018 June,7,Riots/Protests,Protesters (Afghanistan),Unidentified Tribal Group (Afghanistan); Muslim Group (Afghanistan),0,0,0,60,Southern Asia,Afghanistan,Paktika,Urgun,0,Urgun,32.9411,69.18,2,Pajhwok Afghan News English,National,"Residents, tribal elders, religious scholars, and youth of 9 different districts in Paktika Province staged a protest on June 24 in Urgun City to demand the Taliban accept their request for a renewed ceasefire and enter peace negotiations.",0
CON1989641,2018 June,7,Riots/Protests,Protesters (Afghanistan),0,0,0,0,60,Southern Asia,Afghanistan,Faryab,Maymana,0,Maymana,35.9213,64.7841,1,BBC Monitoring; Tolo News,National-International,"Hundreds of civil society activists staged a sit-in protest by setting up tents around the key provincial government offices in Faryab Province on the night of June 24. They effectively ""closed"" the offices down.",0
CON1989642,2018 June,7,Riots/Protests,Protesters (Afghanistan),0,0,0,0,60,Southern Asia,Afghanistan,Ghazni,Ghazni,0,Ghazni,33.5508,68.4225,3,BBC Monitoring; Channel One TV (1TV),National-International,"Civil society activists gathered in protest in Ghazni Province to demand the government and electoral commission break the electoral deadlock in the province, as reported on June 24.",0
CON1989643,2018 June,7,Riots/Protests,Protesters (Afghanistan),0,0,0,0,60,Southern Asia,Afghanistan,Kabul,Kabul,0,Kabul,34.5167,69.1833,1,BBC Monitoring; Tolo News; Channel One TV (1TV),National-International,People gathered in a protest sit-in beginning on June 24 and continuing for 3 days in front of the UN office in Kabul City to demand that the UN pressure countries involved in Afghanistan to stop fuelling the war.,0
CON1989644,2018 June,7,Riots/Protests,Protesters (Afghanistan),0,0,0,0,60,Southern Asia,Afghanistan,Paktia,Gardez,0,Gardez,33.5974,69.2259,3,BBC Monitoring; National Afghanistan TV,National-International,"Residents of Paktia Province hold a gathering to demand the Taliban put an end to the war and join the peace process, as reported on June 24.",0
CON1989645,2018 June,7,Riots/Protests,Protesters (Afghanistan),0,0,0,0,60,Southern Asia,Afghanistan,Paktika,Sharana,0,Sharan,33.1757,68.7304,1,BBC Monitoring; Radio Bost,National-International,"Residents of 9 districts of Paktika Province staged a protest in Sharan City to demand the Taliban renounce violence and hold direct talks with the central government, as reported on June 24.",0
CON1989648,2018 June,7,Riots/Protests,Protesters (Afghanistan),0,0,0,0,60,Southern Asia,Afghanistan,Faryab,Maymana,0,Maymana,35.9213,64.7841,1,Pajhwok Afghan News English,National,"Protesters pitched tents for five consecutive days (June 25-29) in Faryab City to protest the close of the Maymana-Mazar I Sharif highway, the fall of some districts to insurgents, and government negligence.",0
CON1989649,2018 June,7,Riots/Protests,Protesters (Afghanistan),0,0,0,0,60,Southern Asia,Afghanistan,Herat,Hirat,0,Herat,34.3482,62.1997,1,BBC Monitoring; Paiwastoon Ghag,Subnational-International,"Dozens of people gathered outside the provincial governor's office in Herat City to protest the murder of a prominent Shia religious scholar in the city a few days earlier, as reported on June 25.",0
CON1989650,2018 June,7,Riots/Protests,Protesters (Afghanistan),0,0,0,0,60,Southern Asia,Afghanistan,Kabul,Kabul,0,Kabul,34.5167,69.1833,1,BBC Monitoring; Shamshad TV,National-International,"Nomads from Parwan Province staged a protest in Kabul against the local government avoiding issuing identity cards to them, as reported on June 25.",0
CON1989651,2018 June,7,Riots/Protests,Protesters (Afghanistan),0,0,0,0,60,Southern Asia,Afghanistan,Paktia,Gardez,0,Gardez,33.5974,69.2259,1,Pajhwok Afghan News English,National,Women activists of the Women's Network staged a protest on June 25 in Gardez City to demand the Taliban renew their ceasefire and join the peace process.,0
CON1989652,2018 June,7,Riots/Protests,Protesters (Afghanistan),0,0,0,0,60,Southern Asia,Afghanistan,Paktika,Sharana,0,Sharan,33.1757,68.7304,1,BBC Monitoring; Shamshad TV,National-International,"Residents of Paktika Province staged a peaceful protest in Sharan City to demand the warring sides hold peace talks, as reported on June 25.",0
CON1989672,2018 June,7,Riots/Protests,Protesters (Afghanistan),0,0,0,0,60,Southern Asia,Afghanistan,Kunar,Asadabad,0,Asadabad,34.8731,71.147,3,TOLONews,National,"A ""peace caravan/convoy"" left from Kunar Province on June 25 and walked for 6 days until they arrived in Kabul City on the evening of June 30 in protest against the ongoing war.",0
CON1989653,2018 June,7,Riots/Protests,Protesters (Afghanistan),Muslim Group (Afghanistan),0,0,0,60,Southern Asia,Afghanistan,Kunduz,Kunduz,0,Kunduz,36.729,68.857,3,BBC Monitoring; Negah TV,National-International,"Dozens of religious scholars gathered in Kunduz Province to demand the Taliban establish a ceasefire and join the peace process as soon as possible, as reported on June 26.",0
CON1989654,2018 June,7,Riots/Protests,Protesters (Afghanistan),Unidentified Tribal Group (Afghanistan),0,0,0,60,Southern Asia,Afghanistan,Herat,Hirat,0,Herat,34.3482,62.1997,1,Pajhwok Afghan News English,National,"Around one thousand tribal elders, officials, and people from 9 different provinces gathered in Herat City on June 26 to demand that people support the peace process and the Taliban shun violence and negotiate with the government.",0
CON1989657,2018 June,7,Riots/Protests,Protesters (Afghanistan),0,0,0,0,60,Southern Asia,Afghanistan,Badghis,Qala i Naw,0,Qala i Naw,34.9874,63.1289,3,BBC Monitoring; National Afghanistan TV,National-International,"Scores of residents of Badghis Province hold a gathering to demand the Taliban stop fighting and join the peace process, as reported on June 26.",0
CON1989658,2018 June,7,Riots/Protests,Protesters (Afghanistan),0,0,0,0,60,Southern Asia,Afghanistan,Bamyan,Bamyan,0,Bamyan,34.8216,67.8273,3,BBC Monitoring; National Afghanistan TV,National-International,"Residents of Bamyan Province hold a gathering in support of the ceasefire, as reported on June 26.",0
CON1989660,2018 June,7,Riots/Protests,Protesters (Afghanistan),0,0,0,0,60,Southern Asia,Afghanistan,Kandahar,Kandahar,0,Kandahar,31.6133,65.7101,3,BBC Monitoring; National Afghanistan TV,National-International,"Residents of Kandahar Province stage a gathering to show support for a ceasefire agreement and the fatwa issued by religious clerics [that the war is illegitimate], as reported on June 26.",0
CON1989664,2018 June,7,Riots/Protests,Protesters (Afghanistan),0,0,0,0,60,Southern Asia,Afghanistan,Kabul,Kabul,0,Kabul,34.5167,69.1833,1,BBC Monitoring; Sharq TV; Tolo News,National-International,"Some of those people who marched from Helmand to Kabul as a ""peace convoy"" stage a protest in front of the US Embassy in Kabul on June 27 to demand Washington increase its efforts to end the war in Afghanistan. They remained in front of the US Embassy in a sit-in for more than a week (through at least July 6). They also protested in front of the Iranian, Pakistani, and Russian Embassies.",0
CON1989673,2018 June,7,Riots/Protests,Protesters (Afghanistan),Hazara Ethnic Group (Afghanistan),0,0,0,60,Southern Asia,Afghanistan,Ghazni,Ghazni,0,Ghazni,33.5508,68.4225,1,BBC Monitoring; Ghaznawian TV,Subnational-International,A group of ethnic Hazaras staged a protest in front of the IEC in Ghazni City as reported on June 28 against the recent decision to divide the province into three constituencies for the upcoming elections.,0
CON1989665,2018 June,7,Riots/Protests,Protesters (Afghanistan),Unidentified Tribal Group (Afghanistan); Muslim Group (Afghanistan),0,0,0,60,Southern Asia,Afghanistan,Kandahar,Kandahar,0,Kandahar,31.6133,65.7101,3,BBC Monitoring; National Afghanistan TV,National-International,"Religious scholars, tribal elders, and youth in Kandahar Province gathered in support of the government ceasefire and to demand the Taliban stop war, as reported on June 29.",0
CON1989666,2018 June,7,Riots/Protests,Protesters (Afghanistan),Unidentified Tribal Group (Afghanistan); Muslim Group (Afghanistan),0,0,0,60,Southern Asia,Afghanistan,Logar,Pul i Alam,0,Puli Alam,33.9953,69.0227,3,BBC Monitoring; National Afghanistan TV,National-International,"Religious scholars, tribal elders, and youth in Logar Province gathered in support of the government ceasefire and to demand the Taliban stop war, as reported on June 29.",0
CON1989667,2018 June,7,Riots/Protests,Protesters (Afghanistan),Unidentified Tribal Group (Afghanistan); Muslim Group (Afghanistan),0,0,0,60,Southern Asia,Afghanistan,Nuristan,Parun,0,Parun,35.4206,70.9226,3,BBC Monitoring; National Afghanistan TV,National-International,"Religious scholars, tribal elders, and youth in Nuristan Province gathered in support of the government ceasefire and to demand the Taliban stop war, as reported on June 29.",0
CON1989668,2018 June,7,Riots/Protests,Protesters (Afghanistan),Unidentified Tribal Group (Afghanistan); Muslim Group (Afghanistan),0,0,0,60,Southern Asia,Afghanistan,Parwan,Chaharikar,0,Charikar,35.0166,69.174,3,BBC Monitoring; National Afghanistan TV,National-International,"Religious scholars, tribal elders, and youth in Parwan Province gathered in support of the government ceasefire and to demand the Taliban stop war, as reported on June 29.",0
CON1989674,2018 June,7,Riots/Protests,Protesters (Afghanistan),Unidentified Tribal Group (Afghanistan),0,0,0,60,Southern Asia,Afghanistan,Helmand,Nahri Saraj,0,Girishk,31.8209,64.57,2,BBC Monitoring; Helmand Local Radio,Subnational-International,"Dozens of residents and tribal elders staged a protest gathering in Nahri Saraj District, Helmand Province, as reported on June 29 to demand the Taliban accept the government's call for peacefire and a temporary ceasefire between the two sides.",0
CON1989669,2018 June,7,Riots/Protests,Protesters (Afghanistan),0,0,0,0,60,Southern Asia,Afghanistan,Baghlan,Pul-e Khumri,0,Pul-e Khumri,35.9446,68.7151,1,Pajhwok Afghan News English,National,A convoy of ten peace activists began a protest march from Puli Khumri to Kabul City on June 30. They were demanding peace talks between the government and Taliban.,0
CON1989677,2018 June,7,Riots/Protests,Protesters (Afghanistan),Muslim Group (Afghanistan),0,0,0,60,Southern Asia,Afghanistan,Urozgan,Tarinkot,0,Tarinkot,32.6268,65.8733,1,BBC Monitoring; Afghanistan Television,National-International,"Civil society activits, youths, and religious scholars in Tarinkot staged a protest to demand the government and Taliban adopt measures to restore peace in the country, as reported on June 30.",0
CON1989678,2018 June,7,Riots/Protests,Protesters (Afghanistan),Unidentified Tribal Group (Afghanistan),0,0,0,60,Southern Asia,Afghanistan,Khost,Gurbuz,0,Sekhamir Kalay,33.2874,69.9128,2,BBC Monitoring; Khost Radio,Subnational-International,"A number of tribal elders, civil society activists, and youth staged a protest gathering in Gurbuz District, Khost Province, as reported on June 30. They were demanding that the Taliban renounce violence and join peace talks.",0
CON1989679,2018 June,7,Riots/Protests,Protesters (Afghanistan),0,0,0,0,60,Southern Asia,Afghanistan,Kabul,Kabul,0,Kabul,34.5167,69.1833,1,BBC Monitoring; Noor TV,National-International,"Hundreds of people in Kabul staged a protest against the recent decision of the Afghan IEC to create 3 electoral zones for upcoming election in Ghazni Province, as reported on June 30.",0
CON1989682,2018 July,7,Riots/Protests,Protesters (Afghanistan),0,0,0,0,60,Southern Asia,Afghanistan,Helmand,Lashkargah,0,Lashkargah,31.5938,64.3716,1,BBC Monitoring; Afghanistan Television,National-International,"A number of civil society activists gathered and closed the door of the provincial Independent Election Commission Office in protest against its poor performance, as reported on July 1.",0
CON1989683,2018 July,7,Riots/Protests,Protesters (Afghanistan),0,0,0,0,60,Southern Asia,Afghanistan,Herat,Adraskan,0,Adraskan,33.6457,62.2696,2,BBC Monitoring; Herat TV,Subnational-International,"Hundreds of people gathered in a demonstration in Adraskan District, Herat Province, in support of the restoring peace in the country and to demand the Taliban renounce violence and join the peace process, as reported on July 1.",0
CON1989685,2018 July,7,Riots/Protests,Protesters (Afghanistan),JMI: Junbish-i-Milli Islami,0,0,0,60,Southern Asia,Afghanistan,Faryab,Maymana,0,Maymana,35.9213,64.7841,1,BBC Monitoring; Shamshad TV; Channel One TV (1TV); Agence France Presse,National-International,Some 200 JMI protesters took to the streets of Maymana on July 3 in protest of the arrest of of Dostum's close aid and district police chief Qaysari the day before.,0
CON1684321,2018 July,7,Riots/Protests,Rioters (Afghanistan),JMI: Junbish-i-Milli Islami,Police Forces of Afghanistan (2004-) National Directorate of Security,0,1,15,Southern Asia,Afghanistan,Faryab,Maymana,0,Maymana,35.9213,64.7841,1,BBC Monitoring; Tolo News; Channel One TV (1TV); Agence France Presse; Khaama Press,National-International,"Some 15,000 demonstrators associated with JMI took to the streets in Maymana for the second day on July 4 in criticism of the arrest of Dostum's close aid and district police chief Qaysari. They torched the provincial govt compound and several security forces' cars while attacking other govt buildings. NDS forces opened fire on the demonstraters when they tried to storm the provincial NDS office, killing 1-2 and wounding 9-10. However, the army reported that an NDS officer was killed.",1
CON1989700,2018 July,7,Riots/Protests,Protesters (Afghanistan),0,0,0,0,60,Southern Asia,Afghanistan,Helmand,Lashkargah,0,Lashkargah,31.5938,64.3716,1,BBC Monitoring; Afghanistan Television,National-International,"A number of people staged a protest in Lashkargah City to demand the government better reinforce security in the city, as reported on July 4.",0
CON1989686,2018 July,7,Riots/Protests,Protesters (Afghanistan),JMI: Junbish-i-Milli Islami,0,0,0,60,Southern Asia,Afghanistan,Faryab,Maymana,0,Maymana,35.9213,64.7841,1,Pajhwok Afghan News English,National,"Protests against the arrest of Qaisari, militia leader in Faryab Province and close aid of VP Dostum, continued in Maymana City on July 5.",0
CON1989689,2018 July,7,Riots/Protests,Protesters (Afghanistan),Unidentified Communal Group (Afghanistan),0,0,0,60,Southern Asia,Afghanistan,Kabul,Kabul,0,Kabul,34.5167,69.1833,1,BBC Monitoring; Shamshad TV,National-International,"A group of nomads staged a protest in Kabul City against the officials of Parwan Province for failing to issue them ID cards for use in the upcoming general elections, as reported on July 5. They also reported intimidation by local armed men.",0
CON1989690,2018 July,7,Riots/Protests,Protesters (Afghanistan),0,0,0,0,60,Southern Asia,Afghanistan,Kabul,Kabul,0,Kabul,34.5167,69.1833,1,BBC Monitoring; Sharq TV,National-International,"Dozens of residents of Kabul City staged a recent protest against the killing and wounding of more than 40 Sikhs and Hindus in Jalalabad, as reported on July 5.",0
CON1989691,2018 July,7,Riots/Protests,Protesters (Afghanistan),JMI: Junbish-i-Milli Islami,0,0,0,60,Southern Asia,Afghanistan,Balkh,Balkh,0,Balkh,36.7564,66.8972,3,Pajhwok Afghan News English,National,"Protests against the arrest of Qaisari, militia leader in Faryab Province and close aid of VP Dostum, occurred in Balkh Province, as reported on July 6.",0
CON1989692,2018 July,7,Riots/Protests,Protesters (Afghanistan),JMI: Junbish-i-Milli Islami,0,0,0,60,Southern Asia,Afghanistan,Faryab,Maymana,0,Maymana,35.9213,64.7841,1,Pajhwok Afghan News English,National,"Protests against the arrest of Qaisari, militia leader in Faryab Province and close aid of VP Dostum, continued in Maymana City on July 6.",0
CON1989693,2018 July,7,Riots/Protests,Protesters (Afghanistan),JMI: Junbish-i-Milli Islami,0,0,0,60,Southern Asia,Afghanistan,Jowzjan,Shibirghan,0,Shibirghan,36.6676,65.7529,3,Pajhwok Afghan News English,National,"Protests against the arrest of Qaisari, militia leader in Faryab Province and close aid of VP Dostum, occurred in Jowzjan Province, as reported on July 6.",0
CON1989694,2018 July,7,Riots/Protests,Protesters (Afghanistan),JMI: Junbish-i-Milli Islami,0,0,0,60,Southern Asia,Afghanistan,Sar-e Pol,Sar-e Pol,0,Sar-e Pol,36.2154,65.9325,3,Pajhwok Afghan News English,National,"Protests against the arrest of Qaisari, militia leader in Faryab Province and close aid of VP Dostum, occurred in Sar-e-Pol Province, as reported on July 6.",0
CON1989695,2018 July,7,Riots/Protests,Protesters (Afghanistan),JMI: Junbish-i-Milli Islami,0,0,0,60,Southern Asia,Afghanistan,Takhar,Taluqan,0,Taloqan,36.7341,69.5336,3,Pajhwok Afghan News English,National,"Protests against the arrest of Qaisari, militia leader in Faryab Province and close aid of VP Dostum, occurred in Takhar Province, as reported on July 6.",0
CON1989696,2018 July,7,Riots/Protests,Protesters (Afghanistan),Unidentified Tribal Group (Afghanistan); Muslim Group (Afghanistan),0,0,0,60,Southern Asia,Afghanistan,Nuristan,Parun,0,Parun,35.4206,70.9226,3,BBC Monitoring; National Afghanistan TV,National-International,"Religious scholars, tribal elders, and youth staged a protest gathering in Nuristan Province to demand the Taliban stop fighting and join the peace process, as reported on July 6.",0
CON1989698,2018 July,7,Riots/Protests,Protesters (Afghanistan),0,0,0,0,60,Southern Asia,Afghanistan,Kabul,Kabul,0,Kabul,34.5167,69.1833,1,BBC Monitoring; Tolo News,National-International,"Members of the ""Helmand peace convoy"" and other supporters of peace, having ended their sit-in in front of the US Embassy in Kabul, gathered in protest and began another sit-in in front of the Russian Embassy in Kabul on July 6.",0
CON1989702,2018 July,7,Riots/Protests,Protesters (Afghanistan),JMI: Junbish-i-Milli Islami,0,0,0,60,Southern Asia,Afghanistan,Bamyan,Bamyan,0,Bamyan,34.8216,67.8273,3,Pajhwok Afghan News English,National,JMI supporters staged a protest in Bamyan Province to demand the release of key party figure Qaisari at some point between June 2-11.,0
CON1989742,2018 July,7,Riots/Protests,Protesters (Afghanistan),Hazara Ethnic Group (Afghanistan),0,0,0,60,Southern Asia,Afghanistan,Ghazni,Ghazni,0,Ghazni,33.5508,68.4225,1,BBC Monitoring; Ghaznawian TV,Subnational-International,A number of Hazara ethnic group members staged a sit-in protest in front of the provincial independent election commission offices in Ghazni in criticism of the division of the province into 3 electoral zones. It is unclear when the sit-in began; it was reported on July 6.,0
CON1989699,2018 July,7,Riots/Protests,Protesters (Afghanistan),JMI: Junbish-i-Milli Islami,0,0,0,60,Southern Asia,Afghanistan,Samangan,Aybak,0,Samangan,36.2647,68.0155,3,Pajhwok Afghan News English,National,JMI associated protesters blocked the Kabul-Balkh highway in Samangan Province on July 7 to demand the release of Dostum's aide and key JMI figure and militia leader Qaisari.,0
CON1989704,2018 July,7,Riots/Protests,Protesters (Afghanistan),JMI: Junbish-i-Milli Islami; JI: Jamiat-e-Islami,0,0,0,60,Southern Asia,Afghanistan,Balkh,Mazar-e Sharif,0,Mazar-e Sharif,36.709,67.1109,1,BBC Monitoring; Tolo News,National-International,"JMI and JI activists staged a protest in Mazar-e Sharif against the arrest of Qaisari, accusing the government of seeking ethnocentrism, as reported on July 7.",0
CON1989705,2018 July,7,Riots/Protests,Protesters (Afghanistan),0,0,0,0,60,Southern Asia,Afghanistan,Faryab,Andkhoy,0,Aqineh,37.1167,65.1667,1,BBC Monitoring; Tolo News,National-International,"Protesters closed the Aqina port and highway in Faryab Province in protest against the arrest of Qaisari and to demand the return of VP Dostum, as reported on July 7.",0
CON1989713,2018 July,7,Riots/Protests,Protesters (Afghanistan),0,0,0,0,60,Southern Asia,Afghanistan,Nuristan,Waygal,0,Waygal,35.1907,70.9948,2,Pajhwok Afghan News English,National,"Residents of Waygal District, Nuristan Province staged a protest on July 8 against an airstrike the previous month in the area that had killed 6 civilians.",0
CON1989714,2018 July,7,Riots/Protests,Protesters (Afghanistan),JMI: Junbish-i-Milli Islami,0,0,0,60,Southern Asia,Afghanistan,Faryab,Maymana,0,Maymana,35.9213,64.7841,3,BBC Monitoring; Tolo News,National-International,"Protests continued in Faryab province against the arrest of JMI key figure Qaisari, as reported on July 9.",0
CON1989715,2018 July,7,Riots/Protests,Protesters (Afghanistan),0,0,0,0,60,Southern Asia,Afghanistan,Ghazni,Ghazni,0,Ghazni,33.5508,68.4225,3,BBC Monitoring; Shamshad TV,National-International,"Residents of Ghazni Province staged a protest against the increasing security threat in the province, as reported on July 9, in response to the murder of a school teacher.",0
CON1989718,2018 July,7,Riots/Protests,Protesters (Afghanistan),0,0,0,0,60,Southern Asia,Afghanistan,Logar,Pul i Alam,0,Puli Alam,33.9953,69.0227,2,Pajhwok Afghan News English,National,"Residents of Puli Alam District, Logar Province, staged a protest along the Kabul-Gardez Highway on July 9 in criticism of airstrikes by Afghan Air Forces the night before in the area that killed civilians.",0
CON1989719,2018 July,7,Riots/Protests,Protesters (Afghanistan),0,0,0,0,60,Southern Asia,Afghanistan,Kandahar,Kandahar,0,Kandahar,31.6133,65.7101,3,BBC Monitoring; National Afghanistan TV,National-International,"Residents of Kandahar Province staged a protest gathering in support of the government's peace efforts and to demand the Taliban join the peace process, as reported on July 10.",0
CON1989723,2018 July,7,Riots/Protests,Protesters (Afghanistan),0,0,0,0,60,Southern Asia,Afghanistan,Baghlan,Khinjan,0,Salang-e Shamali,35.3217,69.0254,2,Pajhwok Afghan News English,National,"Residents of the Salang-e Shamali area of Khinjan District, Baghlan Province, staged a protest on July 11 against the bad conditions of the Kabul-Balkh Highway. They blocked traffic for a few hours.",0
CON1989724,2018 July,7,Riots/Protests,Protesters (Afghanistan),JMI: Junbish-i-Milli Islami,0,0,0,60,Southern Asia,Afghanistan,Faryab,Maymana,0,Maymana,35.9213,64.7841,1,Pajhwok Afghan News English,National,Hundreds of protesters have forced closure of the Independent Election Commission (IEC) office in Maymana City on July 11. They also burned dozens of their national identity cards. They were protesting against the arrest of JMI key figure Qaisari and to demand the return of VP Dostum to the country.,0
CON1989725,2018 July,7,Riots/Protests,Protesters (Afghanistan),0,0,0,0,60,Southern Asia,Afghanistan,Helmand,Lashkargah,0,Lashkargah,31.5938,64.3716,1,BBC Monitoring; Radio Bost,National-International,Dozens of residents of Lashkargah City staged a protest in support of President Ghani's decision to arrest illegal armed men (referring to the arrest of JMI figure Qaisari) and to urge the central government to continue the process of arresting former warlords.,0
CON1989726,2018 July,7,Riots/Protests,Protesters (Afghanistan),JMI: Junbish-i-Milli Islami,0,0,0,60,Southern Asia,Afghanistan,Sar-e Pol,Sar-e Pol,0,Sar-e Pol,36.2154,65.9325,1,Pajhwok Afghan News English,National,Protesters have forced closure of the Independent Election Commission (IEC) office in Sar-e Pol City on July 11. They also burned dozens of their national identity cards. They were protesting against the arrest of JMI key figure Qaisari and to demand the return of VP Dostum to the country.,0
CON1989731,2018 July,7,Riots/Protests,Protesters (Afghanistan),JMI: Junbish-i-Milli Islami,0,0,0,60,Southern Asia,Afghanistan,Herat,Hirat,0,Herat,34.3482,62.1997,3,BBC Monitoring; Afghan Channel One (1TV),National-International,Protesters affiliated with AML-N staged a protest in Herat Province to demand the immediate release of VP Dostum on the evening of June 12.,0
CON1989732,2018 July,7,Riots/Protests,Protesters (Afghanistan),0,0,0,0,60,Southern Asia,Afghanistan,Herat,Hirat,0,Herat,34.3482,62.1997,3,BBC Monitoring; Shamshad TV,National-International,"After the arrest of JMI frontman Qaisari, residents of Herat Province as reported on Jun 12, staged a protest to demand the governent ensure the prepretators get a commensurate crime.",0
CON1989734,2018 July,7,Riots/Protests,Protesters (Afghanistan),JMI: Junbish-i-Milli Islami,0,0,0,60,Southern Asia,Afghanistan,Jowzjan,Shibirghan,0,Shibirghan,36.6676,65.7529,2,BBC Monitoring; Afghan Channel One (1TV),National-International,"Protesters have forced closure of the Independent Election Commission (IEC) office in Shibirghan City, as reported on July 11. They also burned dozens of their national identity cards. They were protesting against the arrest of JMI key figure Qaisari and to demand the",0
CON1989735,2018 July,7,Riots/Protests,Protesters (Afghanistan),0,0,0,0,60,Southern Asia,Afghanistan,Kabul,Kabul,0,Kabul,34.5167,69.1833,1,BBC Monitoring; Shamshad TV,National-International,"Members of the Helmand Peace Convoy began a sit-in in front of the Pakistani Embassy, as reported on June 12, to demand pecae and that all sides renounce violence and cooperate.",0
CON1989738,2018 July,7,Riots/Protests,Protesters (Afghanistan),JMI: Junbish-i-Milli Islami,0,0,0,60,Southern Asia,Afghanistan,Samangan,Aybak,0,Samangan,36.2647,68.0155,2,BBC Monitoring; Afghan Channel One (1TV),National-International,"Protesters have forced closure of the Independent Election Commission (IEC) office in Samangan City, as reported on July 11. They also burned dozens of their national identity cards. They were protesting against the arrest of JMI key figure Qaisari and to demand the",0
CON1989741,2018 July,7,Riots/Protests,Protesters (Afghanistan),JMI: Junbish-i-Milli Islami,0,0,0,60,Southern Asia,Afghanistan,Balkh,Balkh,0,Balkh,36.7564,66.8972,1,TOLONews,National,Protesters have forced closure of the Independent Election Commission (IEC) office in Balkh City on July 13. They were protesting against the arrest of JMI key figure Qaisari and to demand the return of VP Dostum to the country.,0
CON1989744,2018 July,7,Riots/Protests,Protesters (Afghanistan),JMI: Junbish-i-Milli Islami,0,0,0,60,Southern Asia,Afghanistan,Samangan,Aybak,0,Samangan,36.2647,68.0155,3,BBC Monitoring; Tolo News,National-International,"JMI-affiliated protesters forced the closure of the election commission's office in Samangan Province and blocked the Kabul-Samangan Highway in protest of the arrest of JMI key figure and Dostum aide Qaisari, as reported on July 14.",0
CON1989758,2018 July,7,Riots/Protests,Protesters (Afghanistan),Unidentified Tribal Group (Afghanistan); Muslim Group (Afghanistan),0,0,0,60,Southern Asia,Afghanistan,Urozgan,Tarinkot,0,Tarinkot,32.6268,65.8733,3,BBC Monitoring; National Afghanistan TV,National-International,"Tribal elders, religious scholars, and youth hold a gathering in Urozgan Province to support the meeting of religious scholars in Saudi Arabia and to demand the Taliban join the peace process, as reported on July 14.",0
CON1989759,2018 July,7,Riots/Protests,Protesters (Afghanistan),Hazara Ethnic Group (Afghanistan),0,0,0,60,Southern Asia,Afghanistan,Ghazni,Ghazni,0,Ghazni,33.5508,68.4225,3,BBC Monitoring; Afghan Channel One TV (1TV); Ghaznawian TV,National,"Protesters, including ethnic Hazara, forced the closure of the election commission's office in Ghazni Province in protest against the commission's plan to divide Ghazni into multiple electoral zones, as reported on July 14.",0
CON1989760,2018 July,7,Riots/Protests,Protesters (Afghanistan),0,0,0,0,60,Southern Asia,Afghanistan,Nimruz,Zaranj,0,Zaranj,30.9667,61.8833,1,Pajhwok Afghan News English,National,Hundreds of protesters pitched a tent in Zaranj City on July 14 in protest of increasing insecurity and corruption under the provincial governor and to demand his resignation.,0
CON1989761,2018 July,7,Riots/Protests,Protesters (Afghanistan),0,0,0,0,60,Southern Asia,Afghanistan,Herat,Hirat,0,Herat,34.3482,62.1997,3,BBC Monitoring; Shamshad TV,National-International,"Dozens of youth and civil activists staged a protest in Herat Province to demand the warring sides join the peace process, as reported on July 15.",0
CON1989749,2018 July,7,Riots/Protests,Protesters (Afghanistan),JMI: Junbish-i-Milli Islami,0,0,0,60,Southern Asia,Afghanistan,Kabul,Kabul,0,Kabul,34.5167,69.1833,1,BBC Monitoring; Tolo News,National-International,"JMI and VP Dostum supporters staged a protest rally in Kabul on July 16 to demand the release of Qaisari and the return of Dostum, threatening to boycott the upcoming elections if their needs are not met.",0
CON1989750,2018 July,7,Riots/Protests,Protesters (Afghanistan),JMI: Junbish-i-Milli Islami,0,0,0,60,Southern Asia,Afghanistan,Takhar,Taluqan,0,Taloqan,36.7341,69.5336,1,TOLONews,National,"Hundreds of JMI supporters gathered on July 16 in Taloqan city to forcibly close a number of government offices, including the governor's, and staged a protest to demand the release of Qaisari, the return of VP Dostum, and the resignation of President Ghani.",0
CON1989751,2018 July,7,Riots/Protests,Protesters (Afghanistan),JMI: Junbish-i-Milli Islami,0,0,0,60,Southern Asia,Afghanistan,Takhar,Taluqan,0,Taloqan,36.7341,69.5336,3,Khaama Press,National,"Hundreds of JMI protesters gathered in Takhar Province and blocked the highways to Kunduz and Badakshan Provinces to demand the release of Qaisari and the return of VP Dostum, as reported on July 17.",0
CON1989762,2018 July,7,Riots/Protests,Protesters (Afghanistan),0,0,0,0,60,Southern Asia,Afghanistan,Kunduz,Kunduz,0,Kunduz,36.729,68.857,1,Pajhwok Afghan News English,National,Hundreds of angry residents of Kunduz Province staged a protest on July 17 by forcibly closing the gate of the governor's house against the kidnapping of a jeweler's son a few days before.,0
CON1989764,2018 July,7,Riots/Protests,Protesters (Afghanistan),0,0,0,0,60,Southern Asia,Afghanistan,Kunduz,Kunduz,0,Kunduz,36.729,68.857,3,BBC Monitoring; Sharq TV,National-International,"Dozens of residents of Kunduz Province staged a protest against the local government's inability to protect them against kidnappers and armed robbers, as reported on July 17.",0
CON1989753,2018 July,7,Riots/Protests,Protesters (Afghanistan),JMI: Junbish-i-Milli Islami,0,0,0,60,Southern Asia,Afghanistan,Balkh,Kaldar,0,Kaldar,37.1656,67.7719,2,Pajhwok Afghan News English,National,"Dozens of JMI supporters staged a protest on July 18 by blocking the road to the Hairatan commercial port against heavy traffic in Kaldar District, Balkh Province to demand the release of Qaisari and return of VP Dostum.",0
CON1989756,2018 July,7,Riots/Protests,Protesters (Afghanistan),JMI: Junbish-i-Milli Islami,0,0,0,60,Southern Asia,Afghanistan,Faryab,Maymana,0,Maymana,35.9213,64.7841,1,TOLONews,National,"JMI protesters demonstrated on July 18 by forcibly closing government offices (attorney general, department of justice, department of agriculture, department of rural development) in Maymana City, Faryab Province to demand the release of Qaisari and the return of VP Dostum.",0
CON1989757,2018 July,7,Riots/Protests,Protesters (Afghanistan),JMI: Junbish-i-Milli Islami,0,0,0,60,Southern Asia,Afghanistan,Jowzjan,Shibirghan,0,Shibirghan,36.6676,65.7529,3,Khaama Press,National,"JMI supporters staged protests by forcibly closing 50 government offices (provincial government, provincial elections, and provincial local governance) in Jowzjan Province to demand the release of Qaisari and the return of VP Dostum.",0
CON1989766,2018 July,7,Riots/Protests,Protesters (Afghanistan),0,0,0,0,60,Southern Asia,Afghanistan,Kabul,Kabul,0,Kabul,34.5167,69.1833,1,BBC Monitoring; National Afghanistan TV,National-International,"Residents of Kabul staged a gathering to voice support for the government peace efforts and to demand the government armed opponents (Taliban) renounce violence and join the peace process, as reported on July 20.",0
CON1989771,2018 July,7,Riots/Protests,Protesters (Afghanistan),0,0,0,0,60,Southern Asia,Afghanistan,Balkh,Kaldar,0,Kaldar,37.1656,67.7719,2,BBC Monitoring; Shamshad TV,Subnational,"Protesters blocked the Hairatan Port in Kaldar District, Balkh Province, as reported on July 21.",0
CON1989772,2018 July,7,Riots/Protests,Protesters (Afghanistan),0,0,0,0,60,Southern Asia,Afghanistan,Herat,Hirat,0,Herat,34.3482,62.1997,3,BBC Monitoring; Shamshad TV,Subnational,"Youths staged a protest in Herat Province to demand the Taliban renounce violence and join the peace process, as reported on July 21.",0
CON1989777,2018 July,7,Riots/Protests,Protesters (Afghanistan),Labour Group (Afghanistan),0,0,0,60,Southern Asia,Afghanistan,Khost,Khost,0,Khost,33.3395,69.9204,3,BBC Monitoring; Shamshad TV; Radio Khost,Subnational,"Shopkeepers staged a demonstration in Khost Province to demand the government address their issues after 4,000 of their shops were put up for auction, as reported on July 22.",0
CON1989775,2018 July,7,Riots/Protests,Protesters (Afghanistan),0,0,0,0,60,Southern Asia,Afghanistan,Balkh,Mazar-e Sharif,0,Mazar-e Sharif,36.709,67.1109,3,BBC Monitoring; Shamshad TV,Subnational,"Civil activists and local citizens staged a protest against rampant abduction and targeted killings in Balkh Province, demanding government action, as reported on July 22.",0
CON1989780,2018 July,7,Riots/Protests,Protesters (Afghanistan),0,0,0,0,60,Southern Asia,Afghanistan,Wardak,Maidan Shar,0,Maidan Shar,34.3956,68.8662,1,BBC Monitoring; Shamshad TV; Radio Khost,Subnational-International,"Dozens of local citizens closed the doors of the provincial governor office and other government offices for 3 days (July 23-25) in Maidan Shar, Wardak Province, as reported on July 23, to demand the dismissal of a newly-appointed female head of the municipality and to demand the government implement development projects in the province.",0
CON1989778,2018 July,7,Riots/Protests,Protesters (Afghanistan),0,0,0,0,60,Southern Asia,Afghanistan,Kabul,Kabul,0,Kabul,34.5167,69.1833,1,BBC Monitoring; Ariana TV,Subnational,"Residents of Faryab Province staged a protest in front of the Independent Human Rights Commission in Kabul to demand the trial of detained commander Qaisari (associated with JMI and VP Dostum), as reported on July 23.",0
CON1989807,2018 July,7,Riots/Protests,Protesters (Afghanistan),Unidentified Tribal Group (Afghanistan); Muslim Group (Afghanistan),0,0,0,60,Southern Asia,Afghanistan,Ghazni,Ghazni,0,Ghazni,33.5508,68.4225,3,BBC Monitoring; Radio Khost,Subnational-International,"A number of religious scholars, tribal elders, and other people staged a protest gathering in Ghazni Province to call on the Taliban to renounce violence and join the peace talks, as reported on July 23.",0
CON1989808,2018 July,7,Riots/Protests,Protesters (Afghanistan),Unidentified Tribal Group (Afghanistan),0,0,0,60,Southern Asia,Afghanistan,Wardak,Maidan Shar,0,Maidan Shar,34.3956,68.8662,1,BBC Monitoring; Ghaznawian TV,Subnational,"On 23-August-2018 dozens of activists and tribal elders peacefully demonstrated for development projects in Maindan Shar city, Maidan Shar district, Wardak povince.",0
CON1989787,2018 July,7,Riots/Protests,Protesters (Afghanistan),0,0,0,0,60,Southern Asia,Afghanistan,Kabul,Kabul,0,Kabul,34.5167,69.1833,1,Pajhwok Afghan News English,National,Residents of Faryab Province staged a protest in front of the Independent Human Rights Commission in Kabul to demand the trial of detained commander Qaisari (associated with JMI and VP Dostum) on July 24.,0
CON1989809,2018 July,7,Riots/Protests,Protesters (Afghanistan),0,0,0,0,60,Southern Asia,Afghanistan,Wardak,Maidan Shar,0,Maidan Shar,34.3956,68.8662,1,BBC Monitoring; Shamshad TV; Radio Khost,Subnational-National,"Dozens of local citizens closed the doors of the provincial governor office and other government offices for 3 days (July 23-25) in Maidan Shar, Wardak Province, as reported on July 23, to demand the dismissal of a newly-appointed female head of the municipality and to demand the government implement development projects in the province.",0
CON1989810,2018 July,7,Riots/Protests,Protesters (Afghanistan),0,0,0,0,60,Southern Asia,Afghanistan,Wardak,Maidan Shar,0,Maidan Shar,34.3956,68.8662,1,BBC Monitoring; Shamshad TV; Radio Khost,Subnational-National,"Dozens of local citizens closed the doors of the provincial governor office and other government offices for 3 days (July 23-25) in Maidan Shar, Wardak Province, as reported on July 23, to demand the dismissal of a newly-appointed female head of the municipality and to demand the government implement development projects in the province.",0
CON1989797,2018 July,7,Riots/Protests,Protesters (Afghanistan),0,0,0,0,60,Southern Asia,Afghanistan,Kabul,Kabul,0,Kabul,34.5167,69.1833,1,BBC Monitoring; Tolo News TV,National,The Helmand Peace Convoy ended its sit-in in front of the Pakistani Embassy and began a new sit-in demonstration in front of the Iranian Embassy in Kabul on July 26. They are demanding that the Iranian people put pressure on their government to help the Afghan peace process.,0
CON1989804,2018 July,7,Riots/Protests,Protesters (Afghanistan),Labour Group (Afghanistan),0,0,0,60,Southern Asia,Afghanistan,Kabul,Kabul,0,Kabul,34.5167,69.1833,1,Pajhwok Afghan News English,National,Protesting private contractors staged a demonstration on July 28 in Kabul city by blocking the Darul Aman Road to demand 7 billion Afghanis in outstanding dues from the MoI.,0
CON1989811,2018 July,7,Riots/Protests,Protesters (Afghanistan),Labour Group (Afghanistan),Police Forces of Afghanistan (2004-),0,1,16,Southern Asia,Afghanistan,Kabul,Kabul,0,Kabul,34.5167,69.1833,1,BBC Monitoring; Ariana TV,National-International,"Owners of construction companies staged a sit-in protest in Kabul against the Ministry of Interior Affairs, asking it to repays its loans, as reported on July 28. Police removed the protestors from their spots.",0
CON1989813,2018 July,7,Riots/Protests,Protesters (Afghanistan),0,0,0,0,60,Southern Asia,Afghanistan,Kabul,Kabul,0,Kabul,34.5167,69.1833,1,TOLONews,National,"Members of the People's Peace Movement staged a sit-in protest in front of the British Embassy in Kabul, as reported on July 30.",0
CON1989818,2018 July,7,Riots/Protests,Protesters (Afghanistan),Unidentified Tribal Group (Afghanistan),0,0,0,60,Southern Asia,Afghanistan,Helmand,Lashkargah,0,Lashkargah,31.5938,64.3716,3,BBC Monitoring; Shamshad TV; Helmand Local Radio,Subnational-National,"As reported on July 30, a group of youths, civil society members, and tribal leaders staged a protest gathering in Helmand Province in which they criticized the newly-announced grand political coalition, claiming that members from the southern provinces do not represent them.",0
CON1989829,2018 August,7,Riots/Protests,Protesters (Afghanistan),0,0,0,0,60,Southern Asia,Afghanistan,Khost,Khost,0,Khost,33.3395,69.9204,3,BBC Monitoring; Shamshad TV,National-International,"Residents of two unnamed districts of Khost Province staged a demonstration against the local provincial council for an unidentified issue, as reported on Aug 2.",0
CON1989833,2018 August,7,Riots/Protests,Protesters (Afghanistan),0,0,0,0,60,Southern Asia,Afghanistan,Herat,Hirat,0,Herat,34.3482,62.1997,3,BBC Monitoring; Shamshad TV,National-International,"Women gathered in protest in Herat Province to criticize the government for failing to protect women's rights, as reported on Aug 3.",0
CON1989836,2018 August,7,Riots/Protests,Protesters (Afghanistan),0,0,0,0,60,Southern Asia,Afghanistan,Kabul,Kabul,0,Kabul,34.5167,69.1833,1,BBC Monitoring; Tolo News TV,National-International,"Members of the Helmand Peace Convoy/Caravan pitched tents in front of the EU office in Kabul, as reported on Aug 4, to demand EU support of the peace process.",0
CON1989837,2018 August,7,Riots/Protests,Protesters (Afghanistan),0,0,0,0,60,Southern Asia,Afghanistan,Zabul,Shah Joy,0,Shah Joy,32.5215,67.4132,2,BBC Monitoring; Afghan Television,National,On 04-August-2018 it was reported that hundreds of protesters demonstrated for the withdrawal of foreign forces from the country in the Shah Joy district of Zabul province.,0
CON1751281,2018 August,7,Riots/Protests,Rioters (Afghanistan),0,Police Forces of Afghanistan (2004-),0,1,15,Southern Asia,Afghanistan,Khost,Mandozai,0,Dadwal,33.3107,69.8002,2,Pajhwok Afghan News English,National,"On 06-August-2018 25 people were wounded including 10 Afghan police officers and 15 demonstrators during a demonstration that turned violent over the destruction of houses in the Hasanzai area of Mandozai district, Khost province.",0
CON1989845,2018 August,7,Riots/Protests,Protesters (Afghanistan),0,0,0,0,60,Southern Asia,Afghanistan,Kabul,Kabul,0,Kabul,34.5167,69.1833,1,BBC Monitoring; Shamshad TV,Subnational,"On 13-August-2018, local residents staged a protest demonstration in Kabul against the Taliban capture of Ghazni city and to demand better security.",0
CON1989872,2018 September,7,Riots/Protests,Protesters (Afghanistan),National Coalition of Afghanistan,0,0,0,60,Southern Asia,Afghanistan,Nangarhar,Jalalabad,0,Jalalabad,34.4265,70.4515,1,BBC Monitoring; Sharq TV,Subnational,"On 22-September-2018, it was reported that National Coalition of Afghanistan supporters protested for biometric systems to be used in the upcoming parliamentary elections in Jalalabad city, Jalalbad district, Nangarahar province.",0
CON1889791,2018 October,7,Riots/Protests,Protesters (Afghanistan),Muslim Group (Afghanistan),0,0,0,60,Southern Asia,Afghanistan,Khost,Khost,0,Khost,33.3395,69.9204,3,BBC Monitoring; Afghan Islamic Press news agency,National,"As reported on Oct 11, dozens of Tablighi Jumat preachers staged a protest demonstration on the Khost-Kabul highway in Khost province against the government for not allowing them to hold gatherings.",0
CON1897946,2018 October,7,Riots/Protests,Protesters (Afghanistan),0,0,0,0,60,Southern Asia,Afghanistan,Nangarhar,Rodat,0,Rodat,34.272,70.5679,2,BBC Monitoring; Afghan Islamic Press news; RFERL,Regional,"On 23-October-2018, local residents protested the killing of civilians by Afghan forces in Rodat district and blocked the Jalalabad-Torkham road along with the bodies.",0
CON1988150,2018 November,7,Riots/Protests,Protesters (Afghanistan),0,0,0,0,60,Southern Asia,Afghanistan,Kabul,Kabul,0,Kabul,34.5167,69.1833,1,BBC Monitoring; Tolo News,National,"On 11-November-2018, hundreds of protesters held a peaceful demonstration outside the presidential palace in Kabul city. The protesters accused the government of failing to provide adequate security in Ghazni and Urozgan provinces.",0
CON2318636,2018 November,7,Riots/Protests,Rioters (Afghanistan),0,Police Forces of Afghanistan (2004-),0,1,15,Southern Asia,Afghanistan,Kabul,Kabul,0,Kabul,34.5167,69.1833,1,BBC Monitoring; Afghan Channel One,National,"On 25-November-2018, 48 Afghan Police were wounded during violent demonstrations for the release of a local commander in Kabul city.",0
