data_id,period,event_type_code,event_type,actor1,assoc_actor_1,actor2,assoc_actor_2,inter2,interaction,region,country,admin1,admin2,admin3,location,latitude,longitude,geo_precision,source,source_scale,notes,fatalities
CON1990435,2018 January,8,Strategic development,Military Forces of Afghanistan (2004-),0,0,0,0,10,Southern Asia,Afghanistan,Kabul,Kabul,0,Kabul,34.5167,69.1833,1,Pajhwok Afghan News,National,"Defusal: A magnetic bomb attached to a vehicle of Ministry of Interior workers was found and defused immediately upon entering the ministry's compounds in Kabul city, as reported on January 1, 2018.",0
CON1990438,2018 January,8,Strategic development,Unidentified Armed Group (Afghanistan),0,0,0,0,30,Southern Asia,Afghanistan,Herat,Hirat,0,Herat,34.3482,62.1997,3,Pajhwok Afghan News,National,"Property Destruction: Masked gunmen torched 3 vehicles belonging to owners of marble mines in the Rabat Akhunzada area of Herat Province on January 1, 2018. The incident reportedly happened 200 meters away from a police checkpoint. The armed men warned them not to come to the area again. The miners protested the insecurity of the roadways by bringing the vehicles to the provincial governor's house. Coded across 2 events.",0
CON1990439,2018 January,8,Strategic development,Police Forces of Afghanistan (2004-),0,0,0,0,10,Southern Asia,Afghanistan,Wardak,Saydabad,0,Saydabad,34.0004,68.7135,2,Khaama Press,Subnational,"Weapons Seizure: The police reported on January 1, 2018, that a huge cache of heavy weapons and ammunition, including artillery rounds, was discovered and seized in Saydabad District, Wardak Province.",0
CON1990436,2018 January,8,Strategic development,Military Forces of Afghanistan (2004-),0,0,0,0,10,Southern Asia,Afghanistan,Nangarhar,Khogyani,0,Kaga,34.2409,70.1827,2,Khaama Press,Subnational,"Defusal: Afghan security forces seized and defused and/or detonated a vehicle-born IED and 8 mortar rounds--the latter in the Sari Kala area--in Khogyani District, Nangarhar Province on January 1, 2018.",0
CON1990443,2018 January,8,Strategic development,Police Forces of Afghanistan (2004-),Police Forces of Afghanistan (2004-) National Directorate of Security,0,0,0,10,Southern Asia,Afghanistan,Khost,Khost,0,Khost,33.3395,69.9204,3,BBC Monitoring; Radio Bost; Pajhwok Afghan News,Subnational-national,"Weapons Seizure: Afghan police and NDS officials seized military vehicles that had previosuly been hijacked by Taliban militants months before, 61 landmines, rifles, a rocket launcher, and military uniforms in Khost Province the week before it was reported on January 10, 2018.",0
CON1990446,2018 January,8,Strategic development,Taliban,0,0,0,0,20,Southern Asia,Afghanistan,Paktika,Sharana,0,Sharan,33.1757,68.7304,3,BBC Monitoring; Shamshad TV,Subnational-national,"Property Destruction: Taliban militants burned cash assistance sent by the government to needy people in Paktika Province, as reported on January 5, 2018.",0
CON1990447,2018 January,8,Strategic development,Military Forces of Afghanistan (2004-),0,0,0,0,10,Southern Asia,Afghanistan,Helmand,Lashkargah,0,Lashkargah,31.5938,64.3716,3,Khaama Press,Subnational,"Defusal: Afghan security forces discovered and defused 22 IEDs during operations in Helmand Province, as reported on January 6, 2018.",0
CON1990448,2018 January,8,Strategic development,Police Forces of Afghanistan (2004-),0,0,0,0,10,Southern Asia,Afghanistan,Nangarhar,Achin,0,Mohmand,34.045,70.604,1,Bakhtar News Agency,National,"Property Destruction: Afghan border police forces discovered and demolished an IS mine-making factory in Mohmand area of Achin District, Nangarhar Province, reported on January 6, 2018. Hundreds of kilograms of explosive materials and mine-making equipment was also seized.",0
CON1990449,2018 January,8,Strategic development,Islamic State (Afghanistan),0,0,0,0,20,Southern Asia,Afghanistan,Nangarhar,Achin,0,Sra Kala,34.1258,70.7133,2,Khaama Press,Subnational,"Detonation: 3 IS militants were killed while working with their own IEDs in a premature explosion in Achin District, Nangarhar Province, late on January 7, 2018.",3
CON1990451,2018 January,8,Strategic development,Taliban,0,Military Forces of Afghanistan (2004-),0,1,12,Southern Asia,Afghanistan,Badakhshan,Argo,0,Argo,37.0635,70.4253,2,Pajhwok Afghan News,National,"Agreement: 40 Taliban militants joined the peace process in Argo District, Badakshan Province, on January 8, 2018. They surrendered weapons and renounced violence, reportedly as a result of clearing operations and elders' mediation.",0
CON1990452,2018 January,8,Strategic development,Police Forces of Afghanistan (2004-),0,0,0,0,10,Southern Asia,Afghanistan,Herat,Guzara,0,Guzara,34.2122,62.2124,2,BBC Monitoring; Herat TV,Subnational-national,"Defusal: Police forces seized and neutralized 3 mines from Guzara District, Herat Province, as reported on January 9, 2018.",0
CON1990453,2018 January,8,Strategic development,Military Forces of Afghanistan (2004-),Police Forces of Afghanistan (2004-); Police Forces of Afghanistan (2004-) National Directorate of Security,0,0,0,10,Southern Asia,Afghanistan,Kapisa,Tagab,0,Wali Khel,34.7591,69.6666,1,Bakhtar News Agency; Xinhua General News Service,National-international,"Defusal: ANA, police, and NDS forces discovered and defused 38 rounds of different types of mines in Wali Khel village, Tagab District, Kapisa Province, as reported on January 10, 2018.",0
CON1990455,2018 January,8,Strategic development,Police Forces of Afghanistan (2004-),0,0,0,0,10,Southern Asia,Afghanistan,Kabul,Kabul,0,Kabul,34.5167,69.1833,1,BBC Monitoring; Shamshad TV,Subnational-national,"Defusal: Afghan police forces seized and defused an explosives-laden vehicle in Kabul City, as reported on January 12, 2018.",0
CON1990457,2018 January,8,Strategic development,Taliban,0,0,0,0,20,Southern Asia,Afghanistan,Kunar,Marawara,0,Marawara,34.8914,71.1697,2,Bakhtar News Agency,National,"Detonation: A Taliban vehicle accidentally hit a roadside bomb believed to have previously been planted by Taliban militants in Negal village, Marawara District, Kunar Province, on the night of January 13, 2018. The shadow district governor was killed and the deputy shadow district governor was injured.",1
CON1990460,2018 January,8,Strategic development,Police Forces of Afghanistan (2004-),0,Taliban,0,2,12,Southern Asia,Afghanistan,Samangan,Hazrat-e Sultan,0,Hazrat-e Sultan,36.4507,67.8962,2,BBC Monitoring; Afghan Islamic Press; Pajhwok Afghan News; Bakhtar News Agency,National,"Weapons Seizure: Afghan police forces seized 238-500kg of explosives and arrested 4 Taliban fighters, including the provincial head of military affairs, in the Dar-e Kalan area of Hazrat-e Sultan District, Samangan Province, on January 14, 2018. Others report the arrests in Samangan City.",0
CON1990459,2018 January,8,Strategic development,Taliban,0,0,0,0,20,Southern Asia,Afghanistan,Sar-e Pol,Sayyad,0,Sayyad,35.9339,66.593,2,Pajhwok Afghan News,National,"Detonation: 3 Taliban militants were wounded in an accidental detonation while transporting bombs in the Baland Gharmu area of Sayyad District, Sar-e Pol Province, on the morning of January 14, 2018.",0
CON1990462,2018 January,8,Strategic development,Taliban,0,0,0,0,20,Southern Asia,Afghanistan,Herat,Ghoryan,0,Ghoryan,34.3448,61.4932,2,BBC Monitoring; Herat TV,Subnational-national,"Detonation: Taliban militants were accidentally blown up by a roadside mine--likely planted by their own group--in Ghoryan District, Herat Province, as reported on January 15, 2018. 3 militants were killed and some others wounded.",3
CON1990465,2018 January,8,Strategic development,Taliban,0,0,0,0,20,Southern Asia,Afghanistan,Nangarhar,Jalalabad,0,Jalalabad,34.4265,70.4515,1,Pajhwok Afghan News,National,"Detonation: Taliban militants carrying explosives on a motorcycle in Jalalabad city on the night of January 17, 2018, were victims of an accidental explosion. 2 militants were killed and a third wounded.",2
CON1990466,2018 January,8,Strategic development,Police Forces of Afghanistan (2004-),0,Unidentified Armed Group (Afghanistan),0,3,13,Southern Asia,Afghanistan,Khost,Musa Khel,0,Musa Khel,33.5333,69.7333,2,BBC Monitoring; Sharq TV; Pajhwok Afghan News,Subnational-national,"Defusal: Afghan police forces discovered and defused an explosives-laden vehicle in the Gabar area of Musa Khel District, Khost Province, as reported on January 17, 2018. 2 suspects were also arrested.",0
CON1990467,2018 January,8,Strategic development,Military Forces of Afghanistan (2004-) Special Forces,0,0,0,0,10,Southern Asia,Afghanistan,Helmand,Lashkargah,0,Lashkargah,31.5938,64.3716,3,Khaama Press,Subnational,"Weapons Seizure: It was reported on January 24, 2018, that the week before, Afghan Special Forces in Helmand Province confiscated 10 mortar rounds, 207 RPG rockets, 150 IEDs, 50 remote-controlled landmines, 250 rounds of ammunitions, 20 hand grenades, 320 kgs of explosives, and 234 equipments for landmines.",0
CON1990468,2018 January,8,Strategic development,Militia (Pro-Government),0,0,0,0,30,Southern Asia,Afghanistan,Nangarhar,Jalalabad,0,Jalalabad,34.4265,70.4515,3,BBC Monitoring; Arman-e Melli,Subnational-national,"Formation of Armed Group: Reports on January 18, 2018, that new public uprising forces had been mobilized for the fight against IS militants in Achin, Kot, Khogyani, and Pachir Wa Agam Districts of Nangarhar Province. 400 fighters were reported in Pachir Wa Agam, 100 in Kot, hundreds in Achin, and 300 in Khogyani District.",0
CON1990472,2018 January,8,Strategic development,Police Forces of Afghanistan (2004-) National Directorate of Security,0,Taliban,0,2,12,Southern Asia,Afghanistan,Kunduz,Kunduz,0,Kunduz,36.729,68.857,1,Pajhwok Afghan News,National,"Weapons Seizure: NDS officials arrested a would-be suicide bomber and seized his explosive devices in Kunduz City, as reported on January 20, 2018.",0
CON1990476,2018 January,8,Strategic development,Police Forces of Afghanistan (2004-) National Directorate of Security,0,Taliban,0,2,12,Southern Asia,Afghanistan,Nangarhar,Mohmand Dara,0,Mohmand Dara,34.2553,70.8657,2,Bakhtar News Agency,National,"Weapons Seizure: NDS officials arested 4 Taliban militants and seized dozens of weapons and explosives from them in Mohmand Dara District, Nangarhar Province, on the night of January 22, 2018.",0
CON1990474,2018 January,8,Strategic development,Unidentified Armed Group (Afghanistan),0,0,0,0,30,Southern Asia,Afghanistan,Ghor,Chaghcharan,0,Chaghcharan,34.5195,65.2509,1,BBC Monitoring; Afghan Islamic Press,National,"Property Destruction: Unidentified armed men set fire to a Radio Adalat station in Chaghcharan City, the capital of Ghor Province, as reported on January 22, 2018. There were no casualties.",0
CON1990475,2018 January,8,Strategic development,Civilians (Afghanistan),Prisoners (Afghanistan),0,0,0,70,Southern Asia,Afghanistan,Kandahar,Kandahar,0,Kandahar,31.6133,65.7101,3,Pajhwok Afghan News,National,"Strikes: Dozens of prison inmates in Kandahar Province reported going on a hunger strike on January 22, 2018, in protest of delays in processing cases and unfair sentences. The strikes continued until at least January 24, 2018.",0
CON1990478,2018 January,8,Strategic development,Taliban,0,0,0,0,20,Southern Asia,Afghanistan,Kunduz,Imam Sahib,0,Joy-e-Begum,37.1431,68.9501,1,BBC Monitoring; Pajhwok Afghan News,National,"Property Destruction: Taliban militants destroyed a bridge with explosives in the Joy-e Begum area of Imam Sahib District, Kunduz Province, that connected 12 villages to the district center, causing price hikes.",0
CON1990480,2018 January,8,Strategic development,Taliban and/or Islamic State (Afghanistan),0,Government of Afghanistan (2004-),0,1,12,Southern Asia,Afghanistan,Kapisa,Mahmud Raqi,0,Mahmud-e-Raqi,35.0164,69.3445,3,BBC Monitoring; Paiwastoon Ghag,National,"Agreement: More than 50 Taliban and/or Islamic State militants renounced violence and joined the peace process in Kapisa Province, as reported on January 23, 2018.",0
CON1990481,2018 January,8,Strategic development,Taliban,0,0,0,0,20,Southern Asia,Afghanistan,Kunduz,Archi,0,Archi,37.0704,69.2984,2,Xinhua General News Service,International,"Detonation: 1 Taliban militant was killed and 2 others wounded in an accidental premature detonation while they were transporting an IED in Archi District, Kunduz Province, on the morning of January 24, 2018.",1
CON1990484,2018 January,8,Strategic development,Police Forces of Afghanistan (2004-),Police Forces of Afghanistan (2004-) National Directorate of Security,0,0,0,10,Southern Asia,Afghanistan,Parwan,Bagram,0,Bagram,34.9669,69.265,2,Bakhtar News Agency,National,"Weapons Seizure: Afghan joint police and NDS forces discovered and confiscated a ""huge"" amount of ammunition and explosive materials in Bagram District, Parwan Province, as reported on January 25, 2018. The weapons included rocket launchers, rocket bullets, mortar shells, mines, and explosive materials. The forces destroyed some of the explosives in controlled detonations.",0
CON1360457,2018 January,8,Strategic development,Protesters (Pakistan),Refugees/IDPs (Pakistan),0,0,0,60,Southern Asia,Afghanistan,Khost,Gurbuz,0,Sekhamir Kalay,33.2874,69.9128,2,BBC Monitoring; Sharq TV,Subnational-national,"Hundreds of refugees from the Waziristan area of Pakistan stage a protest in Golan Camp (near Sekhamir Kalay) in Gurbuz District, Khost Province in support of Pashtuns, criticizing the Pakistani government for its treatment of the group, on January 26, 2018.",0
CON1990491,2018 January,8,Strategic development,Taliban,0,Civilians (Afghanistan),0,7,27,Southern Asia,Afghanistan,Ghazni,Muqur,0,Muqur,32.8201,67.7693,2,BBC Monitoring; Shamshad TV,Subnational-national,"Non-Violent Activity: Reported on January 29, 2018, that the Taliban were forcing local residents of Muqur Districts, Ghazni Province, to leave their homes so that the militants could try to dig a gold mine. The Taliban rejected these reports.",0
CON1990492,2018 January,8,Strategic development,Police Forces of Afghanistan (2004-) National Directorate of Security,0,0,0,0,10,Southern Asia,Afghanistan,Kabul,Kabul,0,Kabul,34.5167,69.1833,1,Khaama Press; TOLONews,Subnational-national,"Weapons Seizure: NDS officials reported the discovery and confiscation of a large weapons cache, including weapons and explosives, reportedly belonging to IS militants in the Qalah-ye Wahid area of Kabul City in a raid on January 30, 2018. A husband and wife had rented the house two weeks prior. Officials report that it was used as a safehouse in the run-up to the January 29 IS attack on a military academy in Kabul (coded as a separate event).",0
CON1990498,2018 February,8,Strategic development,Military Forces of Afghanistan (2004-),0,0,0,0,10,Southern Asia,Afghanistan,Helmand,Nahri Saraj,0,Girishk,31.8209,64.57,2,Bakhtar News Agency,National,"Defusal: On February 3rd, Afghan security forces defused 6 landmines found in the outskirts of Nahri Saraj district.",0
CON1990500,2018 February,8,Strategic development,Police Forces of Afghanistan (2004-),0,Taliban,0,2,12,Southern Asia,Afghanistan,Urozgan,Tarinkot,0,Tarinkot,32.6268,65.8733,1,Pajhwok Afghan News English,National,"Weapons Seizure: On February 4th, police forces seized and destroyed an explosive-laden Humvee, and arrested its Taliban drivers, in Tarinkot city, Urozgan province. Its alleged target was the Sar-Murdah checkpost in the city.",0
CON1990502,2018 February,8,Strategic development,Military Forces of Afghanistan (2004-),0,0,0,0,10,Southern Asia,Afghanistan,Helmand,Lashkargah,0,Lashkargah,31.5938,64.3716,3,Khaama Press,Subnational,"Defusal: On February 5th, Afghan security forces discovered and defused 27 IED's across Helmand province during Maiwand-11 operations.",0
CON1990505,2018 February,8,Strategic development,Military Forces of Afghanistan (2004-),0,Taliban,0,2,12,Southern Asia,Afghanistan,Badghis,Qala i Naw,0,Qala i Naw,34.9874,63.1289,3,BBC Monitoring; Noor TV,National,"Non-Violent Activity: On February 5th, 15 Afghan security personel who were being held captive by Taliban forces in Badghis province managed to escape.",0
CON1990501,2018 February,8,Strategic development,Military Forces of Afghanistan (2004-),0,0,0,0,10,Southern Asia,Afghanistan,Kabul,Kabul,0,Kabul,34.5167,69.1833,1,Pajhwok Afghan News English,National,"Weapons Seizure: On February 5th, security forces seized a vehicle laden with 2 tonnes of explosives near the Russian embassy in Kabul.",0
CON1990508,2018 February,8,Strategic development,Military Forces of Afghanistan (2004-),0,0,0,0,10,Southern Asia,Afghanistan,Herat,Gulran,0,Gulran,35.1055,61.6873,2,BBC Monitoring; Afghan Islamic Press News Agency,National,"Weapons Seizure: On February 6th, Afghan security forces seized a vehicle laden with 360kg of explosive material in the Bagh-e Kohna area of Golran district, Herat province.",0
CON1990516,2018 February,8,Strategic development,Police Forces of Afghanistan (2004-),0,Unidentified Armed Group (Afghanistan),0,3,13,Southern Asia,Afghanistan,Kapisa,Tagab,0,Tagab,34.855,69.6492,2,Xinhua General News Service,International,"Defusal: On February 11th, police seized an explosive-laden car and arrested the unidentified militant driver in Tagab district of Kapisa province. The car's target was allegedly local government facilities.",0
CON1990515,2018 February,8,Strategic development,Taliban,0,0,0,0,20,Southern Asia,Afghanistan,Farah,Anar Dara,0,Anar Dara,32.7587,61.654,2,Khaama Press,Subnational,"Detonation: On February 11th, at least 4 Taliban militants were killed when the explosive-lader vehicle they were driving exploded prematurely in Dand Jal village of Anar Dara district, Farah province.",4
CON1990517,2018 February,8,Strategic development,Police Forces of Afghanistan (2004-) National Directorate of Security,0,0,0,0,10,Southern Asia,Afghanistan,Nangarhar,Surkh Rod,0,Sultanpur,34.412,70.2963,2,Khaama Press,Subnational,"Defusal: On February 12th, NDS police personnel discovered and defused an explosive-laden car built by Haqqani Network militants in the Dami Ghondi area of Surkh Rod district, Nangarhar province. The car bomb's target was allegedly in Jalalabad city.",0
CON1990522,2018 February,8,Strategic development,Unidentified Armed Group (Afghanistan),0,Police Forces of Afghanistan (2004-),0,1,13,Southern Asia,Afghanistan,Ghazni,Nawa,0,Nawa,32.3278,67.8886,2,BBC Monitoring; Helmand Local Radio,Local,"Defusal: As reported on February 14, Afghan police seized an explosive-laden motorcycle and arrested its driver in Nawa district, Ghazni province. The bomber was allegedly headed to Lashkargah city to detonate.",0
CON1990526,2018 February,8,Strategic development,Police Forces of Afghanistan (2004-),0,Taliban,0,2,12,Southern Asia,Afghanistan,Nangarhar,Khogyani,0,Kaga,34.2409,70.1827,2,Pajhwok Afghan News English,National,"Property Destruction: On February 18th, Afghan Counter Narcotics Police destroyed three Taliban-controlled drug factories and arrested three Taliban militants during raids in the Nawkarkhel area of Khogyani district, Nangarhar province.",0
CON1990525,2018 February,8,Strategic development,Police Forces of Afghanistan (2004-),0,0,0,0,10,Southern Asia,Afghanistan,Nangarhar,Jalalabad,0,Jalalabad,34.4265,70.4515,1,Associated Press International,International,"Defusal: On February 20th, Afghan police defused a bomb found planted near a hotel in Jalalabad city, Nangarhar. Earlier in the day, a bomb exploded in a room of the same hotel, killing 3 people (coded in separate event).",0
CON1990530,2018 February,8,Strategic development,Military Forces of Afghanistan (2004-),0,0,0,0,10,Southern Asia,Afghanistan,Kapisa,Tagab,0,Tagab,34.855,69.6492,2,Bakhtar News Agency,National,"Defusal: On February 22nd, Afghan security forces seized and detonated six motorcycles packed with explosives during an operation in the Badarab area of Tagab district, Kapisa province.",0
CON1990532,2018 February,8,Strategic development,Military Forces of Afghanistan (2004-),0,0,0,0,10,Southern Asia,Afghanistan,Nangarhar,Jalalabad,0,Jalalabad,34.4265,70.4515,1,Bakhtar News Agency,National,"Property Destruction: On February 25th, Afghan security forces destroyed two Taliban-owned narcotic factories in the south of Jalalabad city, Nangarhar province.",0
CON1990533,2018 February,8,Strategic development,Taliban,0,0,0,0,20,Southern Asia,Afghanistan,Badghis,Qala i Naw,0,Qala i Naw,34.9874,63.1289,1,Bakhtar News Agency,National,"Property Destruction: On February 26th, Taliban militants threw a grenade inside the campus of the National Radio Television (NRT) directorate, Qala I Naw city. The grenade exploded, damaging some property, but no casualties were reported.",0
CON1990535,2018 February,8,Strategic development,Military Forces of Afghanistan (2004-),0,Taliban,0,2,12,Southern Asia,Afghanistan,Helmand,Nahri Saraj,0,Mir Mandaw,31.8739,64.7334,1,Pajhwok Afghan News English,National,"Weapons Seizure: On February 27th, four vehicles, an ammunitions depot, and a bomb depot belonging to the Taliban were destroyed during a raid by Afghan security forces in the Mir Mandaw area of Nahri Saraj district, Helmand province. Several Taliban militants were also arrested, including a German national.",0
CON1990538,2018 March,8,Strategic development,Unidentified Armed Group (Afghanistan),0,0,0,0,30,Southern Asia,Afghanistan,Nangarhar,Hisarak,0,Chahar Tut,34.2778,69.7995,1,Khaama Press,Subnational,"Detonation: On March 1st, 2 unidentified militants were killed, and 2 more injured, when an IED they were handling exploded prematurely in the Chahartut area of Hisarak district, Nangarhar province.",2
CON1990540,2018 March,8,Strategic development,Taliban (Mullah Mansour Group),0,0,0,0,20,Southern Asia,Afghanistan,Kabul,Kabul,0,Kabul,34.5167,69.1833,1,Pajhwok Afghan News English,National,"Formation of Armed Group: As reported on March 3rd, leaflets found in several districts of Nangarhar province including Khogyani, Pachir Wa Agam, and Chaparhar, stated that a new splinter group of the Taliban has been created, named after former Taliban commander Mullah Akhtar Mansour (Mullah Mansour Group) who was killed in a drone strike on May 21st 2016. The leaflets criticized the incumbent leaders, and mentioned the new group was in talks with several Taliban leaders across Afghanistan.",0
CON1990547,2018 March,8,Strategic development,Taliban,0,0,0,0,20,Southern Asia,Afghanistan,Jowzjan,Mingajik,0,Mingajik,37.0279,66.1282,2,Xinhua General News Service,International,"Detonation: On March 4th, 4 Taliban militants were killed when an IED they were planting exploded prematurely in Mingajik district of Jowzjan province.",4
CON1990551,2018 March,8,Strategic development,Police Forces of Afghanistan (2004-),0,0,0,0,10,Southern Asia,Afghanistan,Khost,Nadir Shah Kot,0,Nadir Shah Kot,33.3066,69.6938,2,Pajhwok Afghan News English,National,"Defusal: On March 5th, Afghan police personnel seized and defused an explosive-laden Humvee, belonging to suspected Taliban militants, in Nadir Shah Kot district of Khost province. Its intended targets were supposedly nearby government buildings.",0
CON1990548,2018 March,8,Strategic development,Military Forces of Afghanistan (2004-),0,0,0,0,10,Southern Asia,Afghanistan,Wardak,Jalrez,0,Ismail Khel,34.4635,68.7171,2,Khaama Press,Subnational,"Defusal: On March 6th, Afghan security forces seized and defused an explosives-laden Humvee belonging to Taliban militants in the Zani Khel area of Jalrez district, Wardak.",0
CON1990553,2018 March,8,Strategic development,Military Forces of Afghanistan (2004-),0,0,0,0,10,Southern Asia,Afghanistan,Khost,Khost,0,Khost,33.3395,69.9204,3,Bakhtar News Agency,National,"Weapons Seizure: As reported on March 7th, a very large shipment of explosives belonging to Haqqani Network militants was intercepted and seized by Afghan security forces in Khost province.",0
CON1990555,2018 March,8,Strategic development,Military Forces of Afghanistan (2004-),0,Unidentified Armed Group (Afghanistan),0,3,13,Southern Asia,Afghanistan,Nangarhar,Mohmand Dara,0,Mohmand Dara,34.2553,70.8657,2,Bakhtar News Agency,National,"Defusal: As reported on March 8th, a suicide bomber was arrested, and his vest defused, during an Afghan military operation in Mohmand Dara district of Nangahar province.",0
CON1990562,2018 March,8,Strategic development,Military Forces of Afghanistan (2004-),0,Unidentified Armed Group (Afghanistan),0,3,13,Southern Asia,Afghanistan,Khost,Musa Khel,0,Zorkot,33.5414,69.7344,1,Khaama Press,Subnational,"Defusal: As reported on March 14th, Afghan military forces seized and defused two explosive-laded vehicles and arrested 6 militants in the Zorkot area of Musa Khel district, Khost. The vehicles were allegedly to be used for coordinated attacks in the province.",0
CON1989806,2018 March,8,Strategic development,Military Forces of Afghanistan (2004-),0,Taliban and/or Islamic State (Afghanistan),0,2,12,Southern Asia,Afghanistan,Khost,Musa Khel,0,Zorkot,33.5414,69.7344,1,Afghan Ministry of Defense,National,"Defusals: On March 13th, Afghan forces defused 2 explosive packed cars as a result of a clearing operation in Zorkot area, Musa Khel district of Khost province.",0
CON1990571,2018 March,8,Strategic development,Military Forces of Afghanistan (2004-),0,Unidentified Armed Group (Afghanistan),0,3,13,Southern Asia,Afghanistan,Nangarhar,Rodat,0,Rodat,34.272,70.5679,2,Pajhwok Afghan News English,National,"Defusal: On March 22nd, Afghan military forces detained and defused an explosive-laden vehicle driven by an unidentified militant in the Rodat district of Nangarhar. The vehicle's target was allegedly a market in Jalalabad.",0
CON1990572,2018 March,8,Strategic development,Taliban,0,0,0,0,20,Southern Asia,Afghanistan,Faryab,Pashtun Kot,0,Sar-e Howz,35.591,64.7767,1,Xinhua General News Service,International,"Detonation: On March 23rd, 10 Taliban militants were killed, and 4 injured, when an IED they were building detonated prematurely in Sar-e Howz village of Pashtun Kot district, Faryab.",10
CON1990578,2018 March,8,Strategic development,Taliban,0,0,0,0,20,Southern Asia,Afghanistan,Farah,Farah,0,Farah,32.3745,62.1164,3,Pajhwok Afghan News English,National,"Property Destruction: On March 25th, Taliban militants set fire to a mobile phone tower in Farah province, disrupting telecom services.",0
CON1990575,2018 March,8,Strategic development,Taliban,0,0,0,0,20,Southern Asia,Afghanistan,Nangarhar,Sherzad,0,Sherzad,34.25,70.01,2,Bakhtar News Agency,National,"Detonation: As reported on March 26th, a Taliban militant was killed, and another injured, after a mine detonated while they were planting it in Sherzad district of Nangarhar.",1
CON1990579,2018 March,8,Strategic development,Military Forces of Afghanistan (2004-),0,0,0,0,10,Southern Asia,Afghanistan,Kabul,Kabul,0,Kabul,34.5167,69.1833,1,Khaama Press,Subnational,"Defusal: As reported on March 30th, Afghan security forces discovered and defused an IED attached to an oil tanker in Kabul city. No group claimed responsibility.",0
CON1990586,2018 April,8,Strategic development,Taliban,0,0,0,0,20,Southern Asia,Afghanistan,Zabul,Shah Joy,0,Shah Joy,32.5215,67.4132,2,Pajhwok Afghan News English,National,"Detonation: On April 1st, 5 Taliban militants were killed when the bomb they were planting on a bridge in Shah Joy district, Zabul, detonated prematurely.",5
CON1990593,2018 April,8,Strategic development,Police Forces of Afghanistan (2004-) National Directorate of Security,0,0,0,0,10,Southern Asia,Afghanistan,Helmand,Lashkargah,0,Lashkargah,31.5938,64.3716,1,Khaama Press,Subnational,"Defusal: As reported on April 4th, Afghan NDS personnel found and defused a motorcycle bomb found parked in the Money Exchangers Market, Lashkargah city.",0
CON1990594,2018 April,8,Strategic development,Taliban,0,0,0,0,20,Southern Asia,Afghanistan,Laghman,Mehtar Lam,0,Mehtar Lam,34.6714,70.2094,3,Khaama Press,Subnational,"Detonation: As reported on April 4th, a local Taliban leader and another militant were killed when an IED they were planting exploded prematurely in Laghman province.",2
CON1990590,2018 April,8,Strategic development,Unidentified Armed Group (Afghanistan),0,Police Forces of Afghanistan (2004-),0,1,13,Southern Asia,Afghanistan,Sar-e Pol,Sar-e Pol,0,Sar-e Pol,36.2154,65.9325,3,BBC Monitoring; National Afghanistan TV,National,"Agreement: As reported on April 5th, recently 45 unidentified militants surrendered their arms in Sar-e Pul province.",0
CON1990600,2018 April,8,Strategic development,Taliban,0,0,0,0,20,Southern Asia,Afghanistan,Urozgan,Chora,0,Chora,32.8472,66.05,2,BBC Monitoring; Paiwastoon Ghag,Subnational,"Non-Violent Activity: As reported on April 7th, Taliban militants closed the road in Chora district between it and Tarinkot city, stopping food and water from entering the district.",0
CON1990601,2018 April,8,Strategic development,Unidentified Armed Group (Afghanistan),0,0,0,0,30,Southern Asia,Afghanistan,Urozgan,Khas Uruzgan,0,Khas Uruzgan,32.9299,66.6891,2,BBC Monitoring; Paiwastoon Ghag,Subnational,"Detonation: As reported on April 7th, 2 unidentified militants were killed, and 3 injured, when a bomb they were planting in Khas Uruzgan district of Urozagan detonated prematurely.",2
CON1990602,2018 April,8,Strategic development,Taliban,0,0,0,0,20,Southern Asia,Afghanistan,Laghman,Alingar,0,Qasabah,34.729,70.2905,1,Khaama Press; Bakhtar News Agency,National,"Detonation: On April 7th, 2 suspected Taliban militants were killed when a motorcycle bomb they were building detonated prematurely in the Qasabah area of Alingar district of Laghman province.",2
CON1990606,2018 April,8,Strategic development,Military Forces of Afghanistan (2004-),0,0,0,0,10,Southern Asia,Afghanistan,Helmand,Lashkargah,0,Lashkargah,31.5938,64.3716,3,Bakhtar News Agency,National,"Weapons Seizure: As reported on April 8th, a large weapons and narcotics cache belonging to the Taliban was discovered and seized during an Afghan military operation in Helmand province. In the cache were dozens of heavy and light weapons, 500kg of explosives, and 400kg of narcotics.",0
CON1990607,2018 April,8,Strategic development,Military Forces of Afghanistan (2004-),0,0,0,0,10,Southern Asia,Afghanistan,Kabul,Kabul,0,Kabul,34.5167,69.1833,1,Khaama Press,National,"Defusal: As reported on April 8th, Afghan security forces found and defused ten kgs of explosives along with an artillery shell and other types of explosives in the Ghaibi Baba Township area of Kabul before they could be detonated by an unidentified armed group.",0
CON1990613,2018 April,8,Strategic development,Islamic State (Afghanistan),0,0,0,0,20,Southern Asia,Afghanistan,Kunar,Chapa Dara,0,Chapa Dara,34.949,70.7822,2,Khaama Press,National,"Detonation: On April 11th, 4 Islamic State militants were killed when a bomb they were planting detonated prematurely.",4
CON1990617,2018 April,8,Strategic development,Unidentified Armed Group (Afghanistan),0,0,0,0,30,Southern Asia,Afghanistan,Logar,Mohammad Agha,0,Mohammad Agha,34.2118,69.0999,2,BBC Monitoring; Radio Bost,Subnational,"Property Destruction: As reported on April 12th, unidentified militants set fire to a girls school in Mohammad Agha district of Logar province.",0
CON1990619,2018 April,8,Strategic development,Taliban,0,0,0,0,20,Southern Asia,Afghanistan,Balkh,Balkh,0,Balkh,36.7564,66.8972,3,BBC Monitoring; Radio Bost,Subnational,"Property Destruction: As reported on April 12th, Taliban militants set fire to a community company's two antennas in Balkh Province.",0
CON1990620,2018 April,8,Strategic development,Taliban,0,0,0,0,20,Southern Asia,Afghanistan,Baghlan,Pul-e Khumri,0,Shahabuddin,36.0353,68.6454,1,Xinhua General News Service,International,"Detonation: On April 13th, 9 Taliban militants were killed, and 5 wounded, when an IED detonated prematurely in the home of a Taliban commander where they were all gathered in the Shahabuddin area of Baghlan province.",9
CON1990629,2018 April,8,Strategic development,Taliban,0,0,0,0,20,Southern Asia,Afghanistan,Kunduz,Imam Sahib,0,Sherkhan Bandar,37.1904,68.6113,1,Xinhua General News Service,International,"Detonation: On April 18th, 2 Taliban militants were killed when a bomb they were planting detonated prematurely in the Sherkhan Bandar area of Kunduz province.",2
CON1990626,2018 April,8,Strategic development,Military Forces of Afghanistan (2004-),0,0,0,0,10,Southern Asia,Afghanistan,Kabul,Chahar Asyab,0,Chahar Asyab,34.4094,69.1573,2,Khaama Press,Subnational,"Defusal: As reported on April 18th, security forces discovered and defused an IED which was attached to a shrine in Chahar Asyab district of Kabul province.",0
CON1990630,2018 April,8,Strategic development,Islamic State (Afghanistan),0,0,0,0,20,Southern Asia,Afghanistan,Faryab,Pashtun Kot,0,Pashtun Kot,35.9202,64.7809,2,BBC Monitoring; Noor TV,Subnational,"Property Destruction: As reported on April 18th, Islamic State militants set fire to several homes in Pashtun Kot district, Faryab province.",0
CON1990631,2018 April,8,Strategic development,Islamic State (Afghanistan),0,0,0,0,20,Southern Asia,Afghanistan,Faryab,Khwaja Sabz Posh,0,Khwaja Sabz Posh,36.06,64.97,2,BBC Monitoring; Noor TV,Subnational,"Property Destruction: As reported on April 18th, Islamic State militants set fire to several homes in Khwaja Sabz Posh district, Faryab province.",0
CON1990638,2018 April,8,Strategic development,Taliban,0,0,0,0,20,Southern Asia,Afghanistan,Logar,Mohammad Agha,0,Ghazni Khel,34.2442,69.1352,1,Xinhua General News Service,International,"Property Destruction: On April 22nd, Taliban militants destroyed three telecommuncation towers in the Ghazni Khel area of Mohammad Agha district, Logar.",0
CON1990641,2018 April,8,Strategic development,Taliban,0,0,0,0,20,Southern Asia,Afghanistan,Badghis,Qala i Naw,0,Qala i Naw,34.9874,63.1289,1,BBC Monitoring; Afghan Islamic Press news agency,National,"Property Destruction: On April 23rd, Taliban militants destroyed a voter registration centre with grenades in the Chakaran area of Qala I Naw city. No casualties were reported.",0
CON1990644,2018 April,8,Strategic development,Taliban,0,0,0,0,20,Southern Asia,Afghanistan,Kabul,Kabul,0,Kabul,34.5167,69.1833,3,Pajhwok Afghan News English,National,"Non-Violent Activity: On April 25th, Taliban leadership announced the launch of their yearly spring offensive codenamed Al Khandaq, which aimed to target Americans and their supporters.",0
CON1990654,2018 May,8,Strategic development,Taliban,0,0,0,0,20,Southern Asia,Afghanistan,Baghlan,Pul-e Khumri,0,Pul-e Khumri,35.9446,68.7151,3,Khaama Press,Subnational,"Detonation: As reported on May 2nd, 2 Taliban militants were killed when a bomb they were planting detonated prematurely in the Imam Qatiba area of Baghlan province.",2
CON1990657,2018 May,8,Strategic development,Unidentified Armed Group (Afghanistan),0,0,0,0,30,Southern Asia,Afghanistan,Takhar,Yangi Qala,0,Yangi Qala,37.4657,69.6113,2,BBC Monitoring; National Afghanistan TV,National,"Property Destruction: As reported on May 3rd, unidentified militants torched the homes of several pro-government militia men in Yangi Qala district of Takhar.",0
CON1990663,2018 May,8,Strategic development,Taliban,0,0,0,0,20,Southern Asia,Afghanistan,Ghazni,Ghazni,0,Ghazni,33.5508,68.4225,3,Pajhwok Afghan News English,National,Property Destruction: Taliban militants destroyed parts of the Ghazni-Paktika highway in Ghazni in order to stop Afghan security forces from easily navigating the area. As a result the road remained closed to civilian traffic as well.,0
CON1990664,2018 May,8,Strategic development,Islamic State (Afghanistan),0,0,0,0,20,Southern Asia,Afghanistan,Nangarhar,Jalalabad,0,Jalalabad,34.4265,70.4515,1,BBC Monitoring; Sedai Khelafat al-Bayan radio,National,"Property Destruction: as reported by Islamic State sources on May 5th, IS militants set fire to a fuel tanker in Jalalabad city, Nangarhar.",0
CON1990670,2018 May,8,Strategic development,Taliban,0,0,0,0,20,Southern Asia,Afghanistan,Ghazni,Andar,0,Miray,33.3246,68.4407,2,Xinhua General News Service,International,"Detonation: on May 7th, at least 11 Taliban militants were killed when an IED they were planting detonated prematurely in Guzara-e-Gilan village of Andar district, Ghazni.",11
CON1990676,2018 May,8,Strategic development,Unidentified Armed Group (Afghanistan),0,0,0,0,30,Southern Asia,Afghanistan,Takhar,Khwaja Ghar,0,Khwaja Ghar,37.0659,69.4213,2,BBC Monitoring; Afghan Islamic Press news agency,National,"Property Destruction: as reported on May 10th, suspected militants set fire to a telecommunication tower in Khwaja Ghar district of Takhar province.",0
CON1990677,2018 May,8,Strategic development,Unidentified Armed Group (Afghanistan),0,0,0,0,30,Southern Asia,Afghanistan,Takhar,Taluqan,0,Taloqan,36.7341,69.5336,1,BBC Monitoring; Afghan Islamic Press news agency,National,"Property Destruction: as reported on May 10th, suspected militants attacked the building of a voter registration centre in Taloqan city. No interactions or casualties reported.",0
CON1990678,2018 May,8,Strategic development,Unidentified Armed Group (Afghanistan),0,0,0,0,30,Southern Asia,Afghanistan,Takhar,Bangi,0,Bangi,36.6155,69.3395,2,BBC Monitoring; Afghan Islamic Press news agency,National,"Property Destruction: as reported on May 10th, suspected militants attacked the building of a construction company in Bangi district, Takhar. No interactions or casualties reported.",0
CON1990680,2018 May,8,Strategic development,Taliban,0,0,0,0,20,Southern Asia,Afghanistan,Balkh,Chimtal,0,Chimtal,36.6782,66.8033,2,Bakhtar News Agency,National,"Detonation: On May 11th, a Taliban militant was killed when the mine he was planting detonated prematurely.",1
CON1989545,2018 May,8,Strategic development,Taliban,0,0,0,0,20,Southern Asia,Afghanistan,Paktia,Ahmadabad,0,Ahmadabad,33.7752,69.3395,2,Khaama Press,Subnational,"Detonation: on May 12th, 4 Taliban militants were killed when an IED they were planting detonated prematurely in the Malang Dand area of Ahmadabad district, Paktia.",4
CON1989562,2018 May,8,Strategic development,Taliban,0,0,0,0,20,Southern Asia,Afghanistan,Sar-e Pol,Sozma Qala,0,Sozma Qala,36.0992,66.2082,2,Pajhwok Afghan News English,National,"Property Destruction: On May 23rd, Taliban militants cut telecom services to the Sozma Qala district of Sara-e Pol province.",0
CON1989563,2018 May,8,Strategic development,Unidentified Armed Group (Afghanistan),0,0,0,0,30,Southern Asia,Afghanistan,Kabul,Kabul,0,Kabul,34.5167,69.1833,1,Pajhwok Afghan News English,National,"Property Destruction: On May 26th, a grenade was thrown into a building in Kabul, damaging it but causing no casualties. A local claimed the building was a voter registration centre, although the police denied that. No reports of people being present at the time of the attack.",0
CON1989568,2018 May,8,Strategic development,Police Forces of Afghanistan (2004-),0,Unidentified Armed Group (Afghanistan),0,3,13,Southern Asia,Afghanistan,Nangarhar,Mohmand Dara,0,Torkham,34.1233,71.0937,1,Khaama Press,Subnational,"Weapons Seizure: As reported on May 27th, a Pakistani truck containing 9800 kgs of explosives was seized by the border police forces in Torkham, Nangarhar.",0
CON1989569,2018 May,8,Strategic development,Unidentified Armed Group (Afghanistan),0,0,0,0,30,Southern Asia,Afghanistan,Logar,Pul i Alam,0,Puli Alam,33.9953,69.0227,1,Bakhtar News Agency,National,"Property Destruction: May 27th, a Salam communication antenna was destroyed by unidentified militants in Joma village within Puli Alam city, Logar.",0
CON1989576,2018 June,8,Strategic development,Taliban and/or Islamic State (Afghanistan),0,0,0,0,20,Southern Asia,Afghanistan,Badghis,Qala i Naw,0,Qala i Naw,34.9874,63.1289,3,BBC Monitoring; National Afghanistan TV,National-International,"Agreement: 25 suspected Taliban and/or IS militants surrendered to the peace process in Badghis Province, as reported on June 1.",0
CON1989578,2018 June,8,Strategic development,Police Forces of Afghanistan (2004-),0,0,0,0,10,Southern Asia,Afghanistan,Nangarhar,Jalalabad,0,Jalalabad,34.4265,70.4515,3,Bakhtar News Agency,National,"Defusal: Afghan security forces (assumed police) discovered and defused 6 rounds of mines from crowded areas of Nangarhar Province, as reported on June 2.",0
CON1989579,2018 June,8,Strategic development,Police Forces of Afghanistan (2004-),0,0,0,0,10,Southern Asia,Afghanistan,Nangarhar,Jalalabad,0,Jalalabad,34.4265,70.4515,3,Bakhtar News Agency,National,"Defusal: Afghan security forces (assumed police) discovered and defused 5 rounds of mines from crowded areas of Nangarhar Province, as reported on June 3.",0
CON1989580,2018 June,8,Strategic development,Police Forces of Afghanistan (2004-),0,0,0,0,10,Southern Asia,Afghanistan,Urozgan,Tarinkot,0,Tarinkot,32.6268,65.8733,3,Bakhtar News Agency,National,"Defusal: Afghan security forces (assumed police) discovered and defused 6 rounds of mines from different parts of Urozgan Province, as reported on June 3.",0
CON1989581,2018 June,8,Strategic development,Police Forces of Afghanistan (2004-),0,0,0,0,10,Southern Asia,Afghanistan,Nuristan,Parun,0,Parun,35.4206,70.9226,3,Bakhtar News Agency,National,"Defusal: Afghan security forces (assumed police) discovered and defused 4 mines from busy roads of Nuristna Province, as reported on June 3. They blamed the Taliban for the mines.",0
CON1989583,2018 June,8,Strategic development,Taliban,0,0,0,0,20,Southern Asia,Afghanistan,Herat,Shindand,0,Shindand,33.3029,62.1474,2,Pajhwok Afghan News,National,"Detonation: 2 Taliban fighters were accidentally killed while planting a mine in Shindand District, Herat Province on June 4.",2
CON1989584,2018 June,8,Strategic development,Police Forces of Afghanistan (2004-),0,0,0,0,10,Southern Asia,Afghanistan,Nangarhar,Jalalabad,0,Jalalabad,34.4265,70.4515,3,Bakhtar News Agency,National,"Defusal: Afghan security forces (assumed police) discovered and defused 9 rounds of mines in Nangarhar Province, as reported on June 5.",0
CON1989586,2018 June,8,Strategic development,Police Forces of Afghanistan (2004-),0,0,0,0,10,Southern Asia,Afghanistan,Kandahar,Kandahar,0,Kandahar,31.6133,65.7101,3,Bakhtar News Agency,National,"Defusal: Afghan military forces detected and defused 5 mines from crowded areas of Kandahar Province, as reported on June 6.",0
CON1989587,2018 June,8,Strategic development,Police Forces of Afghanistan (2004-),0,0,0,0,10,Southern Asia,Afghanistan,Urozgan,Tarinkot,0,Tarinkot,32.6268,65.8733,3,Bakhtar News Agency,National,"Defusal: Afghan military forces detected and defused 6 mines from the main roads of Urozgan Province, as reported on June 6.",0
CON1989598,2018 June,8,Strategic development,Taliban and/or Islamic State (Afghanistan),0,0,0,0,20,Southern Asia,Afghanistan,Kandahar,Kandahar,0,Kandahar,31.6133,65.7101,3,BBC Monitoring; Afghanistan Television,National-International,"Detonation: 1 suspected Taliban or IS militant was killed and another wounded in an explosion (assumed accidental) in Kandahar Province, as reported on June 7.",1
CON1989588,2018 June,8,Strategic development,Government of Afghanistan (2004-),0,Taliban,0,2,12,Southern Asia,Afghanistan,Kabul,Kabul,0,Kabul,34.5167,69.1833,1,Agence France Presse,International,"Agreement: The Government of Afghanistan announced a unilateral ceasefire with the Taliban for Eid, the end of Ramadan, on June 7. The ceasefire is expected to last June 12-19. The Taliban agreed to join the Afghan government in a temporary ceasefire for the Eid holiday to celebrate the end of Ramadan on June 9, 2 days after the government unilaterally announced a ceasefire. While the government announced a week-long ceasefire, the Taliban agreed to only 3 days and refused to include foreign forces. This was the first Taliban ceasefire since the 2001 US invasion. A Taliban splinter group, High Council of Islamic Emirate of Afghanistan (HCIEA), also announced a ceasefire on June 9 and did not specify an end date.",0
CON1989590,2018 June,8,Strategic development,Military Forces of Afghanistan (2004-),0,0,0,0,10,Southern Asia,Afghanistan,Nangarhar,Jalalabad,0,Jalalabad,34.4265,70.4515,3,Bakhtar News Agency,National,Defusal: Afghan security forces (assumed military) discover and defuse 6 rounds of mines in Nangarhar.,0
CON1989592,2018 June,8,Strategic development,Police Forces of Afghanistan (2004-),0,0,0,0,10,Southern Asia,Afghanistan,Kunar,Asadabad,0,Asadabad,34.8731,71.147,3,Bakhtar News Agency,National,"Defusal: Afghan security officials (assumed police) detected and defused 6 mines from busy roads in Kunar Province, as reported on June 9.",0
CON1989593,2018 June,8,Strategic development,Police Forces of Afghanistan (2004-),0,0,0,0,10,Southern Asia,Afghanistan,Nangarhar,Jalalabad,0,Jalalabad,34.4265,70.4515,3,Bakhtar News Agency,National,"Defusal: Afghan security officials (assumed police) detected and defused 6 mines from crowded areas of Nangarhar Province, as reported on June 9.",0
CON1989599,2018 June,8,Strategic development,Police Forces of Afghanistan (2004-),0,Unidentified Armed Group (Afghanistan),0,3,13,Southern Asia,Afghanistan,Baghlan,Pul-e Khumri,0,Pul-e Khumri,35.9446,68.7151,1,BBC Monitoring; Afghan Islamic Press,National-International,Weapons seizure: Police seized a car with over 200kg of explosives in Pul-e Khumri City on the night of June 9. They also arrested 2 unidentified suspects related to the car.,0
CON1989600,2018 June,8,Strategic development,Military Forces of Afghanistan (2004-),0,0,0,0,10,Southern Asia,Afghanistan,Ghazni,Ghazni,0,Ghazni,33.5508,68.4225,3,Bakhtar News Agency,National,"Defusal: Afghan army forces discovered and defused 14 mines in Ghazni Province, as reported on June 10.",0
CON1989601,2018 June,8,Strategic development,Police Forces of Afghanistan (2004-),0,0,0,0,10,Southern Asia,Afghanistan,Nangarhar,Mohmand Dara,0,Gerdai,34.2363,70.9733,2,Bakhtar News Agency,National,"Defusal: Afghan security forces (assumed police) discovered and defused 14 mines in the Gerdai region of Mohmand Dara District, Nangarhar Province, as reported on June 10.",0
CON1989604,2018 June,8,Strategic development,Police Forces of Afghanistan (2004-),0,0,0,0,10,Southern Asia,Afghanistan,Kandahar,Kandahar,0,Kandahar,31.6133,65.7101,3,Bakhtar News Agency,National,"Defusal: Afghan security forces (assumed police) discovered and defused 4 mines from crowded areas in Kandahar Province, as reported on June 10.",0
CON1989607,2018 June,8,Strategic development,Police Forces of Afghanistan (2004-),0,0,0,0,10,Southern Asia,Afghanistan,Nangarhar,Jalalabad,0,Jalalabad,34.4265,70.4515,3,Bakhtar News Agency,National,"Defusal: Afghan security forces (assumed police) discovered and defused 6 mines in Nangarhar Province, as reported on June 11.",0
CON1989610,2018 June,8,Strategic development,Unidentified Armed Group (Afghanistan),0,0,0,0,30,Southern Asia,Afghanistan,Kabul,Kabul,0,Kabul,34.5167,69.1833,1,BBC Monitoring; Ariana TV; Khaama Press,National-International,Detonation: An unclaimed bomb blast inside a house in the Zorabad area of Kabul City killed 2-3 people and wounded 2-3 others on the morning of June 11. It is believed that the blast occurred when someone was trying to make a bomb.,2
CON1989614,2018 June,8,Strategic development,Police Forces of Afghanistan (2004-),0,0,0,0,10,Southern Asia,Afghanistan,Nangarhar,Jalalabad,0,Jalalabad,34.4265,70.4515,3,Bakhtar News Agency,National,"Defusal: Afghan security forces (assumed police) discovered and defused 5 rounds of mines in Nangarhar Province, as reported on June 14.",0
CON1989615,2018 June,8,Strategic development,Police Forces of Afghanistan (2004-),0,0,0,0,10,Southern Asia,Afghanistan,Kunar,Asadabad,0,Asadabad,34.8731,71.147,3,Bakhtar News Agency,National,"Defusal: Security forces discovered and defused 5 rounds of mines from crowded areas of Kunar Province, as reported on June 13.",0
CON1989616,2018 June,8,Strategic development,Government of Afghanistan (2004-),0,Taliban,0,2,12,Southern Asia,Afghanistan,Kabul,Kabul,0,Kabul,34.5167,69.1833,1,BBC Monitoring; Afghan Islamic Press,National-International,Agreement: The Government of Afghanistan agreed to extend the previously-temporary ceasefire with the Taliban on June 16. It was originally scheduled to end June 19.,0
CON1989619,2018 June,8,Strategic development,Taliban,0,0,0,0,20,Southern Asia,Afghanistan,Faryab,Khwaja Sabz Posh,0,Khwaja Sabz Posh,36.06,64.97,2,BBC Monitoring; Afghan Islamic Press,National-International,"Movement of forces: Taliban militants besieged Khwaja Sabz Posh District in Faryab Province, repoted on June 22. They had surrounded the area with security forces inside and blocked off supply routes from Maymana and Shirin Tagab.",0
CON1989661,2018 June,8,Strategic development,Police Forces of Afghanistan (2004-),0,Taliban,0,2,12,Southern Asia,Afghanistan,Balkh,Kishindih,0,Kishindih,36.0824,66.8408,2,Pajhwok Afghan News English,National,"Arrests: The Taliban shadow district chief for Dara i Sufi Payan District, Samangan Province was arrested by Afghan police in Kishindih District, Balkh Province, on the night of June 27. His bodyguard was also detained.",0
CON1989662,2018 June,8,Strategic development,Taliban,0,0,0,0,20,Southern Asia,Afghanistan,Ghazni,Ghazni,0,Shahbaz,33.306,68.4907,1,Pajhwok Afghan News English,National,"Detonation: 6 Taliban were killed when the landmine they were planting along the Kabul-Kandahar highway accidentally detonated in the Shahbaz locality, Ghazni District/Province, as reported on June 27.",6
CON1989671,2018 June,8,Strategic development,Taliban,0,0,0,0,20,Southern Asia,Afghanistan,Wardak,Jalrez,0,Jalrez,34.4708,68.6544,2,Khaama Press,National,"Detonation: 3 Taliban militants were killed and 2 were wounded when their vehicle hit a roadside mine likely planted by their own forces in Jalrez District, Wardak Province, as reported on June 30.",3
CON1989680,2018 July,8,Strategic development,Taliban,0,Military Forces of Afghanistan (2004-),0,1,12,Southern Asia,Afghanistan,Jowzjan,Darzab,0,Darzab,35.9774,65.3783,2,BBC Monitoring; Afghan Islamic Press,National-International,"Movement of forces: Taliban fighters have surrounded and besieged around 120 soldiers in Darzab District, Jowzjan Province, on or before July 1. Helicopters had to fly in supplies to the besieged soldiers.",0
CON1989684,2018 July,8,Strategic development,Taliban,0,Military Forces of Afghanistan (2004-),0,1,12,Southern Asia,Afghanistan,Badakhshan,Kohistan,0,Kohistan,37.4212,70.6563,2,BBC Monitoring; Afghan Islamic Press,National-International,"Movement of forces: Taliban fighters have surrounded and besieged around 190 soldiers in Kohistan District, Faryab Province, as reported on July 2.",0
CON1989706,2018 July,8,Strategic development,Taliban,0,0,0,0,20,Southern Asia,Afghanistan,Herat,Kushki Kuhna,0,Kushki Kuhna,34.8714,62.5483,2,Pajhwok Afghan News English; Xinhua General News Service,National-International,"Detonation: 2-3 Taliban militants were accidentally blown up by their own bomb in the Kushki Kuhna District, Herat Province on the night of July 7.",2
CON1989716,2018 July,8,Strategic development,Taliban,0,0,0,0,20,Southern Asia,Afghanistan,Helmand,Sangin,0,Sangin,32.0728,64.8359,2,Pajhwok Afghan News English,National,"Detonation: 2 Taliban militants were killed while planting landmines in the 5th Block area of Sangin District, Helmand Province on the night of July 9.",2
CON1989720,2018 July,8,Strategic development,Taliban,0,0,0,0,20,Southern Asia,Afghanistan,Kunduz,Kunduz,0,Kunduz,36.729,68.857,1,Khaama Press,National,"Detonation: A key Taliban commander, Hanzala, was accidentally killed by his own explosive in the Zarkharid area of Kunduz City, as reported on July 10.",1
CON1989722,2018 July,8,Strategic development,Taliban,0,0,0,0,20,Southern Asia,Afghanistan,Nangarhar,Jalalabad,0,Jalalabad,34.4265,70.4515,3,Bakhtar News Agency,National,"Detonation: A senior Taliban commander was killed in an accidental detonation of his own mine and 3 others were injured in Nangarhar Province, as reported on July 10.",1
CON1989743,2018 July,8,Strategic development,Police Forces of Afghanistan (2004-),0,Taliban,0,2,12,Southern Asia,Afghanistan,Paktia,Zurmat,0,Zurmat,33.4378,69.0277,2,Afghan Ministry of Defense,National,"Arrests: 55 suspected Taliban militants were arrested in Zurmat District, Paktia Province, over 24 hours, as reported on July 14.",0
CON1989746,2018 July,8,Strategic development,Military Forces of Afghanistan (2004-),0,Taliban,0,2,12,Southern Asia,Afghanistan,Kabul,Khak-e Jabbar,0,Khak-e Jabbar,34.4018,69.5041,2,BBC Monitoring; Voice of Sharia,National-International,"Change to armed group: The Taliban reported that 27 government soldiers defected to the Taliban in the Khak-e-Jabbar District of Kabul province, as reported on July 14.",0
CON1989747,2018 July,8,Strategic development,Taliban,0,0,0,0,20,Southern Asia,Afghanistan,Logar,Pul i Alam,0,Puli Alam,33.9953,69.0227,3,BBC Monitoring; National Afghanistan TV,National,"Property destruction: The Ministry of Education reports that suspected Taliban insurgents torched two schools in Logar Province, as reported on July 14.",0
CON1989748,2018 July,8,Strategic development,Unidentified Armed Group (Afghanistan),0,0,0,0,30,Southern Asia,Afghanistan,Nangarhar,Bati Kot,0,Bati Kot,34.2435,70.7285,2,Bakhtar News Agency,National,"Property destruction: A group of unidentified gunmen set a school building on fire in Bati Kot District, Nangarhar Province on the night of July 14. It is the fourth school to be torched in the last month.",0
CON1989765,2018 July,8,Strategic development,Unidentified Armed Group (Afghanistan),0,0,0,0,30,Southern Asia,Afghanistan,Nangarhar,Jalalabad,0,Jalalabad,34.4265,70.4515,3,BBC Monitoring; Radio Bost,National-International,"Property destruction: Unidentified individuals set fire to a school in Khogyani Dsitrict, Nangarhar Province, as reported on July 19.",0
CON1989769,2018 July,8,Strategic development,Taliban,0,0,0,0,20,Southern Asia,Afghanistan,Takhar,Dashti Qala,0,Dashti Qala,37.2216,69.4975,2,BBC Monitoring; Afghan Islamic Press,National-International,"Looting: Taliban militants invaded the commissioner's office at Ai-Khanum Port, Dashti Qala District, Takhar Province, on the night of July 20. They met no resistance and seized all equipment.",0
CON1989785,2018 July,8,Strategic development,Taliban,0,0,0,0,20,Southern Asia,Afghanistan,Ghazni,Qarabagh,0,Qarabagh,33.198,68.108,1,BBC Monitoring; Afghan Channel One (1TV),National,"Movement of forces: Taliban militants reportedly besieged Qarabagh district centre in Ghazni Province, as reported on July 24.",0
CON1989789,2018 July,8,Strategic development,Taliban,0,0,0,0,20,Southern Asia,Afghanistan,Logar,Pul i Alam,0,Puli Alam,33.9953,69.0227,3,BBC Monitoring; National Afghanistan TV,National,"Detonation: 10 Taliban militants were killed in Logar Province when their own mine accidentally went off, as reported on July 24.",10
CON1989793,2018 July,8,Strategic development,Police Forces of Afghanistan (2004-),0,Taliban,0,2,12,Southern Asia,Afghanistan,Panjshir,Bazarak,0,Bazarak,35.3129,69.5152,3,Live UA Map; Khaama Press,Other-National,Arrests: Afghan security forces arrested the Taliban shadow governor for Panjshir Province on the night of July 24. He was arrested in the Aabshar area.,0
CON1989800,2018 July,8,Strategic development,Taliban,0,0,0,0,20,Southern Asia,Afghanistan,Nangarhar,Shinwar,0,Shinwar,34.1959,70.8318,2,Pajhwok Afghan News English,National,"Detonation: A Taliban fighter was killed when his own bomb prematuraly exploded in Shinwar District, Nangarhar Province, as reported on July 27.",1
CON1989812,2018 July,8,Strategic development,Taliban,0,0,0,0,20,Southern Asia,Afghanistan,Kunduz,Archi,0,Archi,37.0704,69.2984,2,Bakhtar News Agency,National,"Detonation: 5 Taliban fighters were killed and 3 were wounded following an accidental explosion of their own mine blasts in the Pul Momin region of Archi District, Kunduz Province on July 29.",5
CON1989817,2018 July,8,Strategic development,Islamic State (Afghanistan),0,Military Forces of Afghanistan (2004-),0,1,12,Southern Asia,Afghanistan,Jowzjan,Darzab,0,Darzab,35.9774,65.3783,2,BBC Monitoring; Afghan Islamic Press; Agence France Presse; Bakhtar News Agency; Live Map; Twitter,National-International,"Agreement: 26-40 IS militants surrendered to Afghan military officials in Darzab District, Jowzjan Province on July 30. This follows weeks of heavy clashes between IS and the Taliban in this area in which the Taliban claimed killing 153 IS, wounding more than 100, and capturing 130 (coded in previous events).",0
CON1989827,2018 August,8,Strategic development,Islamic State (Afghanistan),0,Military Forces of Afghanistan (2004-),0,1,12,Southern Asia,Afghanistan,Jowzjan,Darzab,0,Darzab,35.9774,65.3783,2,BBC Monitoring; Afghan Islamic Press; Agence France Presse; Bakhtar News Agency; Khaama Press,National-International,"Agreement: An Islamic State commander along with 100-175 of his followers, including 30 women and children, surrendered to Afghan military officials in Darzab District, Jowzjan Province on the morning of Aug 1. This follows weeks of heavy clashes between IS and the Taliban in this area in which the Taliban claimed killing 153 IS, wounding more than 100, and capturing 130 (coded in previous events).",0
CON1989828,2018 August,8,Strategic development,Military Forces of Afghanistan (2004-),Police Forces of Afghanistan (2004-) Special Forces,0,0,0,10,Southern Asia,Afghanistan,Nangarhar,Jalalabad,0,Jalalabad,34.4265,70.4515,1,Agence France Presse; Khaama Press,National,Movement of forces: The Afghan army and police special forces took over security (from police) of Jalalabad City on Aug 1 following a number of lethal attacks against government and civilian targets (mostly by IS) in the city over the previous few weeks. They set up extra checkpoints and conducted anti-militant operations.,0
CON1989839,2018 August,8,Strategic development,Taliban,0,0,0,0,20,Southern Asia,Afghanistan,Helmand,Garmsir,0,Garmsir,31.1167,64.2,2,Bakhtar News Agency,National,"Detonation: On 07-August-2018 it was reported that a Taliban commander and 2 family members were killed and 10 additional relatives were injured in a premature detonation of an IED in the Shamal area of Garmser district, Helmand province.",3
CON1989840,2018 August,8,Strategic development,Taliban,0,0,0,0,20,Southern Asia,Afghanistan,Ghazni,Ghazni,0,Ghazni,33.5508,68.4225,1,Khaama Press,National,"Detonation: On 08-August-2018 5 Taliban militants were killed in an accidental explosion while moving explosives by car in Ghazni city, Ghazni district, Ghazni province.",5
CON1989842,2018 August,8,Strategic development,Taliban,0,0,0,0,20,Southern Asia,Afghanistan,Kapisa,Tagab,0,Tagab,34.855,69.6492,2,Bakhtar News Agency,National,"Detonation: On 11-August-2018 3 Taliban insurgents were killed in an explosion by a mine they were transferring in the Adizi area of Tagab district, Kapisa province.",3
CON1989847,2018 August,8,Strategic development,Military Forces of Afghanistan (2004-),0,0,0,0,10,Southern Asia,Afghanistan,Paktia,Gardez,0,Gardez,33.5974,69.2259,1,Tolo News Twitter Account,Other,"Defusal: On 15-August-2018 Afghan Security Forces seized a truck carrying explosives and defused the devices in Gardez city, Gardez district, Gardz province.",0
CON1989852,2018 August,8,Strategic development,Police Forces of Afghanistan (2004-),Military Forces of Afghanistan (2004-),Taliban,0,2,12,Southern Asia,Afghanistan,Paktika,Waza Khwa,0,Waza Khwa,32.0874,68.3772,2,BBC Monitoring; Voice of Jihad,Subnational,Change to armed group: On 16-August-2018 it was reported that 25 Afghan police officers and soldiers defected to the Taliban in the Waza Khwa district of Paktika province.,0
CON1989857,2018 August,8,Strategic development,Islamic State (Afghanistan),0,0,0,0,20,Southern Asia,Afghanistan,Nangarhar,Jalalabad,0,Jalalabad,34.4265,70.4515,1,BBC Monitoring; Shamshad TV; 1TVNews,National,Detonation: on 19-August-2018 an Islamic State suicide bomber accidentally detonated himself in a religious school in Jalalabad province while hiding from NDS officials. 4 other IS militants were arrested after the event.,1
CON1989858,2018 August,8,Strategic development,Unidentified Armed Group (Afghanistan),0,0,0,0,30,Southern Asia,Afghanistan,Faryab,Pashtun Kot,0,Pashtun Kot,35.9202,64.7809,2,Bakhtar News Agency,National,"Detonation: On 22-August-2018 it was reported that 4 unidentified armed militants were killed while trying to plant mines in the Qazal Qoul region of Pashtun Kot district, Faryab province.",4
CON1989861,2018 August,8,Strategic development,Taliban,0,Civilians (Afghanistan),Refugees/IDPs (Afghanistan),7,27,Southern Asia,Afghanistan,Badakhshan,Arghanj Khwa,0,Arghanj Khwa,37.2662,70.8215,2,Xinhua General News Service,International,"Displacement: On 26-August-2018, it was reported that 600 families were displaced from their homes by Taliban militants in the Arghanj Khwa district, Badakshan province.",0
CON1989864,2018 August,8,Strategic development,Taliban,0,0,0,0,20,Southern Asia,Afghanistan,Urozgan,Tarinkot,0,Tarinkot,32.6268,65.8733,1,Xinhua General News Service,International,"Property destruction: On 29-August-2018, Taliban militants destroyed a key bridge in Tarinkot city, Urozgan province.",0
CON1989866,2018 September,8,Strategic development,Unidentified Armed Group (Afghanistan),0,0,0,0,30,Southern Asia,Afghanistan,Paktika,Sharana,0,Sharan,33.1757,68.7304,1,BBC Monitoring; Shamshad TV,Subnational,"Property destruction: On 03-September-2018, it was reported that 2 schools were damaged by mines that were planted by unidentified armed militants in Sharan city, Sharana district, Paktika province.",0
CON1989867,2018 September,8,Strategic development,Taliban,0,0,0,0,20,Southern Asia,Afghanistan,Urozgan,Deh Rahwod,0,Deh Rahwod,32.6232,65.4579,2,Bakhtar News Agency,National,"Detonation: On 04-September-2018, 3 Taliban militants were killed when a mine that they were planting exploded in the Deh Rahwood district of Urozgan province.",3
CON1989868,2018 September,8,Strategic development,Taliban,0,0,0,0,20,Southern Asia,Afghanistan,Laghman,Alishing,0,Alishing,34.7038,70.1537,2,Bakhtar News Agency,National,"Detonation: On 07-September-2018, 3 Taliban militants were killed when a mine that they were planting exploded in Alishing district, Laghman province.",3
CON1989871,2018 September,8,Strategic development,Military Forces of Afghanistan (2004-),0,HQN: Haqqani Network,0,2,12,Southern Asia,Afghanistan,Paktika,Urgun,0,Urgun,32.9411,69.18,2,Bakhtar News Agency,National,"Weapons seizure: On 13-September-2018, it was reported tht Afghan Security Forces seized a large shipment of explosive materials that were transferred from Pakistan by members of the Haqqani Network in Urgun district, Paktika province. 2 militants were arrested.",0
CON1882428,2018 September,8,Strategic development,Police Forces of Afghanistan (2004-) National Directorate of Security,0,Civilians (Afghanistan),Islamic State (Afghanistan),7,17,Southern Asia,Afghanistan,Kabul,Kabul,0,Kabul,34.5167,69.1833,1,Associated Press International,International,"Arrests: On 18-September-2018, 26 suspected Islamic State militants were arrested by National Directorate of Security officers in Kabul city, Kabul district, Kabul province.",0
CON1882474,2018 September,8,Strategic development,Taliban,0,0,0,0,20,Southern Asia,Afghanistan,Kandahar,Maywand,0,Maywand,31.7333,65.1333,2,BBC Monitoring; Paiwastoon Ghag,Subnational,"Detonation: As reported on 20-September-2018, 3 Taliban militants were killed in an explosion from a mine they were planting in the Maywand district of Kandahar province.",3
CON1889716,2018 October,8,Strategic development,Taliban,0,0,0,0,20,Southern Asia,Afghanistan,Ghazni,Qarabagh,0,Mushakai,33.2376,68.2109,1,Bakhtar News Agency,National,"Detonation: On 08-October-2018, it was reported that 16 Taliban militants were killed by their own mines which exploded in the Mushakai village of Qarabagh district, Ghazni province.",16
CON1889745,2018 October,8,Strategic development,Military Forces of Afghanistan (2004-),Police Forces of Afghanistan (2004-) Afghan Local Police,Taliban,0,2,12,Southern Asia,Afghanistan,Baghlan,Pul-e Khumri,0,Pul-e Khumri,35.9446,68.7151,2,UA Live Map; Twitter,International,"Agreement: Dozens of Afghan soldiers and ALP members surrendered to the Taliban in Pul-e Khumri district, Baghlan province, as reported on Oct 9. A lack of salary payments may have prompted the switch.",0
CON1889747,2018 October,8,Strategic development,Taliban,0,0,0,0,20,Southern Asia,Afghanistan,Farah,Pusht Rod,0,Pusht Rod,32.4878,62.0576,2,Khaama Press,National,"Detonation: On 09-October-2018, it was reported that 5 Taliban militants were killed by an IED that prematurely exploded in Nehal Dasht village, Pusht Rod district, Farah province.",5
CON1889750,2018 October,8,Strategic development,Police Forces of Afghanistan (2004-) Special Forces,0,0,0,0,10,Southern Asia,Afghanistan,Sar-e Pol,Sar-e Pol,0,Sar-e Pol,36.2154,65.9325,1,BBC Monitoring; Afghan Islamic Press; Bakhtar News Agency,National,"Defusal: Police special forces discovered and seized a vehicle filled with 300-500kg of explosives to be used in bombings potentially on election day in Sar-e-Pol city, Sar-e-Pol province on Oct 9.",0
CON1889760,2018 October,8,Strategic development,Taliban,0,Military Forces of Afghanistan (2004-),0,1,12,Southern Asia,Afghanistan,Nangarhar,Bati Kot,0,Bati Kot,34.2435,70.7285,2,BBC Monitoring; Tolo News; Shamshad TV,National,"Agreement: 75 Taliban militants renounced violence and joined the peace process in Bati Kot district, Nangarhar province, as reported on Oct 10.",0
CON1889785,2018 October,8,Strategic development,Unidentified Armed Group (Afghanistan),0,0,0,0,30,Southern Asia,Afghanistan,Paktia,Zurmat,0,Zurmat,33.4378,69.0277,2,Bakhtar News Agency,National,"Detonation: 2 unidentified mine planters were killed by their own explosives while planting roadside bombs along the main road in Zurmat district, Paktia province on the night of Oct 10.",2
CON1889828,2018 October,8,Strategic development,Islamic State (Afghanistan),0,0,0,0,20,Southern Asia,Afghanistan,Kunar,Chawkay,0,Chawkay,34.6925,70.9264,2,Pajhwok Afghan News English; Xinhua General News Service,National-International,"Detonation: on Oct 13, at least 2 IS mine planters were killed when their own bomb went off prematurely in Chawkai district of Kunar province.",2
CON1889832,2018 October,8,Strategic development,Taliban,0,0,0,0,20,Southern Asia,Afghanistan,Baghlan,Pul-e Khumri,0,Pul-e Khumri,35.9446,68.7151,2,Pajhwok Afghan News English,National,"Detonation: on Oct 13, 9 Taliban militants were killed when a mine they were planting detonated prematurely in the Qala-I Naw area outside of Pul-e Khumri city, Baghlan.",9
CON1897627,2018 October,8,Strategic development,Unidentified Armed Group (Afghanistan),0,0,0,0,30,Southern Asia,Afghanistan,Logar,Mohammad Agha,0,Pul-e Qandahari,34.2236,69.1151,1,Pajhwok Afghan News English,National,"Property seizure/destruction: On 13-October-2018, unidentified armed militants burned down the campaign office of Wolsei Jirga candidate Khitab Durrani in the Pul-e Qandahari area of Mohammad Agha district, Logar province.",0
CON1893213,2018 October,8,Strategic development,Taliban,0,0,0,0,20,Southern Asia,Afghanistan,Baghlan,Pul-e Khumri,0,Chashmah-ye Sher,36.0666,68.5902,1,Bakhtar News Agency,National,"Detonation: On 14-October-2018, 10 Taliban militants were killed and 1 wounded when the explosives they were planting detonated prematurely on the Pul-e Khomri -Samangan highway in the Chashmah-ye Sher area of Pul-e Khumri district, Baghlan province.",10
CON1893284,2018 October,8,Strategic development,Taliban,0,Civilians (Afghanistan),Government of Afghanistan (2004-),7,27,Southern Asia,Afghanistan,Ghor,Charsadda,0,Qal-e Zubayd,34.9145,65.2884,2,Khaleej Times; Voice of Jihad,National,"Non-violent activity: On 20-October-2018, Taliban militants forcefully shut down the election center in Charsadda district, Ghor province. No attacks or casualties were reported.",0
CON1893290,2018 October,8,Strategic development,Taliban,0,0,0,0,20,Southern Asia,Afghanistan,Kunduz,Kunduz,0,Kunduz,36.729,68.857,1,Sky News,International,"Property destruction: on 20-October-2018, Taliban militants ransacked polling stations in Kunduz province. No casualties reported.",0
CON1947838,2018 October,8,Strategic development,Taliban,0,0,0,0,20,Southern Asia,Afghanistan,Wardak,Maidan Shar,0,Maidan Shar,34.3956,68.8662,3,Khaleej Times; Voice of Jihad,National,"Non-violent activity: On 20-October-2018, Taliban militants blocked off several roads in Wardak to prohibit voters from reaching election centers.",0
CON1893295,2018 October,8,Strategic development,Taliban,0,Civilians (Afghanistan),Government of Afghanistan (2004-),7,27,Southern Asia,Afghanistan,Herat,Pashtun Zarghun,0,Pashtun Zarghun,34.2989,62.63,2,Khaleej Times; Voice of Jihad,National,"Non-violent activity: On 20-October-2018, Taliban militants forcefully shut down election centers in the Chwachi, Kandoz, and Dasht Naizon areas of Pashtun Zarghun district, Herat province. No attacks or casualties were reported.",0
CON1893297,2018 October,8,Strategic development,Unidentified Armed Group (Afghanistan),0,0,0,0,30,Southern Asia,Afghanistan,Herat,Shindand,0,Shindand,33.3029,62.1474,2,BBC Monitoring; Afghan Islamic Press news agency,Regional,"Detonation: On 20-Ocotber-2018, it was reported that 2 unidentified armed militants were killed when a roadside bomb they were planting exploded in the Jebr Abad area of Shindand district, Herat province.",2
CON1893299,2018 October,8,Strategic development,Taliban,0,Civilians (Afghanistan),Government of Afghanistan (2004-),7,27,Southern Asia,Afghanistan,Ghor,Taywara,0,Taywara,33.5212,64.4212,2,Khaleej Times; Voice of Jihad,National,"Non-violent activity: On 20-October-2018, Taliban militants forcefully shut down the election center in Taywara district, Ghor province. No attacks or casualties were reported.",0
CON1897921,2018 October,8,Strategic development,Taliban,0,0,0,0,20,Southern Asia,Afghanistan,Herat,Hirat,0,Herat,34.3482,62.1997,3,Bakhtar News Agency,National,"Detonation: On 22-October-2018, it was reported that 4 Taliban militants were killed and 5 others were wounded by their own mine blast in Herat province.",4
CON1897925,2018 October,8,Strategic development,Taliban,0,0,0,0,20,Southern Asia,Afghanistan,Takhar,Khwaja Ghar,0,Khwaja Ghar,37.0659,69.4213,2,Bakhtar News Agency,National,"Detonation: On 22-October-2018, it was reported that 3 Taliban militants were killed by one of their own mortars in the Hazarbagh village, Kwaja Ghar district, Takhar province.",3
CON1897950,2018 October,8,Strategic development,Taliban,0,Civilians (Afghanistan),Taliban,7,27,Southern Asia,Afghanistan,Faryab,Gurziwan,0,Gurziwan,35.7121,65.2258,2,Bakhtar News Agency,National,"Detonation: On 24-October-2018, it was reported that 3 civilians who were familiy members of a Taliban militant were killed and the militant himself was injured when a mine he was working on detonated inside his house in the Sarchakan village of Gurziwan district, Faryab province.",3
CON1897951,2018 October,8,Strategic development,Taliban,0,0,0,0,20,Southern Asia,Afghanistan,Farah,Bala Buluk,0,Bala Buluk,32.6357,62.4654,2,BBC Monitoring; Afghan Islamic Press news,Regional,"Detonation: On 24-October-2018, it was reported that 3 Taliban militants were killed by their own landmine in the Bala Buluk district of Farah province.",3
CON1897963,2018 October,8,Strategic development,Taliban,0,0,0,0,20,Southern Asia,Afghanistan,Kunar,Dangam,0,Dangam,34.9925,71.4194,2,Khaama Press,National,"Detonation: On 25-October-2018, 1 Taliban militant was killed by his own mine when it exploded prematurely in the Goriga area of Dangam district, Kunar province.",1
CON1988119,2018 November,8,Strategic development,Taliban,0,0,0,0,20,Southern Asia,Afghanistan,Zabul,Tarnak Wa Jaldak,0,Tarnak Wa Jaldak,31.9055,66.5167,2,Khaama Press,National,"Detonation: On 09-November-2018, 3 Taliban militants were killed when an IED they were planting exploded in Tarnak Wa Jaldak district, Zabul province.",3
CON1955167,2018 November,8,Strategic development,Police Forces of Afghanistan (2004-),0,Unidentified Armed Group (Afghanistan),0,3,13,Southern Asia,Afghanistan,Kabul,Kabul,0,Kabul,34.5167,69.1833,1,Bakhtar News Agency,National,"Defusal: On 10-November-2018, it was reported that Afghan Police Forces discovered and defused a magnet mine that was planted on an oil tanker in Kabul city.",0
CON1988211,2018 November,8,Strategic development,Military Forces of Afghanistan (2004-),Police Forces of Afghanistan (2004-) National Directorate of Security,Unidentified Armed Group (Afghanistan),0,3,13,Southern Asia,Afghanistan,Logar,Mohammad Agha,0,Surkh Ab,34.1377,69.2062,1,Khaama Press,National,"Weapons seizure: On 15-November-2018, it was reported that Afghan Military and National Directorate of Intelligence Forces discovered and seized 40 warheads of BM-1 rockets, 1 motorcycle packed with explosives, and 1 remote control in the Surkh Ab area of Mohammad Agha district, Logar province.",0
CON1988234,2018 November,8,Strategic development,Taliban,0,0,0,0,20,Southern Asia,Afghanistan,Kapisa,Tagab,0,Tagab,34.855,69.6492,2,Khaama Press,National,"Detonation: On 17-November-2018, it was reported that 2 Taliban militants were killed and 1 was wounded by an IED they were planting in the Tagab district of Kapisa province.",2
CON2127247,2018 November,8,Strategic development,Taliban,0,0,0,0,20,Southern Asia,Afghanistan,Kapisa,Tagab,0,Fayrozahi,34.9587,69.6358,1,Bakhtar News Agency,National,"Detonation: On 17-November-2018, 2 Taliban militants were killed and 2 others wounded by their own roadside bomb explosion in the Fayrozahi village of Tagab district, Kapisa province.",2
CON2127264,2018 November,8,Strategic development,Civilians (Afghanistan),Refugees/IDPs (Afghanistan),0,0,0,70,Southern Asia,Afghanistan,Ghazni,Jaghuri,0,Jaghuri,33.1331,67.4536,2,BBC Monitoring; Noor TV,Subnational,"Displacement: On 18-November-2018, it was reported that over 9,000 families were displaced by clashes in the Jaghuri and Malistan districts of Ghazni province.",0
CON2127265,2018 November,8,Strategic development,Civilians (Afghanistan),Refugees/IDPs (Afghanistan),0,0,0,70,Southern Asia,Afghanistan,Ghazni,Malistan,0,Malistan,33.301,67.1704,2,BBC Monitoring; Noor TV,Subnational,"Displacement: On 18-November-2018, it was reported that over 9,000 families were displaced by clashes in the Jaghuri and Malistan districts of Ghazni province.",0
CON2318657,2018 November,8,Strategic development,Taliban,0,NATO: North Atlantic Treaty Organization,Military Forces of United States,8,28,Southern Asia,Afghanistan,Parwan,Bagram,0,Bagram,34.9669,69.265,1,BBC Monitoring; Tolo News,National,"Defusal: On 26-November-2018, Taliban militants fired 2 missiles at the U.S. base in Bagram, Parwan province. The missiles were intercepted and no injuries or fatalities were reported. The Taliban claimed to have caused ""heavy losses"".",0
CON2318731,2018 November,8,Strategic development,Taliban,0,0,0,0,20,Southern Asia,Afghanistan,Kandahar,Maruf,0,Maruf,34.4167,70.35,2,Pajhwok Afghan News English,National,"Detonation: On 30-November-2018, 37 Taliban militants were killed and 15 motorcycles were destroyed when a militant car bomb prematurely exploded in Maruf district, Kandahar province.",37
CON2318733,2018 December,8,Strategic development,Taliban,0,0,0,0,20,Southern Asia,Afghanistan,Urozgan,Chora,0,Chora,33.0517,66.7421,2,Bakhtar News Agency,National,"Detonation: 4 Taliban militants were killed and 2 were wounded by an explosion of a mine they were planting in Chora district, Urozgan province.",4
CON2347416,2018 December,8,Strategic development,Taliban,0,0,0,0,20,Southern Asia,Afghanistan,Kunduz,Qalay i Zal,0,Qalay i Zal,37.0135,68.4476,2,Associated Press International,International,"Detonation: On 08-December-2018, it was reported that 4 Taliban militants were killed by their own bomb in the Qalay I Zal district of Kunduz province.",4
