data_id,period,event_type_code,event_type,actor1,assoc_actor_1,actor2,assoc_actor_2,inter2,interaction,region,country,admin1,admin2,admin3,location,latitude,longitude,geo_precision,source,source_scale,notes,fatalities
CON1620128,2018 January,9,Violence against civilians,Police Forces of Afghanistan (2004-) Afghan Local Police,0,Civilians (Afghanistan),0,7,17,Southern Asia,Afghanistan,Ghazni,Muqur,0,Muqur,32.8201,67.7693,2,BBC Monitoring; Ghaznawian TV,Subnational-national,"It was reported on January 4, 2018, that 2 ALP members were detained on charges of kidnapping a shopkeeper in Muqur District, Ghazni Province (unknown when the kidnapping happened - coded as over the previous week).",0
CON1365902,2018 January,9,Violence against civilians,Unidentified Armed Group (Afghanistan),0,Civilians (Afghanistan),0,7,37,Southern Asia,Afghanistan,Takhar,Taluqan,0,Taloqan,36.7341,69.5336,3,BBC Monitoring; Afghan Channel One (1TV),National,"Unidentified gunmen reportedly killed more than 20 people in Takhar Province over the previous month, as reported on January 19, 2018.",20
CON1365665,2018 January,9,Violence against civilians,Taliban,0,Civilians (Afghanistan),0,7,27,Southern Asia,Afghanistan,Helmand,Garmsir,0,Garmsir,31.1167,64.2,2,BBC Monitoring; Afghanistan Television,Subnational-national,"Reports on January 4, 2018, that the Taliban had recently (coded over the last few days) killed a civilian woman in Garmsir District, Helmand Province.",1
CON1365680,2018 January,9,Violence against civilians,Unidentified Armed Group (Afghanistan),0,Civilians (Afghanistan),Muslim Group (Afghanistan),7,37,Southern Asia,Afghanistan,Urozgan,Tarinkot,0,Tarinkot,32.6268,65.8733,1,BBC Monitoring; Paiwastoon Ghag,Subnational-national,"Unidentified militants attacked civilians in Tarinkot city, killing 2 and wounding a religious scholar, reported on January 2, 2018.",2
CON1365263,2018 January,9,Violence against civilians,Taliban,0,Civilians (Afghanistan),Police Forces of Afghanistan (2004-),7,27,Southern Asia,Afghanistan,Farah,Bala Buluk,0,Bala Buluk,32.6357,62.4654,2,Associated Press,International,"Taliban militants stopped a bus in Bala Buluk District, Farah Province, on January 4, 2018. They searched the bus, identified 3 members of the Afghan security forces (assumed to be unarmed), took them from the bus, and killed them.",3
CON1364825,2018 January,9,Violence against civilians,Military Forces of Afghanistan (2004-) Special Forces,0,Civilians (Afghanistan),Students (Afghanistan); Healther Workers (Afghanistan),7,17,Southern Asia,Afghanistan,Helmand,Nawzad,0,Nawzad,32.4031,64.4696,2,Pajhwok Afghan News,National,"An Afghan Special Unit conducted an overnight operation in Nawzad District, Helmand Province, on January 6, 2018. 3 civilians, including a woman and an employee of the Lashkargah Emergency Hospital, were killed and another civilian was wounded. The Taliban reported the civilian deaths, including students.",3
CON1364827,2018 January,9,Violence against civilians,Police Forces of Afghanistan (2004-),0,Civilians (Afghanistan),Journalists (Afghanistan),7,17,Southern Asia,Afghanistan,Kunar,Asadabad,0,Asadabad,34.8731,71.147,3,BBC Monitoring; Shamshad TV,Subnational-national,"Police forces reportedly beat up a correspondent of Shamshad TV in Kunar Province, as reported on January 6, 2018.",0
CON1364830,2018 January,9,Violence against civilians,Taliban,0,Civilians (Afghanistan),0,7,27,Southern Asia,Afghanistan,Farah,Bala Buluk,0,Bala Buluk,32.6357,62.4654,2,Bakhtar News Agency,National,"Taliban militants abducted 7 civilian passengers from a bus in Bala Buluk District, Farah Province, on January 6, 2018.",0
CON1364835,2018 January,9,Violence against civilians,Unidentified Armed Group (Afghanistan),0,Civilians (Afghanistan),Former Police Forces of Afghanistan (2004-),7,37,Southern Asia,Afghanistan,Farah,Pur Chaman,0,Pur Chaman,33.1422,63.8612,2,Pajhwok Afghan News,National,"Unidentified gunmen shot and killed a 65-year-old retired police officer in front of his family in Tukeen village, Pur Chaman District, Farah Province. Reported on January 10, 2018, as ""earlier"" (coded over the last week).",1
CON1364663,2018 January,9,Violence against civilians,Taliban,0,Civilians (Afghanistan),Muslim Group (Afghanistan); Islamic State (Afghanistan),7,27,Southern Asia,Afghanistan,Paktia,Jaji,0,Ruqian,33.9869,69.6541,1,BBC Monitoring; Afghan Islamic Press,National,"Taliban militants claimed to have captured 2 Muslim preachers who were supposedly recruiting for and supplying weapons to IS militants in the Ruqian area of Jaji District, Paktia Province, reported on January 7, 2018.",0
CON1363969,2018 January,9,Violence against civilians,Unidentified Armed Group (Afghanistan),0,Civilians (Afghanistan),Muslim Group (Afghanistan),7,37,Southern Asia,Afghanistan,Helmand,Lashkargah,0,Mukhtar Kala,31.625,64.5053,1,Pajhwok Afghan News,National,"Unidentified gunmen shot and killed a religious scholar outside his home in the Mukhtar Kala area of Lashkargah District, Helmand Province, on January 10, 2018.",1
CON1363951,2018 January,9,Violence against civilians,Police Forces of Afghanistan (2004-),0,Civilians (Afghanistan),Muslim Group (Afghanistan),7,17,Southern Asia,Afghanistan,Farah,Pur Chaman,0,Pur Chaman,33.1422,63.8612,2,Pajhwok Afghan News,National,"Police forces opened fire on civilians leaving a mosque on the evening of January 10, 2018, in Pur Chaman District, Farah Province. 1 civilian, a 14-year-old boy, was shot dead and another injured. The police denied the residents' accounts and said that unidentified gunmen had attacked the worshippers.",1
CON1363507,2018 January,9,Violence against civilians,Taliban,0,Civilians (Afghanistan),Muslim Group (Afghanistan),7,27,Southern Asia,Afghanistan,Helmand,Lashkargah,0,Lashkargah,31.5938,64.3716,1,BBC Monitoring; Helmand Local Radio,Subnational-national,"Taliban fighters shot and killed a prominent religious scholar in Lashkargah city on January 12, 2018.",1
CON1363521,2018 January,9,Violence against civilians,Unidentified Armed Group (Afghanistan),0,Civilians (Afghanistan),0,7,37,Southern Asia,Afghanistan,Ghor,Chaghcharan,0,Chaghcharan,34.5195,65.2509,3,Associated Press,International,"Explosives belonging to a would-be suicide bomber exploded prematurely at his home while he was away, killing a family member and wounding 4 others in Ghor Province on January 12, 2018. Others reported this as a suicide attack.",1
CON1363302,2018 January,9,Violence against civilians,Unidentified Armed Group (Afghanistan),0,Civilians (Afghanistan),Government of Afghanistan (2004-),7,37,Southern Asia,Afghanistan,Faryab,Maymana,0,Maymana,35.9213,64.7841,1,Pajhwok Afghan News,National,"Unidentified gunmen shot and killed a female employee of the Ministry of Education and her 19-year-old daughter in their home in Maymana City on the night of January 13, 2018.",2
CON1362834,2018 January,9,Violence against civilians,Unidentified Armed Group (Afghanistan),0,Civilians (Afghanistan),0,7,37,Southern Asia,Afghanistan,Ghor,Du Layna,0,Du Layna,34.156,64.7857,2,BBC Monitoring; Radio Bost,Subnational-national,"A man described as an ""illegal armed commander"" was reported to have killed 2 civilians in Du Layna District, Ghor Province, on January 15, 2018.",2
CON1594934,2018 January,9,Violence against civilians,Taliban,0,Civilians (Afghanistan),Students (Afghanistan),7,27,Southern Asia,Afghanistan,Farah,Khak-e Safid,0,Khak-e Safid,32.6542,62.1043,3,BBC Monitoring; Radio Bost,Subnational-national,"The Taliban reportedly abducted 5 university students in Farah Province on the Farah-Herat Roadway, as reported on January 16, 2018.",0
CON1361929,2018 January,9,Violence against civilians,Taliban,0,Civilians (Afghanistan),Former Taliban,7,27,Southern Asia,Afghanistan,Nangarhar,Dur Baba,0,Dur Baba,34.0397,70.93,2,Khaama Press,Subnational,"Taliban militants executed a former Taliban commander on charges of having links with IS on the afternoon of January 19, 2018, in the Aman Kot area of Dur Baba District, Nangarhar Province.",1
CON1361561,2018 January,9,Violence against civilians,Unidentified Armed Group (Afghanistan),0,Civilians (Afghanistan),Journalists (Afghanistan),7,37,Southern Asia,Afghanistan,Nangarhar,Bati Kot,0,Bati Kot,34.2435,70.7285,2,BBC Monitoring; Shamshad TV; National Afghanistan TV; Afghan Islamic Press,Subnational-national,"Unidentified armed men opened fire at a truck belonging to local Afghanistan National TV reporters in Bati Kot District, Nangarhar Province, as reported on January 21, 2018. The driver was killed and 2 journalists were injured. The Taliban denied involvement.",1
CON1602444,2018 January,9,Violence against civilians,Taliban,0,Civilians (Afghanistan),0,7,27,Southern Asia,Afghanistan,Badakhshan,Raghistan,0,Ziraki,37.5923,70.5581,2,Pajhwok Afghan News,National,"Taliban militants terrorized the funeral proceedings of a deceased ANA soldier hours after he was buried, exhuming his body and dragging it around on January 22, 2018, in Raghistan District, Badakshan Province. They also beat and tortured some of the funeral attendees and potentially kidnapped tens of them.",0
CON1361329,2018 January,9,Violence against civilians,Unidentified Armed Group (Afghanistan),0,Civilians (International),UN: United Nations,7,37,Southern Asia,Afghanistan,Kabul,Kabul,0,Kabul,34.5167,69.1833,1,BBC Monitoring; Ariana TV,Subnational-national,"An employee of the UN Mission to Afghanistan was killed and another female employee was kidnapped by unidentified assailants on the morning of January 22, 2018, in the Khair Khanah area of Kabul City.",1
CON1361109,2018 January,9,Violence against civilians,Police Forces of Afghanistan (2004-),0,Civilians (Afghanistan),Students (Afghanistan),7,17,Southern Asia,Afghanistan,Farah,Farah,0,Farah,32.3745,62.1164,2,BBC Monitoring; Afghan Islamic Press; Pajhwok Afghan News,National,"Reports that police shot and killed an adolescent student on the outskirts of Farah District on January 23, 2018, or the morning of January 24, 2018. A policeman was later arrested in connection with the incident.",1
CON1360653,2018 January,9,Violence against civilians,Militia (Pro-Government),0,Civilians (Afghanistan),Government of Afghanistan (2004-),7,37,Southern Asia,Afghanistan,Faryab,Gurziwan,0,Gurziwan,35.7121,65.2258,2,BBC Monitoring; Afghan Islamic Press,National,"Members of a public uprising force supposedly loyal to the current Acting District Chief of Gurziwan District, Faryab Province, stopped and attacked a government delegation on January 25, 2018, with rockets and machine guns. The delegation was going to Gurziwan to introduce the district's new chief. 1 man was killed, another wounded, and 3 other government officials were taken to Gurziwan by the armed men. The rest fled back to Bilchiragh District. The Acting District Chief and head of the public uprising forces both denied the claims, saying that unidentified militants had attacked the men.",1
CON1360260,2018 January,9,Violence against civilians,Military Forces of Afghanistan (2004-) Special Forces,0,Civilians (Afghanistan),0,7,17,Southern Asia,Afghanistan,Helmand,Nahri Saraj,0,Malgir,31.7333,64.45,1,TOLONews,National,"Reports that a military operation by Afghan Special Forces in Malgir village, Nahri Saraj District, Helmand Province, killed 10 civilians on the night of January 27, 2018.",10
CON1360242,2018 January,9,Violence against civilians,Taliban,0,Civilians (Afghanistan),Government of Afghanistan (2004-); Police Forces of Afghanistan (2004-); Civilians (New Zealand),7,27,Southern Asia,Afghanistan,Kabul,Kabul,0,Kabul,34.5167,69.1833,1,BBC Monitoring; Afghan Channel One (1TV); Voice of Jihad; Agence France Presse; Associated Press; TOLONews; Pajhwok Afghan News,Subnational-international,"A suicide bombing occurred around midday on January 27, 2018, in which explosives were placed inside a vehicle painted to look like an ambulance and driven into a crowded part of Kabul City near a hospital, the office of the High Peace Council, embassies, and other government buildings. 103 people, including a New Zealand citizen, plus the bomber, were killed and 235 others wounded. Most of the victims were civilians. The vehicle was able to get through one security checkpoint by telling officials it was carrying a patient, but the bomber detonated the explosives when they were stopped at a second near an Interior Ministry building. The Taliban claimed responsibility; the government blamed the Haqqani Network and arrested 4 suspects. Dozens of vehicles and nearby buildings were destroyed; it is estimated that damage amounting to tens of millions of Afghanis befell the nearby hospitals and businesses. The Taliban rejected civilian casualties, claiming the attack occured inside the old MoI building and only harmed government officials and workers.",104
CON1359111,2018 February,9,Violence against civilians,Taliban,0,Civilians (Afghanistan),Shash Tepa Communal Group (Afghanistan),7,27,Southern Asia,Afghanistan,Faryab,Shirin Tagab,0,Shirin Tagab,36.2553,64.8138,2,Pajhwok Afghan News,National,"Taliban militants shot and killed a tribal elder in the Shash Tepa area of Shirin Tagab District, Faryab Province, on February 1, 2018.",1
CON1358914,2018 February,9,Violence against civilians,Unidentified Armed Group (Afghanistan),0,Civilians (Afghanistan),0,7,37,Southern Asia,Afghanistan,Takhar,Chah Ab,0,Chah Ab,37.3977,69.8146,2,BBC Monitoring; Negah TV; Khaama Press,Subnational-national,"Members of an armed group and their commander reportedly tried a 22-year-old woman in a ""kangaroo court"" on charges of adultery that ended in the men beating the woman in Chah Ab District, Takhar Province, as reported on February 2, 2018.",0
CON1358725,2018 February,9,Violence against civilians,Unidentified Armed Group (Afghanistan),0,Civilians (Afghanistan),Lawyers (Afghanistan); Government of Afghanistan (2004-),7,37,Southern Asia,Afghanistan,Farah,Farah,0,Farah,32.3745,62.1164,1,Pajhwok Afghan News,National,"The prosecutor for Pusht Koh District, Farah Province, was shot dead by unidentified gunmen in front of a mosque in Farah City on the afternoon of February 2, 2018. Both of the attackers were killed in retaliatory police firing (coded as a separate event).",1
CON1357771,2018 February,9,Violence against civilians,Militia (Pro-Government),0,Civilians (Afghanistan),0,7,37,Southern Asia,Afghanistan,Khost,Tere Zayi,0,Alisher,33.4362,70.0671,2,"Xinhua General News Service, BBC Monitoring; Afghan Islamic Press News Agency",National-international,"On February 7th, 7 civilians, members of the same household, were killed by members of a pro-government militia called the Campaign Forces in the Bati Tana area of Tere Zayi district, Khost. According to local police, the family had no known militancy ties.",7
CON1356770,2018 February,9,Violence against civilians,Taliban,0,Civilians (Afghanistan),Mardyan Communal Group (Afghanistan),7,27,Southern Asia,Afghanistan,Jowzjan,Mardyan,0,Mardyan,36.9925,66.2965,2,"Pajhwok Afghan News English, BBC Monitoring; Bost Radio",National,"On February 12th, Taliban militants abducted 10 tribal leaders in Mardyan district of Jowzjan province.",0
CON1355910,2018 February,9,Violence against civilians,Police Forces of Afghanistan (2004-),0,Civilians (Afghanistan),0,7,17,Southern Asia,Afghanistan,Urozgan,Tarinkot,0,Tarinkot,32.6268,65.8733,1,Pajhwok Afghan News English,National,"On February 17th, 1 civilian was killed, and 5 injured, by a police officer following a verbal dispute in Tarinkot city, Urozgan province.",1
CON1355233,2018 February,9,Violence against civilians,Taliban,0,Civilians (Afghanistan),0,7,27,Southern Asia,Afghanistan,Ghor,Chaghcharan,0,Chaghcharan,34.5195,65.2509,3,BBC Monitoring; Noor TV,National,"As reported on February 20th, Taliban militants killed a civilian in Ghor province for allegedly cooperating with police.",1
CON1354327,2018 February,9,Violence against civilians,Islamic State (Afghanistan),0,Civilians (Afghanistan),0,7,27,Southern Asia,Afghanistan,Kabul,Kabul,0,Kabul,34.5167,69.1833,1,"Pajhwok Afghan News English, TOLONews",National,"On February 24th, 3 civilians were killed, and 6 injured, in an Islamic State suicide blast in the Shash Darak area of Kabul city, allegedly targetting a nearby NDS office.",4
CON1354232,2018 February,9,Violence against civilians,Taliban,0,Civilians (Afghanistan),Labour Group (Afghanistan),7,27,Southern Asia,Afghanistan,Samangan,Aybak,0,Samangan,36.2647,68.0155,1,Pajhwok Afghan News English,National,"On February 25th, 4 employees with the Hazrat Zadah construction firm were abducted by suspected Taliban militants on the outskirts of Samangan city.",0
CON1353832,2018 February,9,Violence against civilians,Taliban,0,Civilians (Afghanistan),Police Forces of Afghanistan (2004-),7,27,Southern Asia,Afghanistan,Kandahar,Kandahar,0,Kandahar,31.6133,65.7101,3,Al Jazeera,International,"On February 27th, Taliban militants dressed in army outfits stopped a bus along the Kandar-Urozgan border and kidnapped 30 of its passengers, among them 19 police personnel.",0
CON1353590,2018 February,9,Violence against civilians,Islamic State (Afghanistan),0,Civilians (Afghanistan),0,7,27,Southern Asia,Afghanistan,Nangarhar,Khogyani,0,Wazir,34.1996,70.1622,1,BBC Monitoring; Noor TV,Subnational,"As reported on February 28th, a civilian was stoned to death by Islamic State militants in the Tangi Wazir area of Khogyani district for allegedly having illegal affairs with a woman.",1
CON1728165,2018 March,9,Violence against civilians,Nekhtai Communal Militia (Afghanistan),0,Civilians (Afghanistan),Sherabad Communal Group (Afghanistan),7,47,Southern Asia,Afghanistan,Ghazni,Qarabagh,0,Sherabad,33.2523,68.0292,1,Pajhwok Afghan News English,National,"On March 2nd, militia men from the nearby Nekhtai area, wearing Afghan army uniforms, entered a civilian home, killed 2 civilians, injured 2 others, and kidnapped 2 more. This occurred in the Sherabad area of Qarabagh district, Ghazni province. Around March 17th, the two kidnapped persons were released, following talks which involved the release of Nekhtai captives by Taliban militants. The residents of Nekhtai and Sherabad have had a longstanding dispute over irrigation water.",2
CON1594991,2018 March,9,Violence against civilians,Taliban,0,Civilians (Afghanistan),Prisoners (Afghanistan),7,27,Southern Asia,Afghanistan,Farah,Khak-e Safid,0,Khak-e Safid,32.6542,62.1043,2,BBC Monitoring; Radio Bost,Subnational,"As reported on March 2nd, Taliban militants executed 3 kidnappers in Khak-e Safid district of Farah province.",3
CON1353047,2018 March,9,Violence against civilians,Police Forces of Afghanistan (2004-) Special Forces,0,Civilians (Afghanistan),0,7,17,Southern Asia,Afghanistan,Khost,Nadir Shah Kot,0,Nadir Shah Kot,33.3066,69.6938,2,Pajhwok Afghan News English,National,"On March 3rd, Afghan Special Forces allegedly killed 4 civilians during a night operation Zaryai village of Nadir Shah Kot district, Khost. The local police chief stated he was unaware of civilian casualties, however locals staged a protest afterwards along with the bodies. No other casualties or interactions with militants were reported.",4
CON1990549,2018 March,9,Violence against civilians,Protesters (Afghanistan),0,Police Forces of Afghanistan (2004-),0,1,16,Southern Asia,Afghanistan,Ghazni,Ghazni,0,Ghazni,33.5508,68.4225,1,Pajhwok Afghan News English,National,"On March 6th, police injured 4 demonstrators and set fire to a tent as a large number of people continued to block the Kabul-Kandahar road and hold demonstrations in the Haider Abad area of Ghazni city following the killing of civilians in the Sherabad area of Qarabagh district by unidentified armed men in Army uniforms on March 2nd. The injured were taken to hospital.",0
CON1352207,2018 March,9,Violence against civilians,Islamic State (Afghanistan),0,Civilians (Afghanistan),Government of Afghanistan (2004-),7,27,Southern Asia,Afghanistan,Nangarhar,Jalalabad,0,Jalalabad,34.4265,70.4515,1,"BBC Monitoring; Telegram messaging service in Arabic, BBC Monitoring; Negah TV",Other-subnational,"On March 7th, at least two people, including the head of Nangarhar Hajj and Islamic Affairs, were killed, and nine civilians wounded, when an Islamic State suicide bomber detonated outside the official's vehicle in Jalalabad city, Nangarhar.",3
CON1352215,2018 March,9,Violence against civilians,Taliban,0,Civilians (Afghanistan),0,7,27,Southern Asia,Afghanistan,Faryab,Gurziwan,0,Gurziwan,35.7121,65.2258,2,Pajhwok Afghan News English,National,"On March 7th, 2 civilians were killed, and 8 injured, during a Taliban ambush in Gurziwan district of Faryab province.",2
CON1578541,2018 March,9,Violence against civilians,Islamic State (Afghanistan),0,Civilians (Afghanistan),Shiite Muslim Group (Afghanistan); Hazara Ethnic Group (Afghanistan),7,27,Southern Asia,Afghanistan,Kabul,Kabul,0,Kabul,34.5167,69.1833,1,dpa-AFX International ProFeed,International,"On March 9th, at least 10 Shiite Hazara civilians were killed, and at least 18 wounded, when an Islamic State suicide bomber detonated themselves during a gathering in the Dashte Barchi area of Kapul city. The gathering was to mark the anniversary of the death of Abdul Ali Mazari, a leader of the Shiite Hazara minority.",11
CON1351342,2018 March,9,Violence against civilians,NATO: North Atlantic Treaty Organization,0,Civilians (Afghanistan),0,7,78,Southern Asia,Afghanistan,Kandahar,Daman,0,Daman,31.8787,66.1763,2,Pajhwok Afghan News English,National,"On March 11th, 2 civilians were allegedly injured when NATO forces opened fire on them following a mine blast targetting the NATO convoy in Daman distrcit of Kandahar.",0
CON1350261,2018 March,9,Violence against civilians,Military Forces of Afghanistan (2004-),0,Civilians (Afghanistan),0,7,17,Southern Asia,Afghanistan,Nangarhar,Chaparhar,0,Chaparhar,34.2774,70.3618,2,Pajhwok Afghan News English,National,"On March 16th, 8 civilians were killed during a night raid by Afghan security forces in the Hadyakhelo area of Chaparhar district, Nangarhar province.",8
CON1350282,2018 March,9,Violence against civilians,Taliban,0,Civilians (Afghanistan),0,7,27,Southern Asia,Afghanistan,Kabul,Kabul,0,Kabul,34.5167,69.1833,1,Khaama Press,Subnational,"On March 16th, 3 civilians were killed, and 4 wounded, when a Taliban-drive suicide vehicle detonated near a military base in the 9th police district of Kabul.",4
CON1595010,2018 March,9,Violence against civilians,Taliban,0,Civilians (Afghanistan),0,7,27,Southern Asia,Afghanistan,Helmand,Nad Ali,0,Nad-e Ali,31.6323,64.2645,2,BBC Monitoring; Radio Bost,Subnational,"As reported on March 16th, at least 11 civilians were injured by Taliban militants in Nad Ali district of Helmand.",0
CON1349902,2018 March,9,Violence against civilians,Unidentified Armed Group (Afghanistan),0,Civilians (Afghanistan),0,7,37,Southern Asia,Afghanistan,Kabul,Kabul,0,Kabul,34.5167,69.1833,1,Khaama Press,National,"On March 18th, a civilian was injured when a student attempted to hurl a grenade on a school compound in the 13th police district of Kabul city, but killed himself in the process. It is unclear whether the student was affiliated with a militant group, and the motive behind the attack is also uncertain.",1
CON1602451,2018 March,9,Violence against civilians,Taliban,0,Civilians (Afghanistan),0,7,27,Southern Asia,Afghanistan,Badakhshan,Warduj,0,Warduj,36.7854,71.0907,2,BBC Monitoring; Afghan Zohra Radio; Noor TV,Subnational,"As reported on March 19th, Taliban militants beheaded a woman for adultery in Warduj district of Badakshan province.",1
CON1349362,2018 March,9,Violence against civilians,Islamic State (Afghanistan),0,Civilians (Afghanistan),Shiite Muslim Group (Afghanistan),7,27,Southern Asia,Afghanistan,Kabul,Kabul,0,Kabul,34.5167,69.1833,1,Associated Press International; Pajhwok afghan News English,National-international,"On March 21st, 33 civilians were killed, and 65 wounded, when an Islamic State suicide bomber targetted a Shiite shrine during a Persian New Year celebration in Kabul.",34
CON1349007,2018 March,9,Violence against civilians,Islamic State (Afghanistan),0,Civilians (Afghanistan),0,7,27,Southern Asia,Afghanistan,Helmand,Lashkargah,0,Lashkargah,31.5938,64.3716,1,Al Jazeera; Pajhwok Afghan News English,National-international,"On March 23rd, 16 civilians were killed, and 52 injured, when an Islamic State suicide bomber targetted a stadium in Lashkargah city during a wrestling match and detonated the explosive-laden vehicle he was driving.",17
CON1602452,2018 March,9,Violence against civilians,Taliban,0,Civilians (Afghanistan),Prisoners (Afghanistan),7,27,Southern Asia,Afghanistan,Badakhshan,Arghanj Khwa,0,Arghanj Khwa,37.2662,70.8215,2,Pajhwok Afghan News English,National,"On March 24th, a woman was kidnapped by a Taliban commander from her home in Harawan village of Arghanj Khwa district, Badakshan province, and killed after she refused to marry him.",1
CON1348819,2018 March,9,Violence against civilians,Unidentified Armed Group (Afghanistan),0,Civilians (Afghanistan),Unidentified Armed Group (Afghanistan),7,37,Southern Asia,Afghanistan,Kapisa,Tagab,0,Tagab,34.855,69.6492,2,Pajhwok Afghan News English,National,"On March 25th, a former miliant commander and 6 members of his family, were shot dead by unidentified armed men while they were returning home in the Badrab area of Tagab district, Kapisa. No group claimed responsibility, and the source did not clarify as to which group the victim was formally part of.",7
CON1348288,2018 March,9,Violence against civilians,Unidentified Armed Group (Afghanistan),0,Civilians (Afghanistan),Police Forces of Afghanistan (2004-),7,37,Southern Asia,Afghanistan,Kunar,Khas Kunar,0,Khas Kunar,34.6479,70.8975,2,Associated Press International; BBC Monitoring; Afghan Islamic Press news agency,National-International,"On March 28th, at least 2 people including an unarmed district police chief were killed, and 4 other civilians injured, when unidentified militants opened fire during a soldier's funeral ceremony in the Budyali area of Khas Kunar district, Nangarhar province.",2
CON1348133,2018 March,9,Violence against civilians,Taliban,0,Civilians (Afghanistan),Prisoners (Afghanistan),7,27,Southern Asia,Afghanistan,Herat,Shindand,0,Shindand,33.3029,62.1474,2,Bakhtar News Agency,National,"On March 29th, 1 civilian was killed by Taliban militants after they abducted 5 people in Shindand district of Herat province.",1
CON1347981,2018 March,9,Violence against civilians,Islamic State (Afghanistan),0,Civilians (Afghanistan),Government of Afghanistan (2004-),7,27,Southern Asia,Afghanistan,Kunar,Wata Pur,0,Wata Pur,34.9109,71.1274,2,BBC Monitoring; Noor TV; SITE Intelligence Group Enterprise,Other-Subnational,"On March 30th, a member of the Kunar Provincial Council and a religious scholar were killed by an Islamic State suicide bomber in Wata Pur district of Kunar province.",3
CON1347622,2018 April,9,Violence against civilians,Unidentified Armed Group (Afghanistan),0,Civilians (Afghanistan),Government of Afghanistan (2004-),7,37,Southern Asia,Afghanistan,Faryab,Dawlat Abad,0,Dawlat Abad,36.4326,64.9207,2,Bakhtar News Agency,National,"On April 1st, district governor Syeed Daud was shot dead by unidentified armed men in Dawlat Abad district of Faryab.",1
CON1258084,2018 April,9,Violence against civilians,Unidentified Armed Group (Afghanistan),0,Civilians (Afghanistan),Government of Afghanistan (2004-),7,37,Southern Asia,Afghanistan,Herat,Shindand,0,Shindand,33.3029,62.1474,2,BBC Monitoring; Negah TV,Subnational,"As reported on April 7th, unidentified militants killed a local government official in Shindand district of Herat province.",1
CON1578683,2018 April,9,Violence against civilians,Taliban,0,Civilians (Afghanistan),Former Police Forces of Afghanistan (2004-),7,27,Southern Asia,Afghanistan,Kabul,Kabul,0,Kabul,34.5167,69.1833,1,BBC Monitoring; Negah TV,Subnational,"On April 10th, a fomer police officer was kidnapped from Kabul by Taliban militants. He was released on April 20th in Warduk province.",0
CON1258179,2018 April,9,Violence against civilians,Unidentified Armed Group (Afghanistan),0,Civilians (Afghanistan),Government of Afghanistan (2004-),7,37,Southern Asia,Afghanistan,Kandahar,Kandahar,0,Karz,31.5717,65.7294,1,Pajhwok Afghan News English,National,"On April 14th, the education head for Dand district was killed by unidentified militants in the Karz area of Kandahar province.",1
CON1578632,2018 April,9,Violence against civilians,Islamic State (Afghanistan),0,Civilians (Afghanistan),0,7,27,Southern Asia,Afghanistan,Jowzjan,Darzab,0,Darzab,35.9774,65.3783,2,Khaama Press,Subnational,"As reported on April 17th, Islamic State militants beheaded a 12yo boy in Darzab district of Jowzjan on the charge of aiding security forces.",1
CON1578633,2018 April,9,Violence against civilians,Unidentified Armed Group (Afghanistan),0,Civilians (Afghanistan),0,7,37,Southern Asia,Afghanistan,Ghor,Chaghcharan,0,Chaghcharan,34.5195,65.2509,2,Pajhwok Afghan News English,National,"On April 17th, 6 civilian passengers were killed and 2 kidnapped when their vehicle was attacked by unidentified militants on the Ghor-Herat highway in the Brak Khana area of Chaghcharan district, Ghor province.",6
CON1578659,2018 April,9,Violence against civilians,Islamic State (Afghanistan),0,Civilians (Afghanistan),0,7,27,Southern Asia,Afghanistan,Urozgan,Chora,0,Chora,33.0517,66.7421,2,BBC Monitoring; Afghan Islamic Press news agency,National,"Reported on Apr.18, ""a few days ago"" Islamic State militants kidnapped 3 women from the Khush Khadir area of Chora district, Urozgan.",0
CON1598425,2018 April,9,Violence against civilians,Islamic State (Afghanistan),0,Civilians (Afghanistan),0,7,27,Southern Asia,Afghanistan,Nangarhar,Chaparhar,0,Chaparhar,34.2774,70.3618,2,Khaama Press,Subnational,"On April 22nd, 3 civilians were executed by suspected Islamic State militants in Chaparhar district of Nangarhar on the charge of working with government forces.",3
CON1598426,2018 April,9,Violence against civilians,Taliban,0,Civilians (Afghanistan),0,7,27,Southern Asia,Afghanistan,Herat,Chishti Sharif,0,Chishti Sharif,34.3375,63.7397,2,Pajhwok Afghan News English,National,"On April 22nd, Taliban militants kidnapped 4 civilians from their vehicle in the Dara-i-Takht area of Chishti Sharif district, Herat.",0
CON1598430,2018 April,9,Violence against civilians,Islamic State (Afghanistan),0,Civilians (Afghanistan),Shiite Muslim Group (Afghanistan),7,27,Southern Asia,Afghanistan,Kabul,Kabul,0,Kabul,34.5167,69.1833,1,Agence France Presse; Pajhwok Afghan News English,National-International,"On April 22nd, at least 69 people were killed, and 120 injured, when an Islamic State suicide bomber detonated outside a voter registration centre in a predominantly Shiite neighbourhood of Kabul.",69
CON1598462,2018 April,9,Violence against civilians,Islamic State (Afghanistan),0,Civilians (Afghanistan),Prisoners (Afghanistan); Taliban,7,27,Southern Asia,Afghanistan,Nangarhar,Chaparhar,0,Dag-e Ghulam Khan,34.3018,70.4609,1,BBC Monitoring; Sedai Khelafat al-Bayan radio,Subnational,"As reported on April 24th, a Taliban militant was recently beheaded by Islamic State militants in the Dag-e Ghulam Khan area of Chaparhar district, Nangarhar.",1
CON1598478,2018 April,9,Violence against civilians,Unidentified Armed Group (Afghanistan),0,Civilians (Afghanistan),0,7,37,Southern Asia,Afghanistan,Urozgan,Chora,0,Balagh,33.1489,66.139,1,Pajhwok Afghan News English,National,"On April 25th, unidentified armed men kidnapped and then shot dead 5 civilians from their vehicle on the highway outside Balagh, Urozgan province.",5
CON1598485,2018 April,9,Violence against civilians,Unidentified Armed Group (Afghanistan),0,Civilians (Afghanistan),Journalists (Afghanistan),7,37,Southern Asia,Afghanistan,Kandahar,Kandahar,0,Kandahar,31.6133,65.7101,1,BBC Monitoring; Afghan Islamic Press news agency,National,"On April 25th, suspected militants shot dead a journalist in Kandahar city.",1
CON1602488,2018 April,9,Violence against civilians,Taliban,0,Civilians (Afghanistan),0,7,27,Southern Asia,Afghanistan,Ghazni,Andar,0,Miray,33.3246,68.4407,2,Bakhtar News Agency,National,"On April 29th, an oil tanker driver was killed, and his truck stolen, by Taliban militants in the Golai area of Andar district, Ghazni province.",1
CON1602487,2018 April,9,Violence against civilians,Taliban,0,Civilians (Afghanistan),0,7,27,Southern Asia,Afghanistan,Ghazni,Qarabagh,0,Qarabagh,33.198,68.108,2,Bakhtar News Agency,National,"On April 29th, a child was killed when Taliban militants fired on a home in Edi village, Qarabagh district of Ghazni province.",1
CON1602498,2018 April,9,Violence against civilians,Unidentified Armed Group (Afghanistan),0,Civilians (Afghanistan),Journalists (Afghanistan),7,37,Southern Asia,Afghanistan,Khost,Khost,0,Khost,33.3395,69.9204,1,Khaama Press,Subnational,"On April 30th, a BBC reported was shot dead by unidentified men on motorcycles on the outskirts of Khost city. No group claimed responsibility, although Taliban reported they had no links to the attack.",1
CON1734258,2018 May,9,Violence against civilians,Islamic State (Afghanistan),0,Civilians (Afghanistan),Prisoners (Afghanistan); Police Forces of Afghanistan (2004-) Afghan Local Police,7,27,Southern Asia,Afghanistan,Nangarhar,Achin,0,Sra Kala,34.1258,70.7133,2,BBC Monitoring; Sedai Khelafat al-Bayan radio,Regional,"As reported by Islamic State sources on May 2nd, militants recently beheaded a captured Afghan Local Police officer in Achin district, Nangarhar.",1
CON1602517,2018 May,9,Violence against civilians,Islamic State (Afghanistan),0,Civilians (Afghanistan),0,7,27,Southern Asia,Afghanistan,Nangarhar,Chaparhar,0,Chaparhar,34.2774,70.3618,2,BBC Monitoring; National Afghanistan TV,National,"As reported on May 2nd, 10 civilians were kidnapped from a poppy field in Chaparhar district of Nangarhar. It was reported by a local source that they were later killed in the Goorgore area of Dih Bala district.",10
CON1602526,2018 May,9,Violence against civilians,Taliban,0,Civilians (Afghanistan),Students (Afghanistan),7,27,Southern Asia,Afghanistan,Takhar,Khwaja Baha Wuddin,0,Khwaja Baha Wuddin,37.3451,69.5338,2,Xinhua General News Service,International,"On May 3rd, 45 school girls were hospitalized by a suspected Taliban gas attack on their school in Khwaja Baha Wuddin district of Takhar.",0
CON1604585,2018 May,9,Violence against civilians,Unidentified Armed Group (Afghanistan),0,Civilians (Afghanistan),Government of Afghanistan (2004-),7,37,Southern Asia,Afghanistan,Paktia,Gardez,0,Gardez,33.5974,69.2259,1,Pajhwok Afghan News English,National,"On May 5th, 2 people were killed, and 4 injured, when an unidentified suicide car bomber targetted the vehicle of the district chief in the Bala Deh area of Gardez city, Paktia. The chief himself was injured.",3
CON1604616,2018 May,9,Violence against civilians,Taliban,0,Civilians (India),Civilians (Afghanistan); Labour Group (Afghanistan),7,27,Southern Asia,Afghanistan,Baghlan,Pul-e Khumri,0,Pul-e Khumri,35.9446,68.7151,2,Anadolu Agency; Afghan Islamic Press news agency,National-Regional,"On May 6th, 7 employees of an Indian power transmitter company, 6 of them Indian nationals and 1 Afghan citizen, were kidnapped by Taliban militants while they were working in the Khwaja Alwan area near Pul-e Khumri city.",0
CON1604625,2018 May,9,Violence against civilians,Unidentified Armed Group (Afghanistan),0,Civilians (Afghanistan),Journalists (Afghanistan),7,37,Southern Asia,Afghanistan,Kabul,Kabul,0,Kabul,34.5167,69.1833,1,BBC Monitoring; TOLO News,Subnational,"On May 6th, a freelance journalist was shot dead by unidentified persons outside of his home in Kabul. No group claimed responsibility.",1
CON1605925,2018 May,9,Violence against civilians,NATO: North Atlantic Treaty Organization,0,Civilians (Afghanistan),0,7,78,Southern Asia,Afghanistan,Kunar,Khas Kunar,0,Khas Kunar,34.6479,70.8975,2,BBC Monitoring; Shamshad TV,National,"As reported on May 11th, NATO forces allegedly killed a civilian during a recent operation in Khas Kunar area of Kunar province. Not clear what the circumstances of the killing were.",1
CON1605933,2018 May,9,Violence against civilians,Unidentified Armed Group (Afghanistan),0,Civilians (Afghanistan),Journalists (Afghanistan),7,37,Southern Asia,Afghanistan,Parwan,Chaharikar,0,Charikar,35.0166,69.174,1,Pajhwok Afghan News English,National,"On May 12th, a TV reporter was shot and injured by suspected militants in Charikar city of Parwan.",0
CON1605984,2018 May,9,Violence against civilians,Taliban,0,Civilians (Afghanistan),0,7,27,Southern Asia,Afghanistan,Ghazni,Gelan,0,Gelan,32.7269,67.637,2,Bakhtar News Agency,National,"On May 15th, 5 civilians were kidnapped on the Kandahar-Kabul highway by suspected Taliban militants in Gylan district, Ghazni province.",0
CON1613073,2018 May,9,Violence against civilians,Islamic State (Afghanistan),0,Civilians (Afghanistan),Prisoners (Afghanistan),7,27,Southern Asia,Afghanistan,Kunar,Wata Pur,0,Wata Pur,34.9109,71.1274,2,BBC Monitoring; Sedai Khelafat al-Bayan radio,National,"As reported on May 19th by Islamic State sources, a civilian was executed in Wata Pur district of Kunar on the charges of being a spy for NATO and Aghan forces.",1
CON1613057,2018 May,9,Violence against civilians,Islamic State (Afghanistan),0,Civilians (Afghanistan),Prisoners (Afghanistan); Police Forces of Afghanistan (2004-),7,27,Southern Asia,Afghanistan,Kunar,Chapa Dara,0,Chapa Dara,34.949,70.7822,2,BBC Monitoring; Sedai Khelafat al-Bayan radio,National,"As reported on May 19th by Islamic State sources, 2 residents of Chapa Dara district, Kunar, were executed on the charge of having served in the police.",2
CON1613077,2018 May,9,Violence against civilians,Unidentified Armed Group (Afghanistan),0,Civilians (Afghanistan),HIG: Hezb-e Islami-Gulbuddin,7,37,Southern Asia,Afghanistan,Ghazni,Ghazni,0,Ghazni,33.5508,68.4225,1,Pajhwok Afghan News English,National,"On May 20th, 3 HIG members were injured in a hand grenade attack on a Hizb-i-Islami Afghanistan (HIA) office in Ghazni City. No group claimed responsibility.",0
CON1613082,2018 May,9,Violence against civilians,Unidentified Armed Group (Afghanistan),0,Civilians (Afghanistan),JI: Jamiat-e-Islami; Unidentified Tribal Group (Afghanistan),7,37,Southern Asia,Afghanistan,Kapisa,Mahmud Raqi,0,Mahmud-e-Raqi,35.0164,69.3445,1,Pajhwok Afghan News English,National,"On May 20th, a tribal leader and former Jamiat-e-Islami leader, Mohammad Ibrahim, was shot dead by unidentified armed men in his home in the Awrki area of Mahmud-e-Raqi city, Kapisa.",1
CON1989558,2018 May,9,Violence against civilians,Military Forces of Afghanistan (2004-),0,Protesters (Afghanistan),0,6,16,Southern Asia,Afghanistan,Takhar,Khwaja Baha Wuddin,0,Khwaja Baha Wuddin,37.3451,69.5338,2,Pajhwok Afghan News English,National,"On May 21st, 4 protesters were wounded after Afghan army soldiers fired on them with live rounds while they were demonstrating and blocking the road in the Shour Toghi area of Khwaja Baha Wuddin district, Takhar, to demand compensation for flood damage.",0
CON1613079,2018 May,9,Violence against civilians,Unidentified Armed Group (Afghanistan),0,Civilians (Afghanistan),Labour Group (Afghanistan),7,37,Southern Asia,Afghanistan,Kandahar,Maywand,0,Maywand,31.7333,65.1333,2,Khaama Press,Subnational,"On May 21st, 5 de-miners from a private company were killed by unidentified militants while working along the TAPI pipeline in the Malang Kariz area of Maywand district, Kandahar.",5
CON1613163,2018 May,9,Violence against civilians,Unidentified Armed Group (Afghanistan),0,Civilians (Afghanistan),Labour Group (Afghanistan),7,37,Southern Asia,Afghanistan,Herat,Shindand,0,Shindand,33.3029,62.1474,2,Pajhwok Afghan News English,National,"On May 26th, at least 4 road construction company workers were killed by unidentified armed men in the Zori area of Shindand district, Herat.",4
CON1620233,2018 May,9,Violence against civilians,Unidentified Armed Group (Afghanistan),0,Civilians (Afghanistan),Government of Afghanistan (2004-),7,37,Southern Asia,Afghanistan,Parwan,Chaharikar,0,Charikar,35.0166,69.174,3,BBC Monitoring; Noor TV,Subnational,"On May 26th, an employee of the Afghan election commission was killed, and another injured, as a result of a grenade attack in Parwan province.",1
CON1620307,2018 May,9,Violence against civilians,Military Forces of Afghanistan (2004-) Special Forces,0,Civilians (Afghanistan),0,7,17,Southern Asia,Afghanistan,Nangarhar,Bati Kot,0,Bati Kot,34.2435,70.7285,2,Pajhwok Afghan News English,National,"On May 31st, Afghan Special Forces commandos killed 4 civilians, injured another 2, and captured 4 more, during a raid on a family's home in the Lorthi area of Bati Kot district, Nangarhar. The raid was confirmed by the district administration, although the nature of the raid was not clear.",4
CON1632648,2018 June,9,Violence against civilians,Unidentified Armed Group (Afghanistan),0,Civilians (Afghanistan),Muslim Group (Afghanistan),7,37,Southern Asia,Afghanistan,Kandahar,Kandahar,0,Kandahar,31.6133,65.7101,1,Pajhwok Afghan News,National,Unidentified gunmen shot and killed a renowned religious scholar and preacher of a mosque in Kandahar City on his way home on the afternoon of June 4.,1
CON1632661,2018 June,9,Violence against civilians,Taliban,0,Civilians (Afghanistan),0,7,27,Southern Asia,Afghanistan,Paktia,Gardez,0,Gardez,33.5974,69.2259,3,Bakhtar News Agency,National,"Taliban militants took 18 tribal elders hostage in Laja Mangal District, Paktia Province, in an attempt to keep them from participating in upcoming elections.",0
CON1632664,2018 June,9,Violence against civilians,Police Forces of Afghanistan (2004-),0,Civilians (Afghanistan),0,7,17,Southern Asia,Afghanistan,Kandahar,Kandahar,0,Kandahar,31.6133,65.7101,2,Pajhwok Afghan News,National,"Police forces killed one civilian and wounded 3 others after a verbal clash in the March Agha Darbar locality of the 6th police district on the outskirts of Kandahar City, as reported on June 5.",1
CON1632669,2018 June,9,Violence against civilians,Taliban,0,Civilians (Afghanistan),0,7,27,Southern Asia,Afghanistan,Takhar,Darqad,0,Darqad,37.3841,69.4529,2,Xinhua General News Service,International,"Suspected Taliban militants abducted a female candidate for district council election and her brother in Darqad District, Takhar Province, on June 5.",0
CON1632692,2018 June,9,Violence against civilians,Unidentified Armed Group (Afghanistan),0,Civilians (Afghanistan),Muslim Group (Afghanistan),7,37,Southern Asia,Afghanistan,Khost,Mandozai,0,Lalmay,33.2648,69.8219,2,Associated Press International; Pajhwok Afghan News,National-International,"Unidentified gunmen opened fire from a drive-by car at about 15 people praying in a mosque in the Lalmay area of Mandozai District, Khost Province on the afternoon of June 6. 2-4 of the civilians were killed and another 3-5 injured.",2
CON1632699,2018 June,9,Violence against civilians,Unidentified Armed Group (Afghanistan),0,Civilians (Afghanistan),Muslim Group (Afghanistan),7,37,Southern Asia,Afghanistan,Herat,Zinda Jan,0,Zinda Jan,34.3426,61.7467,2,Pajhwok Afghan News,National,"Unidentified gunmen shot and killed a civilian in a mosque after prayers on June 6 in Zinda Jan District, Herat Province.",1
CON1632713,2018 June,9,Violence against civilians,Islamic State (Afghanistan),0,Civilians (Afghanistan),Muslim Group (Afghanistan),7,27,Southern Asia,Afghanistan,Nangarhar,Kama,0,Kama,34.4432,70.6565,2,BBC Monitoring; Sedai Khelafat al-Bayan,National-International,"IS claimed to have critically injured a religious scholar in Kama District, Nangarhar Province, as reported on June 7.",0
CON1632718,2018 June,9,Violence against civilians,Unidentified Armed Group (Afghanistan),0,Civilians (Afghanistan),Muslim Group (Afghanistan),7,37,Southern Asia,Afghanistan,Herat,Shindand,0,Shindand,33.3029,62.1474,2,BBC Monitoring; Afghan Islamic Press; Associated Press International; Khaama Press,National-International,"Up to 7 civilians were killed and 2-6 others wounded when Taliban militants targeted a mosque in Shindand District, Herat Province, on June 8.",7
CON1632735,2018 June,9,Violence against civilians,Unidentified Armed Group (Afghanistan),0,Civilians (Afghanistan),0,7,37,Southern Asia,Afghanistan,Nangarhar,Jalalabad,0,Jalalabad,34.4265,70.4515,1,BBC Monitoring; National Afghanistan TV,National-International,"At least 1 person was killed (along with the bomber) and 3 more injured in a suicide bombing in the 4th precinct of Jalalabad City, as reported on June 8.",2
CON1632739,2018 June,9,Violence against civilians,Military Forces of Afghanistan (2004-),0,Civilians (Afghanistan),0,7,17,Southern Asia,Afghanistan,Farah,Bala Buluk,0,Shewan,32.6296,62.4895,2,BBC Monitoring; Afghan Islamic Press,National-International,"Taliban claimed that security forces opened up fire on civilians, wounding a woman, after an incident where Afghan army soldiers hit a Taliban landmine in the Shewan area of Bala Buluk District, Farah Province, on June 8 (where 4-5 soldiers were killed and 3 others wounded).",0
CON1641879,2018 June,9,Violence against civilians,Unidentified Armed Group (Afghanistan),0,Civilians (Afghanistan),0,7,37,Southern Asia,Afghanistan,Kabul,Kabul,0,Kabul,34.5167,69.1833,1,Pajhwok Afghan News,National,Unidentified gunmen shot and killed a member of the High Peace General Council while he was walking alone near his home in Kabul City on June 10.,1
CON1641797,2018 June,9,Violence against civilians,Islamic State (Afghanistan),0,Civilians (Afghanistan),Government of Afghanistan (2004-),7,27,Southern Asia,Afghanistan,Kabul,Kabul,0,Kabul,34.5167,69.1833,1,BBC Monitoring; Telegram; Agence France Presse,International,A suicide bomber claimed by IS detonated himself on the afternoon of June 11 in Kabul City in front of the Ministry of Rural Rehabilitation and Development. 12-13 people were killed (plus the bomber) and 31 others wounded. IS claimed 90 people were killed or wounded.,13
CON1641692,2018 June,9,Violence against civilians,Taliban,0,Civilians (Afghanistan),Teachers (Afghanistan),7,27,Southern Asia,Afghanistan,Faryab,Khwaja Sabz Posh,0,Khwaja Sabz Posh,36.06,64.97,2,Pajhwok Afghan News,National,"Taliban militants shot and killed a teacher in Khwaja Sabz Posh District, Faryab Province, as reported on June 14.",1
CON1641699,2018 June,9,Violence against civilians,Taliban and/or Islamic State (Afghanistan),0,Civilians (Afghanistan),Doctors (Afghanistan),7,27,Southern Asia,Afghanistan,Nuristan,Kamdesh,0,Kamdesh,35.4167,71.3333,2,Associated Press International,International,"Suspected Taliban or IS militants kidnapped 7 staff members of a medical clinic if Kamdesh District, Nuristan Province, on the morning of June 14. The staff was later freed, but the militants also burned down the entire facility, which served 2000 people.",0
CON1640824,2018 June,9,Violence against civilians,Islamic State (Afghanistan),0,Civilians (Afghanistan),Taliban; Police Forces of Afghanistan (2004-),7,27,Southern Asia,Afghanistan,Nangarhar,Rodat,0,Rodat,34.272,70.5679,2,BBC Monitoring; Afghan Islamic Press; Agence France Presse,International,"The Islamic State claimed responsibility for a suicide bomber who detonated his explosives among a crowd of civilians, Taliban, and security forces (assumed police) (all assumed unarmed) celebrating the Eid holiday and ceasefire in Ghazi Amanollah Khan town, Rodat District, Nangarhar Province, on the evening of June 16. 36 people (plus the bomber) were killed and 65 others wounded.",37
CON1640925,2018 June,9,Violence against civilians,Islamic State (Afghanistan),0,Civilians (Afghanistan),Taliban; Jalalabad Tribal Group (Afghanistan),7,27,Southern Asia,Afghanistan,Nangarhar,Jalalabad,0,Jalalabad,34.4265,70.4515,1,Associated Press,International,"The Islamic State claimed responsibility for a suicide attack on a crowd celebrating Eid by the provincial governor's house in Jalalabad City on June 17. 18-19 people (plus the bomber) were killed and 60 injured. The victims included Taliban (assumed unarmed as it was a peaceful meeting), local elders, and civilians.",19
CON1640952,2018 June,9,Violence against civilians,Taliban,0,Civilians (Afghanistan),0,7,27,Southern Asia,Afghanistan,Paktika,Sharana,0,Sharan,33.1757,68.7304,3,BBC Monitoring; Noor TV,National-International,"The Taliban opened fire on a group of civilians who had come to their turf to ask them to extend their ceasefire in Paktika Province, as reported on June 20. No information on casualties.",0
CON1640964,2018 June,9,Violence against civilians,Islamic State (Afghanistan),0,Civilians (Afghanistan),Prisoners (Afghanistan),7,27,Southern Asia,Afghanistan,Jowzjan,Darzab,0,Sar Darah,35.9587,65.4494,2,Pajhwok Afghan News,National,"IS militants beheaded a middle-aged man whom they had previously kidnapped on charges of spying on June 21 in the Sar Darah area of Darzab District, Jowzjan Province. Not clear when the kidnapping occurred.",1
CON1640965,2018 June,9,Violence against civilians,Taliban,0,Civilians (Afghanistan),0,7,27,Southern Asia,Afghanistan,Badghis,Ab Kamari,0,Sang Atesh,35.248,63.0044,2,Pajhwok Afghan News,National,"Taliban militants carried out a follow-up attack on the funeral procession for pro-government militiamen they had killed earlier the same day on June 22 in Ab Kamari District, Badghis Province. 2 civilians were killed.",2
CON1640973,2018 June,9,Violence against civilians,Unidentified Armed Group (Afghanistan),0,Civilians (Afghanistan),Muslim Group (Afghanistan),7,37,Southern Asia,Afghanistan,Herat,Hirat,0,Herat,34.3482,62.1997,1,Bakhtar News Agency,National,Unidentified gunmen shot and killed a religious scholar in Herat City on the night of June 22.,1
CON1671068,2018 June,9,Violence against civilians,Unidentified Armed Group (Afghanistan),0,Civilians (Afghanistan),0,7,37,Southern Asia,Afghanistan,Farah,Farah,0,Chahar Burjak,32.3891,62.1309,2,Bakhtar News Agency,National,"Unidentified armed men (called ""invaders"") shot dead two women of the same family in the Chahar Burjak area of Farah district/province, as reported on June 24.",2
CON1671194,2018 June,9,Violence against civilians,Taliban,0,Civilians (Afghanistan),Government of Afghanistan (2004-),7,27,Southern Asia,Afghanistan,Paktika,Jani Khel,0,Jani Khel,32.7631,68.3972,2,Pajhwok Afghan News English,National,"Taliban gunmen shot and killed the district administrative chief outside his home in Jani Khel District, Paktika Province on June 27.",1
CON1671211,2018 June,9,Violence against civilians,Taliban,0,Civilians (Afghanistan),0,7,27,Southern Asia,Afghanistan,Ghor,Shahrak,0,Shahrak,34.1074,64.3052,2,BBC Monitoring; Noor TV,National-International,"Individuals affiliated with the Taliban flogged a woman in public in Shahrak District, Ghor Province, for trying to escape from home.",0
CON1724670,2018 July,9,Violence against civilians,Taliban,0,Civilians (Afghanistan),0,7,27,Southern Asia,Afghanistan,Sar-e Pol,Sar-e Pol,0,Sar-e Pol,36.2154,65.9325,3,BBC Monitoring; Ghaznawian TV,Subnational-International,"Taliban miliants shot and killed 4 members of a family in Sar-e Pol Province, as reported on July 7.",4
CON1721037,2018 July,9,Violence against civilians,Military Forces of Afghanistan (2004-) Special Forces,0,Civilians (Afghanistan),0,7,17,Southern Asia,Afghanistan,Khost,Bak,0,Bak,33.5317,70.0214,2,Pajhwok Afghan News English,National,"Afghan special forces conducted an operation against suspected militants in a civilian area of Pahlawankhel, Bak District, Khost Province, on the night of July 7. 5 members of a family were killed.",5
CON1757210,2018 July,9,Violence against civilians,Taliban,0,Civilians (Afghanistan),0,7,27,Southern Asia,Afghanistan,Badakhshan,Fayzabad,0,Fayzabad,37.1166,70.58,3,Pajhwok Afghan News English,National,A Taliban militant killed his uncle and cousin in the Maghzar Mir locality of Badakhshan Province on July 8. He had reportedly been seeking their help in joining the peace process.,2
CON1721127,2018 July,9,Violence against civilians,Taliban,0,Civilians (Afghanistan),0,7,27,Southern Asia,Afghanistan,Ghor,Charsadda,0,Qal-e Zubayd,34.9145,65.2884,2,Bakhtar News Agency,National,"Taliban militants kidnapped 2 employees of a construction company in Charsadda District, Ghor Province. They request 1,000,000 Afghanis (currency) in ransom.",0
CON1721143,2018 July,9,Violence against civilians,NATO: North Atlantic Treaty Organization,Military Forces of United States,Civilians (Afghanistan),0,7,78,Southern Asia,Afghanistan,Nangarhar,Jalalabad,0,Jalalabad,34.4265,70.4515,3,BBC Monitoring; Voice of the Islamic Republic of Iran,National-International,"US NATO forces killed 3 civilians and injured dozens more in Nangarhar Province, as reported on July 10. No further details provided.",3
CON1721165,2018 July,9,Violence against civilians,Islamic State (Afghanistan),0,Civilians (Afghanistan),Unidentified Tribal Group (Afghanistan),7,27,Southern Asia,Afghanistan,Nangarhar,Kot,0,Kot,34.1032,70.4607,2,BBC Monitoring; Sedai Khelafat al-Bayan,National-International,"IS militants executed an unidentified tribal elder in Kot District, Nangarhar Province, as reported on July 11.",1
CON1721253,2018 July,9,Violence against civilians,Taliban,0,Civilians (Afghanistan),Prisoners (Afghanistan),7,27,Southern Asia,Afghanistan,Farah,Bala Buluk,0,Bala Buluk,32.6357,62.4654,2,BBC Monitoring; Voice of Sharia,National-International,"Taliban fighters executed two men on charges of kidnapping in Bala Buluk District, Farah Province, as reported on July 13.",2
CON1724621,2018 July,9,Violence against civilians,Military Forces of Afghanistan (2004-),NATO: North Atlantic Treaty Organization; Military Forces of United States,Civilians (Afghanistan),Muslim Group (Afghanistan),7,17,Southern Asia,Afghanistan,Kapisa,Mahmud Raqi,0,Mahmud-e-Raqi,35.0164,69.3445,2,BBC Monitoring; Voice of Sharia,National-International,"The Taliban accused joint Afghan and US forces of raiding civilian homes in Kapisa Province and killing a religious scholar, as reported on July 14.",1
CON1724628,2018 July,9,Violence against civilians,Military Forces of Afghanistan (2004-) Special Forces,0,Civilians (Afghanistan),Prisoners (Afghanistan); Police Forces of Afghanistan (2004-); JMI: Junbish-i-Milli Islami,7,17,Southern Asia,Afghanistan,Faryab,Maymana,0,Maymana,35.9213,64.7841,3,BBC Monitoring; Noor TV; Pajhwok Afghan News English,National-International,"Reports on July 14 of video evidence of special forces soldiers torturing the guards of Qaisari, a district police chief associated with JMI chief Dostum, after they had arrested the guards a few weeks prior. The special forces commander denied it.",0
CON1724694,2018 July,9,Violence against civilians,Taliban,0,Civilians (International),Civilians (Russian); Civilians (Uzbekistan); Prisoners (Afghanistan); Islamic State (Afghanistan),7,27,Southern Asia,Afghanistan,Jowzjan,Darzab,0,Darzab,35.9774,65.3783,2,BBC Monitoring; Noor TV; Afghan Islamic Press,National-International,"ANA soldiers reported on July 14 that Taliban members had captured, raped, and killed 3 foreign (Chechen and Uzbek) women who supported the Islamic State in Darzab District, Jowzjan Province.",3
CON1724566,2018 July,9,Violence against civilians,Islamic State (Afghanistan),0,Civilians (Afghanistan),Government of Afghanistan (2004-); Military Forces of Afghanistan (2004-),7,27,Southern Asia,Afghanistan,Kabul,Kabul,0,Kabul,34.5167,69.1833,1,BBC Monitoring; Sedai Khelafat al-Bayan; Agence France Presse,National-International,"An IS-claimed suicide bomber blew himself up at the security gate of the Ministry of Rural Rehabilitation and Development in Kabul on July 15. 7 people plus the bomber were killed, including civilians and security forces, and 15 were wounded. IS claimed killing or wounding 60 people.",8
CON1724794,2018 July,9,Violence against civilians,Taliban,0,Civilians (Afghanistan),0,7,27,Southern Asia,Afghanistan,Urozgan,Chora,0,Chora,33.0517,66.7421,2,BBC Monitoring; Paiwastoon Ghag,Subnational-International,"The NDS reported that the Taliban shot and killed 4 civilians, including a woman, in Chora District, Urozgan Province, as reported on July 15.",4
CON1734300,2018 July,9,Violence against civilians,Taliban,0,Civilians (Afghanistan),0,7,27,Southern Asia,Afghanistan,Urozgan,Gizab,0,Gizab,33.3377,66.2843,2,BBC Monitoring; Afghanistan Television,National,"A Taliban attack killed 4 civilians in Gizab District, Urozgan Province, as reported on July 15.",4
CON1724760,2018 July,9,Violence against civilians,Islamic State (Afghanistan),0,Civilians (Afghanistan),Taliban,7,27,Southern Asia,Afghanistan,Sar-e Pol,Sayyad,0,Sayyad,35.9339,66.593,2,BBC Monitoring; Afghan Islamic Press; Agence France Presse; Associated Press International; Pajhwok Afghan News English,National-International,"An IS suicide bomber attacked a Taliban funeral gathering in the Ajrin/Ajeram area of Sayyad District, Sar-e Pol Province on July 17. 16-22 people were killed, including a Taliban commander, and 5 were wounded. Up to 15 of the fatalities were civilians.",16
CON1757214,2018 July,9,Violence against civilians,Taliban,0,Civilians (Afghanistan),Military Forces of Afghanistan (2004-),7,27,Southern Asia,Afghanistan,Kabul,Kabul,0,Kabul,34.5167,69.1833,1,Khaama Press,National,"Taliban militants shot and killed an unarmed senior army officer, who was serving in a military hospital, on his way to work on July 18 in Kabul City.",1
CON1724603,2018 July,9,Violence against civilians,Islamic State (Afghanistan),0,Civilians (Afghanistan),Labour Group (Afghanistan),7,27,Southern Asia,Afghanistan,Kunar,Dara i Pech,0,Dara i Pech,34.9844,70.9051,2,Khaama Press,National,"Taliban militants abducted 12 de-miners from a company in Dara I Pech District, Kunar Province, as reported on July 19.",0
CON1734308,2018 July,9,Violence against civilians,Taliban,0,Civilians (Afghanistan),Government of Afghanistan (2004-),7,27,Southern Asia,Afghanistan,Logar,Mohammad Agha,0,Mohammad Agha,34.2118,69.0999,2,BBC Monitoring; Voice of Sharia,National,"Taliban fighters killed a key government officer in Mohammad Agha District, Logar Province, as reported on July 20.",1
CON1734375,2018 July,9,Violence against civilians,Unidentified Armed Group (Afghanistan),0,Civilians (Afghanistan),Muslim Group (Afghanistan),7,37,Southern Asia,Afghanistan,Nangarhar,Surkh Rod,0,Sultanpur,34.412,70.2963,2,Associated Press International; Pajhwok Afghan News English,National-International,"Unidentified gunmen opened fire on worshippers inside a mosque in Shamshpor village, Surkh Rod District, Nangarhar Province, on July 22. 4 civilians were killed and 3, including the imam, were injured.",4
CON1750980,2018 July,9,Violence against civilians,Taliban,0,Civilians (Afghanistan),0,7,27,Southern Asia,Afghanistan,Ghor,Dawlat Yar,0,Delak,34.4119,65.9286,2,BBC Monitoring; Ghaznawian TV,Subnational-International,"The Taliban kidnapped at least 6 civilians in Dawlat Yar District, Ghor Province, a few days prior to July 25. They were released on that day via tribal elders' mediation.",0
CON1750983,2018 July,9,Violence against civilians,Unidentified Armed Group (Afghanistan),0,Civilians (Afghanistan),0,7,37,Southern Asia,Afghanistan,Nangarhar,Surkh Rod,0,Sultanpur,34.412,70.2963,2,BBC Monitoring; Ghaznawian TV,Subnational,On 23-August-2018 7 civilians were killed and wounded by unidentified armed militants who attacked a mosque in the Surk Rod district of Nangarhar province.,3
CON1734463,2018 July,9,Violence against civilians,Unidentified Armed Group (Afghanistan),0,Civilians (Afghanistan),Health Workers (Afghanistan); Students (Afghanistan),7,37,Southern Asia,Afghanistan,Ghor,Chaghcharan,0,Chaghcharan,34.5195,65.2509,3,Associated Press International,International,"Unidentified gunmen kidnapped 6 civilians (a doctor, his driver, and 4 university students; 3 women are among the 6) in Ghor Province, as reported on July 24.",0
CON1734487,2018 July,9,Violence against civilians,Islamic State (Afghanistan),0,Civilians (Afghanistan),Prisoners (Afghanistan),7,27,Southern Asia,Afghanistan,Kunar,Dara i Pech,0,Dara i Pech,34.9844,70.9051,2,BBC Monitoring; Telegram,Other-Local,"The Islamic State executed 4 civilians they had captured that they claimed were spies for the American and Afghan armies in Dara I Pech District, Kunar Province on July 25.",4
CON1734488,2018 July,9,Violence against civilians,Unidentified Armed Group (Afghanistan),0,Civilians (Afghanistan),JI: Jamiat-e-Islami,7,37,Southern Asia,Afghanistan,Panjshir,Bazarak,0,Bazarak,35.3129,69.5152,3,BBC Monitoring; Facebook,Other-Local,"Unidentified people killed a Jamiat-e-Islami commander and 3 of his family members in Panjshir Province, as reported on July 25.",4
CON1750999,2018 July,9,Violence against civilians,Unidentified Armed Group (Afghanistan),0,Civilians (Afghanistan),0,7,37,Southern Asia,Afghanistan,Ghazni,Ghazni,0,Ghazni,33.5508,68.4225,1,BBC Monitoring; Ghaznawian TV,Subnational,"On 27-July-2018 1 civilian was killed by grenades thrown by unidentified armed militants at the residential house of the Secretary of the Provincial Council in Ghazni City, Ghazni district, Ghazni province.",1
CON1751053,2018 July,9,Violence against civilians,Taliban,0,Civilians (Afghanistan),Unidentified Tribal Group (Afghanistan),7,27,Southern Asia,Afghanistan,Faryab,Khwaja Sabz Posh,0,Khwaja Sabz Posh,36.06,64.97,2,Pajhwok Afghan News English,National,"The Taliban kidnapped an unidentified tribal elder and his associate in Khwaja Sabz Posh District, Faryab Province on July 29.",0
CON1751056,2018 July,9,Violence against civilians,Taliban,0,Civilians (Afghanistan),0,7,27,Southern Asia,Afghanistan,Parwan,Shekh Ali,0,Shekh Ali,34.9474,68.5123,2,Pajhwok Afghan News English,National,"The Taliban kidnapped 9 civilian passengers of a car in the Lali Tangi area of Shekh Ali District, Parwan Province on the evening of July 29. They released 2 the next day.",0
CON1751065,2018 July,9,Violence against civilians,Unidentified Armed Group (Afghanistan),0,Civilians (Afghanistan),Aid Workers (International),7,37,Southern Asia,Afghanistan,Faryab,Almar,0,Almar,35.8462,64.5307,2,Bakhtar News Agency,National,"Unidentified armed men assassinated a local employee of ACTED (an international aid agency) in the Kotal Shrenk region of Almar District, Faryab province on July 29. The gunmen fled.",1
CON1751076,2018 July,9,Violence against civilians,Taliban,0,Civilians (Afghanistan),0,7,27,Southern Asia,Afghanistan,Paktia,Gardez,0,Gardez,33.5974,69.2259,1,Agence France Presse; Bakhtar News Agency,National,"The Taliban kidnapped 22 passengers of a civilian bus in the Kotal Tera region of Gardez city, Paktia Province on the night of July 30. 11 of the kidnapped were rescued by policemen and mediation efforts by Aug 1.",0
CON1751077,2018 July,9,Violence against civilians,Taliban,0,Civilians (Afghanistan),Unidentified Tribal Group (Afghanistan); Prisoners (Afghanistan),7,27,Southern Asia,Afghanistan,Faryab,Khwaja Sabz Posh,0,Khwaja Sabz Posh,36.06,64.97,2,Pajhwok Afghan News English,National,"The Taliban beheaded an unidentified tribal elder in Khwaja Sabz Posh District, Faryab Province on July 30 after kidnapping him and his associate the day before.",1
CON1751100,2018 July,9,Violence against civilians,Taliban,0,Civilians (Afghanistan),0,7,27,Southern Asia,Afghanistan,Farah,Bala Buluk,0,Bala Buluk,32.6357,62.4654,2,BBC Monitoring; Afghan Islamic Press; Bakhtar News Agency,National-International,"A suspected Taliban-planted suicide bomb detonated on a civilian bus in the Lakhshak region of Bala Buluk District, Farah Province on July 31. 8-11 civilians were killed and up to 31 were wounded.",8
CON1751106,2018 July,9,Violence against civilians,Taliban,0,Civilians (Afghanistan),0,7,27,Southern Asia,Afghanistan,Faryab,Kohistan,0,Qala,35.3821,64.7566,2,Khaama Press; Pajhwok Afghan News English,National,"Taliban militants kidnapped the wife and teenage daughter of a public uprising soldier along with 4-6 children in Kohistan District, Faryab Province on July 31.",0
CON1751108,2018 July,9,Violence against civilians,Taliban,0,Civilians (Afghanistan),0,7,27,Southern Asia,Afghanistan,Logar,Mohammad Agha,0,Mohammad Agha,34.2118,69.0999,2,BBC Monitoring; Ariana TV; Bakhtar News Agency,National-International,"The Taliban abducted a money-changer and held him for ransom sometime on or before July 31 in the Zarghoonshah village, Mohammad Agha District, Logar Province. He was rescued by ANA forces, as reported on July 31. Another source reported he was killed by unidentified gunmen.",0
CON1751130,2018 July,9,Violence against civilians,Unidentified Armed Group (Afghanistan),0,Civilians (Afghanistan),0,7,37,Southern Asia,Afghanistan,Kabul,Kabul,0,Kabul,34.5167,69.1833,3,BBC Monitoring; Ghaznawian TV,Subnational,"On 31-July-2018 16 civilians were kidnapped by unidentified militants on the Kabul-Paktia highway, Kabul province.",0
CON1751155,2018 August,9,Violence against civilians,Taliban,0,Civilians (Afghanistan),Prisoners (Afghanistan),7,27,Southern Asia,Afghanistan,Faryab,Kohistan,0,Qala,35.3821,64.7566,2,Khaama Press; Pajhwok Afghan News English,National,"Taliban militants shot dead the wife and teenage daughter of a public uprising soldier who they had kidnapped a day earlier in Kohistan District, Faryab Province.",2
CON1751169,2018 August,9,Violence against civilians,Islamic State (Afghanistan),0,Civilians (Afghanistan),0,7,27,Southern Asia,Afghanistan,Nangarhar,Chaparhar,0,Chaparhar,34.2774,70.3618,2,BBC Monitoring; Sedai Khelafat al-Bayan,National-International,"IS militants claimed to have killed a fortune teller in the Chaparhar District, Nangarhar Province, as reported on Aug 2.",1
CON1751189,2018 August,9,Violence against civilians,Unidentified Armed Group (Afghanistan),0,Civilians (International),Prisoners (International),7,37,Southern Asia,Afghanistan,Kabul,Mussahi,0,Mussahi,34.3667,69.2167,2,BBC Monitoring; Tolo News TV; Agence France Presse,National-International,"Unidentified militants abducted and later murdered 3 female foreign workers (Indian, Malaysian, Macedonian) of the French services company Sodexo on Aug 2. They were abducted from PD9 of Kabul City, and their bodies were found about an hour later in Mussahi District.",3
CON1751191,2018 August,9,Violence against civilians,Unidentified Armed Group (Afghanistan),0,Civilians (Afghanistan),Police Forces of Afghanistan (2004-) Afghan Local Police,7,37,Southern Asia,Afghanistan,Paktika,Yosuf Khel,0,Yosuf Khel,33.0519,68.65,2,Pajhwok Afghan News English,National,"Unidentified gunmen attacked an off-duty ALP commander travelling with his family in Kotwal village, Yosuf Khel District, Paktika Province on Aug 2. The man's wife and daughter were killed while he and two other children were injured. The Taliban denied involvement.",2
CON1751244,2018 August,9,Violence against civilians,Unidentified Armed Group (Afghanistan),0,Civilians (Afghanistan),0,7,37,Southern Asia,Afghanistan,Urozgan,Tarinkot,0,Tarinkot,32.6268,65.8733,3,BBC Monitoring; Paiwastoon Radio,National,"On 04-August-2018 it was reported that unidentified gunmen abducted 3 civilians near the Urozgan-Kandahar highway, Urozgan province.",0
CON1751264,2018 August,9,Violence against civilians,Unidentified Armed Group (Afghanistan),0,Civilians (Afghanistan),0,7,37,Southern Asia,Afghanistan,Farah,Farah,0,Farah,32.3745,62.1164,1,Pajhwok Afghan News English,National,"On 05-August-2018 a civilian was killed by unidentified armed militants in the Qala-i-Zaman area of Farah city, Farah district, Farah province.",1
CON1751288,2018 August,9,Violence against civilians,Unidentified Armed Group (Afghanistan),0,Civilians (Afghanistan),Unidentified Tribal Group (Afghanistan),7,37,Southern Asia,Afghanistan,Takhar,Chah Ab,0,Chah Ab,37.3977,69.8146,2,Bakhtar News Agency,National,On 06-August-2018 1 tribal elder was assassinated and another civilian was wounded by an unidentified gunman in the Argshah area of Chah Ab district of Takhar province.,1
CON1751492,2018 August,9,Violence against civilians,Islamic State (Afghanistan),0,Civilians (Afghanistan),0,7,27,Southern Asia,Afghanistan,Kabul,Kabul,0,Kabul,34.5167,69.1833,1,Al Jazeera,International,"On 15-August-2018 34 civilians were killed and dozens wounded by an Islamic State suicide bomber who detonated in front of an education center in the Dasht-e-Barachi area of Kabul city, Kabul district, Kabul province.",35
CON1751643,2018 August,9,Violence against civilians,Taliban,0,Civilians (Afghanistan),0,7,27,Southern Asia,Afghanistan,Kunduz,Khan Abad,0,Khan Abad,36.683,69.1128,2,Bakhtar News Agency,National,"On 20-August-2018 civilians on 3 buses were abducted by Taliban militants on the Kunduz-Takhar highway in the Naekpai region of Khan Abad district, Kunduz province.",0
CON1751663,2018 August,9,Violence against civilians,Islamic State (Afghanistan),0,Civilians (Afghanistan),0,7,27,Southern Asia,Afghanistan,Nangarhar,Jalalabad,0,Jalalabad,34.4265,70.4515,1,BBC Monitoring; Sedai Khelafat al-Bayan,Subnational,"On 21-August-2018 civilians were attacked by Islamic State militants at the Nangarhar governor office in Jalalabad city, Jalalabad district, Nangarhar province. No casualties reported.",0
CON1989860,2018 August,9,Violence against civilians,Unidentified Armed Group (Afghanistan),0,Protesters (Afghanistan),0,6,36,Southern Asia,Afghanistan,Nangarhar,Jalalabad,0,Jalalabad,34.4265,70.4515,1,Bakhtar News Agency,National,"On 25-August-2018 multiple peaceful protesters were killed when an unidenfied armed militant detonated his suicide vest in front of an election commission's office in Jalalabad city, Nangarhar province. Unknown fatalities coded as 10.",11
CON1751740,2018 August,9,Violence against civilians,Islamic State (Afghanistan),0,Civilians (Afghanistan),0,7,27,Southern Asia,Afghanistan,Nangarhar,Chaparhar,0,Chaparhar,34.2774,70.3618,2,BBC Monitoring; Sedai Khelafat al-Bayan radio,Subnational,"On 27-August-2018, it was reported that 1 civilian was killed by Islamic State militants on charges of spying for the US in Chaparhar district, Nangarhar province.",1
CON1751742,2018 August,9,Violence against civilians,Islamic State (Afghanistan),0,Civilians (Afghanistan),0,7,27,Southern Asia,Afghanistan,Nangarhar,Dih Bala,0,Dih Bala,34.0923,70.469,2,BBC Monitoring; Sedai Khelafat al-Bayan radio,Subnational,"On 27-August-2018, 1 civilian was killed by Islamic State militants for being an ""apostate"" in Dih Bala district, Nangarhar province.",1
CON1751792,2018 August,9,Violence against civilians,Taliban,0,Civilians (Afghanistan),0,7,27,Southern Asia,Afghanistan,Herat,Shindand,0,Shindand,33.3029,62.1474,2,BBC Monitoring; Herat TV,Subnational,"On 28-August-2018, it was reported that a civilian was killed by Taliban militants in the Shindand district of Herat province.",1
CON1862186,2018 August,9,Violence against civilians,Unidentified Armed Group (Afghanistan),0,Civilians (Afghanistan),Government of Afghanistan (2004-),7,37,Southern Asia,Afghanistan,Badakhshan,Fayzabad,0,Fayzabad,37.1166,70.58,3,BBC Monitoring; Noor TV,National,"On 31-August-2018, it was reported that 5 employees of the provincial education department were killed by unidentified armed gunmen in Badakshan province.",5
CON1751843,2018 September,9,Violence against civilians,Unidentified Armed Group (Afghanistan),0,Civilians (Afghanistan),Muslim Group (Afghanistan),7,37,Southern Asia,Afghanistan,Balkh,Mazar-e Sharif,0,Mazar-e Sharif,36.709,67.1109,1,Pajhwok Afghan News Agency,National,"On 01-September-2018, an imam was killed by unidentified armed militants in Mazar-e Sharif city, Mazar-e Sharif district, Balkh province.",1
CON1757342,2018 September,9,Violence against civilians,Islamic State (Afghanistan),0,Civilians (Afghanistan),Journalists (Afghanistan),7,27,Southern Asia,Afghanistan,Kabul,Kabul,0,Kabul,34.5167,69.1833,1,Xinhua General News Service,International,"On 06-September-2018, 25 people were killed, including 2 Tolo News journalists, and 90 others wounded in a double suicide bombing conducted by Islamic State militants at a sports gym in the Dasht-i-Barchi area of Kabul city, Kabul district, Kabul province.",25
CON1862215,2018 September,9,Violence against civilians,Unidentified Armed Group (Afghanistan),0,Civilians (Afghanistan),0,7,37,Southern Asia,Afghanistan,Kabul,Kabul,0,Kabul,34.5167,69.1833,1,BBC Monitoring; Paiwastoon Ghag,Subnational,"On 09-September-2018, 20 civilians were injured by aerial shooting by loyalists of deceased Ahmad Shah Massoud in Kabul city. September 9 is marked each year as the day Massoud was assassinated.",0
CON1862216,2018 September,9,Violence against civilians,Islamic State (Afghanistan),0,Civilians (Afghanistan),0,7,27,Southern Asia,Afghanistan,Kabul,Kabul,0,Kabul,34.5167,69.1833,1,Radio Free Europe,International,"On 09-September-2018, 7 civilians were killed and 25 others were injured by a suicide attack conducted by an Islamic State militant on a motorcycle who targeted a procession of Ahmad Shah Massoud (deceased) supporters in Kabul city. Masud was a former military leader in the country and September 9th is marked each year as the day he was assassinated.",8
CON1862220,2018 September,9,Violence against civilians,Unidentified Armed Group (Afghanistan),0,Civilians (Afghanistan),0,7,37,Southern Asia,Afghanistan,Nangarhar,Mohmand Dara,0,Mohmand Dara,34.2553,70.8657,2,BBC Monitoring; Radio Bost,Subnational,"On 09-September-2018, 2 civilians were killed and 5 others wounded by unidentified armed militants (kidnappers) in Mohmand Dara district, Nangarhar province.",2
CON1862279,2018 September,9,Violence against civilians,Unidentified Armed Group (Afghanistan),0,Civilians (Afghanistan),Protesters (Afghanistan); Shinwari Communal Group (Afghanistan),7,37,Southern Asia,Afghanistan,Nangarhar,Mohmand Dara,0,Mohmand Dara,34.2553,70.8657,2,Bakhtar News Agency,National,"On 11-September-2018, an unidentified armed militant conducted a suicide bombing targeting demonstrators from the Shinwari community in Mohmand Dara district of Nangarhar province. No fatalities other than the bomber were reported.",1
CON1862314,2018 September,9,Violence against civilians,Unidentified Armed Group (Afghanistan),0,Civilians (Afghanistan),Former Government of Afghanistan (2004-),7,37,Southern Asia,Afghanistan,Kabul,Kabul,0,Kabul,34.5167,69.1833,1,Pajhwok Afghan News,Subnational,"On 13-September-2018, a former lawmaker and Wolesi Jirga (lower house of National Assembly) candidate was wounded in an attack by unidentified armed militants in Kabul city, Kabul province.",0
CON1882420,2018 September,9,Violence against civilians,Unidentified Armed Group (Afghanistan),0,Civilians (Afghanistan),0,7,37,Southern Asia,Afghanistan,Nangarhar,Surkh Rod,0,Sultanpur,34.412,70.2963,2,Bakhtar News Agency,National,"On 17-September-2018, 3 civilians were killed and 2 wounded in an attack by unidentified armed militants at the Pir Sahib shrine in Surkh Rod district, Nangarhar province.",3
CON1882422,2018 September,9,Violence against civilians,Unidentified Armed Group (Afghanistan),0,Civilians (Afghanistan),Muslim Group (Afghanistan),7,37,Southern Asia,Afghanistan,Baghlan,Baghlani Jadid,0,Baghlani Jadid,36.1201,68.6819,2,Bakhtar News Agency,National,"On 18-September-2018, an imam was killed by unidentified armed militants in the Haji Bazar area of Baghlan Jadid (Baghlani Markazi) district of Baghlan province.",1
CON1882427,2018 September,9,Violence against civilians,Police Forces of Afghanistan (2004-),0,Civilians (Afghanistan),National Coalition of Afghanistan,7,17,Southern Asia,Afghanistan,Nangarhar,Jalalabad,0,Jalalabad,34.4265,70.4515,1,BBC Monitoring; Sharq TV,Subnational,"On 18-September-2018, it was reported that several civilians associated with the National Coalition of Afghanistan were wounded by gunfire conducted by Afghan Police in Jalalabad city, Nangarhar province. The Police dispute the allegations.",0
CON1882431,2018 September,9,Violence against civilians,Military Forces of Afghanistan (2004-),0,Civilians (Afghanistan),0,7,17,Southern Asia,Afghanistan,Nangarhar,Khogyani,0,Kaga,34.2409,70.1827,2,BBC Monitoring; Afghan Islamic Press News Agency,Regional,"On 18-September-2018, 16 civilians were killed in operations conducted by Afghan Military Forces in the Khogyani district of Nangarhar province.",16
CON1882470,2018 September,9,Violence against civilians,Unidentified Armed Group (Afghanistan),0,Civilians (Afghanistan),Hazara Ethnic Group (Afghanistan); Shiite Muslim Group (Afghanistan),7,37,Southern Asia,Afghanistan,Ghazni,Ghazni,0,Ghazni,33.5508,68.4225,2,Pajhwok Afghan News Service,National,"On 20-September-2018, 1 civilian associated with the Hazara ethnic group was injured by gunfire conducted by unidentified armed militants at an Ashura gathering in the Amir Khan Qala area of Ghazni city, Ghazni district, Ghazni province.",0
CON1876631,2018 September,9,Violence against civilians,Military Forces of Afghanistan (2004-),0,Civilians (Afghanistan),0,7,17,Southern Asia,Afghanistan,Kunduz,Chardara,0,Chardara,36.691,68.7965,2,Pajhwok Afghan News Agency,National,"On 25-September-2018, 4 civilians were killed and 3 others wounded in operations conducted by Afghan Military forces in the Chardara district of Kunduz province.",4
CON1876638,2018 September,9,Violence against civilians,Unidentified Armed Group (Afghanistan),0,Civilians (Afghanistan),0,7,37,Southern Asia,Afghanistan,Kandahar,Kandahar,0,Kandahar,31.6133,65.7101,1,Pajhwok Afghan News Agency,National,"On 25-September-2018, 1 civilian who was an independent candidate for the upcoming Wolesi Jirga election was killed by unidentified armed militants in the 2nd police district of Kandahar city, Kandahar district, Kandahar province.",1
CON1876652,2018 September,9,Violence against civilians,Islamic State (Afghanistan),0,Civilians (Afghanistan),Shiite Muslim Group (Afghanistan),7,27,Southern Asia,Afghanistan,Kunduz,Kunduz,0,Kunduz,36.729,68.857,1,BBC Monitoring; Telegram,Other,"On 26-September-2018, 1 Shiite civilian was killed and another injured in an attack by Islamic State militants in Kunduz city, Kunduz district, Kunduz province.",1
CON1885466,2018 September,9,Violence against civilians,NATO: North Atlantic Treaty Organization,0,Civilians (Afghanistan),0,7,78,Southern Asia,Afghanistan,Kunar,Narang Wa Badil,0,Kuz Narang,34.7482,71.0235,2,BBC Monitoring; Radio Bost,Subnational,"On 30-September-2018,3 civilians who were supporters of 2 parliamentary candidates were killed and 2 others wounded in an attack by NATO forces in the Narang Wa Badil district of Kunar province.",3
CON1889639,2018 October,9,Violence against civilians,Military Forces of Afghanistan (2004-),0,Civilians (Afghanistan),0,7,17,Southern Asia,Afghanistan,Kunar,Narang Wa Badil,0,Kuz Narang,34.7482,71.0235,2,BBC Monitoring; Ghaznawian TV,Subnational,"A local source claimed that Afghan security forces killed supporters (unknown fatalities coded as 10) of a parliamentary candidate in the upcoming elections in Narang wa Badil district, Kunar province, as reported on Oct 1.",10
CON1889637,2018 October,9,Violence against civilians,Islamic State (Afghanistan),0,Civilians (Afghanistan),0,7,27,Southern Asia,Afghanistan,Nangarhar,Kama,0,Kama,34.4432,70.6565,2,Associated Press International,International,"On 02-October-2018, it was reported that 13-14 civilians were killed (plus the bomber) and 30-40 were wounded by a suicide bombing conducted by Islamic State militants at an election rally in Kama district, Nangarhar province. The bombing targeted the rally of independent candidate Abdul Naser Mohmand, who was unharmed.",14
CON1885487,2018 October,9,Violence against civilians,Unidentified Armed Group (Afghanistan),0,Civilians (Afghanistan),0,7,37,Southern Asia,Afghanistan,Kabul,Kabul,0,Kabul,34.5167,69.1833,1,BBC Monitoring; Afghan Islamic Press news agency,Regional,"On 02-October-2018, 1 civilian who is an official for the Free and Fair Election Forum of Afghanistan was wounded by unidentified armed militants in the Karte-Seh area of Kabul city, Kabul district, Kabul province.",0
CON1885504,2018 October,9,Violence against civilians,Unidentified Armed Group (Afghanistan),0,Civilians (Afghanistan),0,7,37,Southern Asia,Afghanistan,Samangan,Hazrat-e Sultan,0,Hazrat-e Sultan,36.4507,67.8962,2,Pajhwok Afghan News,National,"On 03-October-2018, 3 civilians who were family members to a former jihadi commander were killed by a grenade thrown by unidentified armed militants in the Dwalat Abad village of Hazrat-e Sultan district, Samangan province.",3
CON1885513,2018 October,9,Violence against civilians,Unidentified Armed Group (Afghanistan),0,Civilians (Afghanistan),Government of Afghanistan (2004-),7,37,Southern Asia,Afghanistan,Faryab,Maymana,0,Maymana,35.9213,64.7841,3,Pajhwok Afghan News,National,"On 03-October-2018, it was reported that unidentified armed militants attacked the residence of a Wolesi Jirga candidate with grenades in northwestern Faryab province. No injuries or fatalities were reported.",0
CON2127186,2018 October,9,Violence against civilians,Unidentified Armed Group (Afghanistan),0,Civilians (Afghanistan),Government of Afghanistan (2004-),7,37,Southern Asia,Afghanistan,Kabul,Kabul,0,Kabul,34.5167,69.1833,1,BBC Monitoring; Noor TV,Subnational,"On 07-October-2018, unidentified armed militants threw grenades at the residence of head of the Electoral Complaints Commission (ECC) in Kabul city.",0
CON1897623,2018 October,9,Violence against civilians,Unidentified Armed Group (Afghanistan),0,Civilians (Afghanistan),Government of Afghanistan (2004-),7,37,Southern Asia,Afghanistan,Helmand,Lashkargah,0,Lashkargah,31.5938,64.3716,1,Xinhua General News Service,International,"On 09-October-2018, 8 civilians including parliamentary candidate Saleh Mohammad Achikzai were killed (plus the bomber) and 11 others wounded by an unidentified suicide bomber in Lashkargah city, Helmand province.",9
CON1889769,2018 October,9,Violence against civilians,Islamic State (Afghanistan),0,Civilians (Afghanistan),Prisoners (Afghanistan),7,27,Southern Asia,Afghanistan,Nangarhar,Mohmand Dara,0,Mohmand Dara,34.2553,70.8657,2,Bakhtar News Agency,National,"IS militants arrested and publicly shot 3 nomadic people in a ""desert court"" in Mohmand Dara district, Nangarhar province, as reported on Oct 10.",3
CON1889801,2018 October,9,Violence against civilians,Taliban,0,Civilians (Afghanistan),0,7,27,Southern Asia,Afghanistan,Faryab,Pashtun Kot,0,Pashtun Kot,35.9202,64.7809,2,Associated Press International; Khaama Press,National-International,"On Oct 11, 5 civilians and 10 Taliban militants were killed when a car bomb that Taliban were transporting towards Mainama detonated prematurely near Khwaja Namosi bazaar, Pashtun Kot district.",15
CON1893174,2018 October,9,Violence against civilians,Unidentified Armed Group (Afghanistan),0,Civilians (Afghanistan),0,7,37,Southern Asia,Afghanistan,Paktia,Gardez,0,Gardez,33.5974,69.2259,1,BBC Monitoring; Sharq TV,National,"On 12-October-2018, it was reported that unidentified armed militants attacked the office of Yarbaz Hamid, a parliamentary candidate, in Gardez city, Paktia province. No injuries or fatalities were reported.",0
CON1893208,2018 October,9,Violence against civilians,Unidentified Armed Group (Afghanistan),0,Civilians (Afghanistan),0,7,37,Southern Asia,Afghanistan,Badakhshan,Jurm,0,Jurm,36.8648,70.8342,2,BBC Monitoring; Afghan Islamic Press news agency,Regional,"On 14-October-2018, 3 civilians were injured by unidentified armed militants in an attack on a campaign rally for parliamentary candidate Zalmay Mujadaddi in the Chongai area of Jurm district, Badakshan province.",0
CON1893280,2018 October,9,Violence against civilians,Taliban,0,Civilians (Afghanistan),Government of Afghanistan (2004-),7,27,Southern Asia,Afghanistan,Parwan,Ghorband,0,Ghorband,34.9864,68.7083,2,Khaleej Times; Voice of Jihad,National,"On 19-October-2018, Taliban militants attacked voting centers in the Ghorband district of Parwan province. No casualties reported.",0
CON1893282,2018 October,9,Violence against civilians,Taliban,0,Civilians (Afghanistan),Government of Afghanistan (2004-),7,27,Southern Asia,Afghanistan,Herat,Adraskan,0,Adraskan,33.6457,62.2696,2,Khaleej Times; Voice of Jihad,National,"On 20-October-2018, Taliban militants attacked the Kharcho, Meer All and Dah Sabz election centers in Adraskan district, Herat province. No casualties were reported.",0
CON1893283,2018 October,9,Violence against civilians,Taliban,0,Civilians (Afghanistan),Government of Afghanistan (2004-),7,27,Southern Asia,Afghanistan,Ghor,Chaghcharan,0,Chaghcharan,34.5195,65.2509,1,Khaleej Times; Voice of Jihad,National,"On 20-October-2018, 6 civilians election workers were killed in the Peroz Koh area of Chaghcharan city, Chaghcharan district, Ghor province.",6
CON1893285,2018 October,9,Violence against civilians,Taliban,0,Civilians (Afghanistan),Government of Afghanistan (2004-),7,27,Southern Asia,Afghanistan,Herat,Ghoryan,0,Ghoryan,34.3448,61.4932,2,Khaleej Times; Voice of Jihad,National,"On 20-October-2018, Taliban militants attacked election centers in the Gand Mani and Babai areas of Ghoryan district, Herat province. No casualties reported.",0
CON1893294,2018 October,9,Violence against civilians,Taliban,0,Civilians (Afghanistan),Government of Afghanistan (2004-),7,27,Southern Asia,Afghanistan,Herat,Pashtun Zarghun,0,Pashtun Zarghun,34.2989,62.63,2,Khaleej Times; Voice of Jihad,National,"On 20-October-2018, Taliban militants attacked the election center in Toran area of Pashtun Zarghun district, Herat province. No injuries or fatalities were reported.",0
CON1893296,2018 October,9,Violence against civilians,Taliban,0,Civilians (Afghanistan),Government of Afghanistan (2004-),7,27,Southern Asia,Afghanistan,Herat,Shindand,0,Shindand,33.3029,62.1474,2,Khaleej Times; Voice of Jihad,National,"On 20-October-2018, Taliban militants attacked election centers in the Fardo and Bazar Kona areas in Shindand district, Herat province. No injuries or fatalities were reported.",0
CON1893301,2018 October,9,Violence against civilians,Taliban,0,Civilians (Afghanistan),Government of Afghanistan (2004-),7,27,Southern Asia,Afghanistan,Paktika,Yosuf Khel,0,Yosuf Khel,33.0519,68.65,2,Khaleej Times; Voice of Jihad,National,"On 20-October-2018, it was reported that Taliban militants attacked polling stations in Yosef Khel district, Paktika province. No casualties reported.",0
CON1897909,2018 October,9,Violence against civilians,Unidentified Armed Group (Afghanistan),0,Civilians (Afghanistan),Government of Afghanistan (2004-),7,37,Southern Asia,Afghanistan,Balkh,Nahri Shahi,0,Nahri Shahi,36.8544,67.18,2,BBC Monitoring; Noor TV,National,"On 21-October-2018, it was reported that 4 parliamentary election observers were killed by unidentified armed militants in the Nahri Shahi district of Balkh province.",4
CON1897930,2018 October,9,Violence against civilians,Military Forces of Afghanistan (2004-),0,Civilians (Afghanistan),0,7,17,Southern Asia,Afghanistan,Nangarhar,Surkh Rod,0,Sultanpur,34.412,70.2963,2,BBC Monitoring; Afghan Channel One,National,"On 22-October-2018, it was reported that 4 civilians were killed by Afghan Military Forces in Surkh Rod district, Nangarhar province.",4
CON1897940,2018 October,9,Violence against civilians,Military Forces of Afghanistan (2004-),0,Civilians (Afghanistan),0,7,17,Southern Asia,Afghanistan,Nangarhar,Rodat,0,Rodat,34.272,70.5679,2,BBC Monitoring; Afghan Islamic Press news; RFERL,Regional,"On 23-October-2018, at least 14 Afghan civilians were killed in operations that were conducted by Afghan Military Forces in the Shahidano Mina area of Rodat district, Nangarhar province. Local residents protested the civilian deaths and blocked the Jalalabad-Torkham road.",14
CON1897945,2018 October,9,Violence against civilians,Unidentified Armed Group (Afghanistan),0,Civilians (Afghanistan),Labour Group (Afghanistan),7,37,Southern Asia,Afghanistan,Nangarhar,Kot,0,Kot,34.1032,70.4607,2,Xinhua General News Service,International,"On 23-October-2018, it was reported that an official from an Afghan central bank was killed by unidentified armed militants in Kot district in Nangarhar province.",1
CON1947843,2018 October,9,Violence against civilians,Taliban,0,Civilians (Afghanistan),0,7,27,Southern Asia,Afghanistan,Helmand,Nahri Saraj,0,Girishk,31.8209,64.57,2,BBC Monitoring; Helmand Local Radio,Subnational,"On 24-October-2018, it was reported that 1 civilian was kidnapped and had a finger amputated by Taliban militants for voting in the parliamentary elections in the Nahri Saraj (Girishk) district of Helmand province.",0
CON1947844,2018 October,9,Violence against civilians,Taliban,0,Civilians (Afghanistan),0,7,27,Southern Asia,Afghanistan,Kandahar,Kandahar,0,Kandahar,31.6133,65.7101,3,Bakhtar News Agency,National,"On 26-October-2018, 35 civilians from the Kajran district of Daykundi province were abducted by Taliban militants in Kandahar province. No injuries or fatalities were reported.",0
CON1897972,2018 October,9,Violence against civilians,Taliban,0,Civilians (Afghanistan),0,7,27,Southern Asia,Afghanistan,Wardak,Maidan Shar,0,Maidan Shar,34.3956,68.8662,1,Xinhua General News Service,International,"On 27-October-2018, 6 civilians were killed and 12 wounded by a Taliban SBVIED in Maidan Shar city, Wardak province. The Taliban claims there was a higher fatality count.",7
CON1947913,2018 October,9,Violence against civilians,Unidentified Armed Group (Afghanistan),0,Civilians (Afghanistan),Government of Afghanistan (2004-),7,37,Southern Asia,Afghanistan,Kabul,Kabul,0,Kabul,34.5167,69.1833,1,Xinhua General News Service; Al Jazeera,International,"On 31-October-2018, 7 prison employees were killed and multiple others wounded by a unidentified suicide bomber who detonated on their bus near the Pul-Charkhi prison in Kabul city.",8
CON1955163,2018 November,9,Violence against civilians,Taliban,0,Civilians (Afghanistan),0,7,27,Southern Asia,Afghanistan,Parwan,Ghorband,0,Ghorband,34.9864,68.7083,2,Khaama Press,National,"On 09-November-2018, 1 civilian was killed by Taliban militants who fired upon houses in the Chahar Dara area of Ghorband (Sia Gerd) district of Parwan province.",1
CON1955168,2018 November,9,Violence against civilians,Taliban,0,Civilians (Afghanistan),0,7,27,Southern Asia,Afghanistan,Nangarhar,Surkh Rod,0,Fatehabad,34.3574,70.2391,1,Bakhtar News Agency,National,"On 10-November-2018, 1 civilian was abducted and killed by Taliban militants in Fatehabad village, Surkh Rod district, Nangarhar province.",1
CON1988171,2018 November,9,Violence against civilians,Unidentified Armed Group (Afghanistan),0,Civilians (Afghanistan),Unidentified Tribal Group (Afghanistan),7,37,Southern Asia,Afghanistan,Herat,Injil,0,Injil,34.3016,62.2465,2,Pajhwok Afghan News English,National,"On 12-November-2018, 1 civilian who was a tribal elder was killed by unidentified gunmen in the in the Injil district of Herat province.",1
CON2127248,2018 November,9,Violence against civilians,Unidentified Armed Group (Afghanistan),0,Civilians (Afghanistan),Judges (Afghanistan),7,37,Southern Asia,Afghanistan,Parwan,Bagram,0,Bagram,34.9669,69.265,2,BBC Monitoring; Afghan Islamic Press news agency,Regional,"On 17-November-2018, 1 district court judge was killed and 2 others were wounded by unidentified armed militants on the Kabul-Bagram main road in Bagram district, Parwan province.",1
CON2127285,2018 November,9,Violence against civilians,Unidentified Armed Group (Afghanistan),0,Civilians (Afghanistan),Hazara Ethnic Group (Afghanistan),7,37,Southern Asia,Afghanistan,Ghor,Chaghcharan,0,Chaghcharan,34.5195,65.2509,1,BBC Monitoring; Afghan Islamic Press news agency,Regional,"On 19-November-2018, 3 civilians who were of the Hazara ethnic group were killed and and 3 others were wounded in an attack by unidentified armed militants in Chaghcharan (Firoz Koh) city, Ghor province.",3
CON2127305,2018 November,9,Violence against civilians,Military Forces of Afghanistan (2004-),0,Civilians (Afghanistan),0,7,17,Southern Asia,Afghanistan,Logar,Mohammad Agha,0,Mohammad Agha,34.2118,69.0999,2,Pajhwok Afghan News English,National,"On 20-November-2018, 8 civilians were killed by Afghan Military Forces in operations in the Ab Bazak locality of Mohammad Agha district, Logar province. Taliban militants claim the fatality numbers were higher.",8
CON2127308,2018 November,9,Violence against civilians,Unidentified Armed Group (Afghanistan),0,Civilians (Afghanistan),Sunni Muslim Group (Afghanistan),7,37,Southern Asia,Afghanistan,Kabul,Kabul,0,Kabul,34.5167,69.1833,1,Xinhua General News Service; Washington Post,International,"On 20-November-2018, at least 55 people were killed and 94 others were wounded by an unidentified suicide bomber who attacked a wedding hall during a gathering of Sunni clerics for Eid Milad-un-Nabi in Kabul city. Taliban denied involvement.",56
CON2127328,2018 November,9,Violence against civilians,Military Forces of Afghanistan (2004-),NATO: North Atlantic Treaty Organization,Civilians (Afghanistan),0,7,17,Southern Asia,Afghanistan,Parwan,Jabal Saraj,0,Jabal Saraj,35.1183,69.2378,2,BBC Monitoring; Afghan Islamic Press news agency,Regional,"On 22-November-2018, 3 civilians were killed and 8 others were wounded in operations conducted by Afghan Military and NATO Forces in the Jabal Saraj district, Parwan province.",3
CON2127329,2018 November,9,Violence against civilians,Military Forces of Afghanistan (2004-),0,Civilians (Afghanistan),0,7,17,Southern Asia,Afghanistan,Nangarhar,Khogyani,0,Kaga,34.2409,70.1827,2,BBC Monitoring; Afghan Islamic Press news agency,Regional,"On 22-November-2018, 4 civilians were killed and 4 others were arrested in operations conducted by Afghan Military Forces in the Senzo village in Khogyani district, Nangarhar province.",4
CON2127346,2018 November,9,Violence against civilians,Unidentified Armed Group (Afghanistan),0,Civilians (Afghanistan),Muslim Group (Afghanistan),7,37,Southern Asia,Afghanistan,Kabul,Kabul,0,Kabul,34.5167,69.1833,1,BBC Monitoring; Ariana News TV,Subnational,"On 24-November-2018, the head of the religious council of Kabul was killed by unidentified armed militants in the PD7 area of Kabul city.",1
CON2318667,2018 November,9,Violence against civilians,Taliban,0,Civilians (Afghanistan),0,7,27,Southern Asia,Afghanistan,Sar-e Pol,Sar-e Pol,0,Sar-e Pol,36.2154,65.9325,3,Associated Press International,International,"On 27-November-2018, 21 civilians were abducted by Taliban militants in Sar-e Pol province.",0
CON2347304,2018 December,9,Violence against civilians,NATO: North Atlantic Treaty Organization,0,Civilians (Afghanistan),0,7,78,Southern Asia,Afghanistan,Paktia,Zurmat,0,Zurmat,33.4378,69.0277,2,Pajhwok Afghan News English,National,"On 01-December-2018, 8 civilians were killed and 4 others were wounded in operations conducted by NATO Forces in Shamlazo village, Zurmat district, Paktia province.",8
CON2347319,2018 December,9,Violence against civilians,Taliban,0,Civilians (Afghanistan),Labour Group (Afghanistan),7,27,Southern Asia,Afghanistan,Samangan,Dara i Sufi Payan,0,Dara i Sufi Payan,35.9552,67.2692,2,Xinhua General News Service,International,"On 02-December-2018, 40 truck drivers were abducted by Taliban militants in the Khasjak Dara village in Dara I Sufi Payan district, Samangan province.",0
CON2347351,2018 December,9,Violence against civilians,Unidentified Armed Group (Afghanistan),0,Civilians (Afghanistan),Journalists (Afghanistan),7,37,Southern Asia,Afghanistan,Nangarhar,Jalalabad,0,Jalalabad,34.4265,70.4515,3,Associated Press International,International,"On 04-December-2018, 1 director of a TV station was abducted and his driver was killed by unidentified armed militants in Nangarhar province.",1
